{"type":"FeatureCollection","features":[{"type":"Feature","geometry":{"type":"MultiPolygon","coordinates":[[[[17.45085,43.17687],[17.43047,43.1838],[17.43,43.21042],[17.41679,43.23272],[17.33883,43.25826],[17.27204,43.36225],[17.25482,43.4024],[17.26705,43.41702],[17.28295,43.43603],[17.2845,43.45887],[17.27655,43.47182],[17.2219,43.49765],[17.15575,43.49465],[17.06612,43.55066],[17.01403,43.57302],[16.86852,43.70856],[16.82681,43.7324],[16.80779,43.7576],[16.75809,43.77339],[16.74438,43.77774],[16.72154,43.80485],[16.71958,43.81212],[16.70817,43.8546],[16.62782,43.90123],[16.59118,43.93976],[16.55336,43.95484],[16.54435,43.97418],[16.48714,43.97149],[16.41121,43.94231],[16.40144,43.91953],[16.39176,43.91905],[16.35318,43.91715],[16.3417,43.89787],[16.34515,43.88166],[16.39176,43.85566],[16.39715,43.85211],[16.43156,43.81656],[16.42395,43.81212],[16.39176,43.79332],[16.34906,43.76899],[16.35345,43.75255],[16.34055,43.73503],[16.34377,43.7054],[16.32503,43.69118],[16.25389,43.69372],[16.22631,43.67439],[16.15504,43.69054],[16.10303,43.61791],[16.05249,43.59658],[16.05783,43.56874],[16.08002,43.53987],[16.04779,43.53378],[16.05526,43.51355],[16.01653,43.50191],[16.04945,43.48048],[16.09188,43.47448],[16.15499,43.48975],[16.14494,43.50861],[16.15471,43.51462],[16.23687,43.51183],[16.24727,43.50303],[16.23478,43.49228],[16.24399,43.48489],[16.34963,43.48552],[16.35496,43.49158],[16.30039,43.52489],[16.35359,43.54752],[16.43119,43.53695],[16.43688,43.53016],[16.41739,43.51739],[16.41673,43.50818],[16.5263,43.49933],[16.64034,43.44299],[16.69179,43.4367],[16.73502,43.41586],[16.75809,43.41227],[16.89442,43.39104],[16.95367,43.35064],[17.12357,43.2039],[17.30823,43.1244],[17.35605,43.08416],[17.39129,43.11506],[17.36313,43.15197],[17.42016,43.15305],[17.45085,43.17687]]],[[[16.75809,43.35989],[16.55314,43.38596],[16.44054,43.38797],[16.44604,43.34981],[16.42316,43.32058],[16.53544,43.27047],[16.63171,43.25888],[16.75809,43.26204],[16.78106,43.26266],[16.85014,43.27165],[16.87798,43.28535],[16.89488,43.31305],[16.84806,43.33801],[16.82149,43.3376],[16.80755,43.35054],[16.7724,43.35806],[16.75809,43.35989]]],[[[16.75809,43.16012],[16.71382,43.16067],[16.69304,43.16899],[16.65842,43.21201],[16.60738,43.21651],[16.58147,43.2116],[16.55958,43.23097],[16.53657,43.22158],[16.56071,43.20766],[16.57549,43.19048],[16.57302,43.18213],[16.48746,43.20752],[16.39172,43.19368],[16.39172,43.18792],[16.45134,43.16294],[16.48829,43.16026],[16.54103,43.1416],[16.67032,43.12207],[16.75809,43.12433],[16.96247,43.11291],[17.11515,43.1151],[17.16181,43.12822],[17.14314,43.13734],[16.75809,43.16012]]],[[[16.051,43.05355],[16.06415,43.04183],[16.08528,43.04679],[16.09204,43.03711],[16.09151,43.02374],[16.07245,43.01348],[16.07092,43.00653],[16.11183,43.00735],[16.15215,43.01492],[16.19223,43.01854],[16.21217,43.01806],[16.22858,43.03009],[16.23324,43.03814],[16.25021,43.04979],[16.25556,43.06395],[16.25275,43.06974],[16.24227,43.06896],[16.23875,43.07611],[16.21217,43.07124],[16.19717,43.05917],[16.18524,43.06236],[16.19725,43.0738],[16.18237,43.08031],[16.14507,43.0792],[16.13197,43.07315],[16.12346,43.07677],[16.08298,43.07001],[16.051,43.05355]]],[[[16.20128,43.41124],[16.20355,43.39492],[16.21058,43.39275],[16.21097,43.38335],[16.23314,43.38176],[16.28466,43.36882],[16.30545,43.3592],[16.31872,43.34867],[16.35517,43.33636],[16.36418,43.33616],[16.38001,43.32727],[16.39176,43.33068],[16.39176,43.33979],[16.37297,43.35136],[16.35993,43.37043],[16.35031,43.37408],[16.3309,43.39212],[16.31513,43.38357],[16.31269,43.39727],[16.30116,43.3958],[16.29386,43.40331],[16.27866,43.4093],[16.25054,43.41381],[16.20128,43.41124]]],[[[16.11014,43.43047],[16.12826,43.42805],[16.14439,43.43018],[16.15352,43.43775],[16.1674,43.43284],[16.17481,43.44249],[16.16767,43.45428],[16.15722,43.4582],[16.13384,43.45765],[16.13377,43.45033],[16.12507,43.4509],[16.11014,43.43047]]],[[[16.66891,43.08758],[16.6843,43.082],[16.74015,43.08337],[16.73417,43.0945],[16.68846,43.09947],[16.66891,43.08758]]],[[[15.99897,42.98214],[16.00216,42.96095],[16.01743,42.95956],[16.02458,42.97619],[16.02137,42.98572],[16.00525,42.9937],[15.99897,42.98214]]],[[[16.33439,43.17097],[16.34687,43.16243],[16.36446,43.16072],[16.39189,43.15436],[16.39926,43.15751],[16.39189,43.16471],[16.36181,43.1671],[16.34913,43.17569],[16.33439,43.17097]]],[[[15.72774,43.02243],[15.74002,43.01539],[15.75929,43.02045],[15.771,43.03166],[15.75838,43.0359],[15.72774,43.02243]]],[[[16.06449,43.44876],[16.08055,43.44501],[16.08066,43.43773],[16.09216,43.43823],[16.0903,43.45509],[16.07235,43.4562],[16.06449,43.44876]]],[[[16.16442,43.40996],[16.16779,43.39803],[16.18816,43.39753],[16.18403,43.40481],[16.16442,43.40996]]],[[[16.40739,43.1524],[16.42374,43.15046],[16.42416,43.16226],[16.41605,43.1676],[16.40739,43.1524]]]]},"properties":{"code":"HR035","nom":"Splitsko-dalmatinska \u017eupanija","country":"HR"}},{"type":"Feature","geometry":{"type":"MultiPolygon","coordinates":[[[[13.6435,45.45597],[13.60696,45.46529],[13.52183,45.49878],[13.49953,45.48663],[13.51118,45.4624],[13.52162,45.41291],[13.54497,45.36327],[13.54685,45.33261],[13.56566,45.3175],[13.59037,45.31001],[13.57947,45.29603],[13.58918,45.28155],[13.58268,45.26267],[13.59453,45.2396],[13.58602,45.19887],[13.60334,45.14653],[13.62724,45.13189],[13.61864,45.11172],[13.63424,45.09233],[13.63858,45.06886],[13.68174,45.04824],[13.73031,44.9964],[13.7688,44.96946],[13.80019,44.92306],[13.81082,44.89278],[13.82517,44.87959],[13.81455,44.85811],[13.90462,44.79406],[13.91976,44.81336],[13.95632,44.80797],[13.9868,44.8145],[13.98553,44.8411],[13.99612,44.88827],[14.02428,44.91236],[14.06152,44.97263],[14.04776,45.00274],[14.04875,45.01439],[14.07806,44.99085],[14.08496,44.96061],[14.13802,44.96461],[14.15455,44.97382],[14.16405,44.99474],[14.15161,45.0402],[14.15579,45.06324],[14.19028,45.09979],[14.2264,45.15378],[14.19977,45.1668],[14.20077,45.1743],[14.20603,45.21381],[14.18384,45.29793],[14.1923,45.32029],[14.21073,45.33233],[14.20075,45.36784],[14.18484,45.38321],[14.20216,45.40222],[14.12478,45.44057],[14.11085,45.45813],[14.11128,45.48234],[14.07052,45.4869],[14.00673,45.51901],[13.9649,45.50546],[13.98314,45.4869],[13.9931,45.47677],[13.97905,45.45322],[13.92038,45.45217],[13.88117,45.4263],[13.81879,45.43503],[13.80064,45.45939],[13.78301,45.466],[13.67692,45.44468],[13.6513,45.45405],[13.6435,45.45597]]],[[[13.72866,44.93313],[13.74046,44.92979],[13.74302,44.92305],[13.75466,44.91624],[13.74726,44.90608],[13.7529,44.88984],[13.7589,44.89496],[13.75848,44.90562],[13.76547,44.90243],[13.77961,44.90946],[13.77563,44.91792],[13.75733,44.92042],[13.74411,44.94155],[13.72879,44.94529],[13.72866,44.93313]]],[[[13.93855,44.77216],[13.94315,44.76276],[13.95664,44.77167],[13.94563,44.78278],[13.93855,44.77216]]]]},"properties":{"code":"HR036","nom":"Istarska \u017eupanija","country":"HR"}},{"type":"Feature","geometry":{"type":"MultiPolygon","coordinates":[[[[17.64916,42.88892],[17.64632,42.87983],[17.59499,42.89743],[17.54365,42.91502],[17.51487,42.90981],[17.47799,42.9165],[17.42752,42.95555],[17.27283,43.00818],[17.16617,43.02341],[17.08006,43.02217],[17.02193,43.03432],[17.02855,43.00419],[17.06193,42.98837],[17.14162,42.97556],[17.21841,42.9774],[17.35857,42.91712],[17.42533,42.90483],[17.46298,42.86573],[17.59499,42.83082],[17.72343,42.79685],[17.74817,42.7816],[17.75585,42.80078],[17.77992,42.79403],[17.80548,42.80412],[17.83888,42.80077],[17.87713,42.77909],[17.88431,42.76345],[17.98242,42.70749],[18.06971,42.67491],[18.07691,42.65149],[18.10901,42.63282],[18.2064,42.61544],[18.22295,42.59561],[18.22662,42.57138],[18.28377,42.52849],[18.46001,42.44248],[18.50206,42.41254],[18.52521,42.42046],[18.49913,42.437],[18.47371,42.46445],[18.46131,42.47134],[18.45223,42.4737],[18.43499,42.48403],[18.44609,42.51021],[18.43693,42.52066],[18.4401,42.54901],[18.4381,42.5557],[18.39053,42.59344],[18.36212,42.61598],[18.28762,42.61627],[18.24839,42.60511],[18.188,42.6555],[18.15743,42.65675],[18.14074,42.67788],[18.107,42.6889],[18.0989,42.71474],[18.04481,42.74571],[18.00893,42.75566],[18.00225,42.76345],[17.99163,42.77585],[17.94836,42.79859],[17.89252,42.81261],[17.89552,42.83191],[17.87311,42.84523],[17.85392,42.88981],[17.83396,42.90651],[17.80968,42.91384],[17.78689,42.89405],[17.75439,42.91063],[17.68931,42.92182],[17.64916,42.88892]]],[[[17.58133,42.93842],[17.59499,42.94222],[17.7074,42.9735],[17.64176,43.08694],[17.59499,43.10897],[17.45085,43.17687],[17.42016,43.15305],[17.36313,43.15197],[17.39129,43.11506],[17.35605,43.08416],[17.40749,43.04349],[17.42225,43.04049],[17.42911,43.02806],[17.4613,43.01846],[17.47747,43.00102],[17.4772,42.98897],[17.51777,42.95251],[17.58133,42.93842]]],[[[16.75809,42.97819],[16.69301,42.99137],[16.6511,42.98591],[16.65134,42.97942],[16.68989,42.96344],[16.64428,42.93197],[16.65586,42.9212],[16.75809,42.90799],[16.85072,42.90369],[16.87269,42.896],[16.97168,42.9249],[17.11717,42.9091],[17.18211,42.92131],[17.16133,42.9366],[17.15729,42.95651],[17.04475,42.97718],[16.92433,42.9714],[16.85376,42.95875],[16.75809,42.97819]]],[[[17.33018,42.77747],[17.34305,42.77005],[17.36549,42.76345],[17.38094,42.75892],[17.3885,42.76345],[17.39718,42.76345],[17.4049,42.76241],[17.41394,42.75619],[17.43328,42.75371],[17.44336,42.74787],[17.46115,42.75011],[17.48602,42.74394],[17.5072,42.73471],[17.531,42.73382],[17.56291,42.72367],[17.59077,42.72011],[17.60735,42.72141],[17.64313,42.71691],[17.65967,42.71072],[17.6956,42.70206],[17.7072,42.69427],[17.71617,42.69839],[17.72977,42.69555],[17.73765,42.69847],[17.74008,42.68991],[17.7526,42.69185],[17.74352,42.70866],[17.68639,42.72811],[17.67292,42.72642],[17.66969,42.73302],[17.63095,42.73863],[17.60309,42.73816],[17.60095,42.74815],[17.52495,42.76345],[17.51349,42.76576],[17.44826,42.78014],[17.43724,42.78518],[17.38493,42.78693],[17.39101,42.79903],[17.36714,42.80109],[17.3422,42.78987],[17.33018,42.77747]]],[[[16.79926,42.76345],[16.80969,42.75664],[16.8228,42.76345],[16.82631,42.74866],[16.82013,42.74661],[16.82552,42.73247],[16.83493,42.73273],[16.84335,42.72345],[16.84562,42.73119],[16.87107,42.73663],[16.88358,42.73182],[16.88454,42.72447],[16.90463,42.72742],[16.92292,42.73717],[16.9348,42.75195],[16.94008,42.76345],[16.92077,42.77189],[16.85819,42.77571],[16.81272,42.77291],[16.79926,42.76345]]],[[[17.8369,42.75225],[17.86081,42.72856],[17.86368,42.7206],[17.88456,42.71323],[17.90311,42.70082],[17.91506,42.70582],[17.91922,42.71592],[17.9033,42.72898],[17.86532,42.74546],[17.85353,42.75446],[17.8369,42.75225]]],[[[17.93368,42.68283],[17.93899,42.67431],[17.95176,42.67449],[17.96082,42.68793],[17.94358,42.69869],[17.93368,42.68283]]],[[[16.49864,42.76452],[16.52653,42.75801],[16.53786,42.7655],[16.52808,42.77234],[16.50691,42.77473],[16.49864,42.76452]]],[[[18.00031,42.67578],[18.01449,42.66831],[18.01864,42.6593],[18.02565,42.66513],[18.01232,42.68278],[18.00031,42.67578]]],[[[17.79169,42.75018],[17.80194,42.73911],[17.81549,42.7402],[17.8092,42.75132],[17.79169,42.75018]]],[[[17.82291,42.73493],[17.83384,42.72688],[17.84303,42.73765],[17.82883,42.74424],[17.82291,42.73493]]],[[[16.97884,42.76458],[16.9866,42.76588],[16.98555,42.77329],[16.99667,42.7788],[16.99244,42.78539],[16.98004,42.78014],[16.97884,42.76458]]],[[[17.76377,42.764],[17.77963,42.7537],[17.78786,42.75847],[17.77667,42.76945],[17.76377,42.764]]],[[[16.9573,42.7604],[16.97221,42.75226],[16.97809,42.75994],[16.96827,42.76982],[16.9573,42.7604]]],[[[16.78149,42.75987],[16.79023,42.75794],[16.79611,42.77674],[16.78521,42.777],[16.78149,42.75987]]]]},"properties":{"code":"HR037","nom":"Dubrova\u010dko-neretvanska \u017eupanija","country":"HR"}},{"type":"Feature","geometry":{"type":"MultiPolygon","coordinates":[[[[16.15481,45.96877],[16.14112,45.96804],[16.13275,45.96507],[16.11616,45.9686],[16.10825,45.95638],[16.09656,45.9541],[16.08973,45.95858],[16.07787,45.95563],[16.05213,45.94332],[16.04901,45.93835],[16.03644,45.93828],[16.0211,45.93195],[16.00625,45.92877],[15.99883,45.92363],[15.97606,45.91499],[15.97065,45.90884],[15.95677,45.90159],[15.90209,45.88296],[15.87172,45.85699],[15.82561,45.8372],[15.83806,45.79083],[15.82706,45.77761],[15.86348,45.76258],[15.87955,45.74655],[15.8546,45.72138],[15.79164,45.73234],[15.7751,45.70117],[15.78546,45.68643],[15.87554,45.65378],[15.90275,45.63297],[15.90446,45.6207],[15.91837,45.61604],[15.9464,45.63241],[15.97479,45.70117],[15.98841,45.71648],[16.01384,45.72161],[16.02905,45.75499],[16.06092,45.76243],[16.10444,45.78854],[16.1366,45.79889],[16.19684,45.78387],[16.2066,45.828],[16.22566,45.84125],[16.22392,45.86191],[16.2,45.88876],[16.18177,45.89544],[16.17018,45.94419],[16.15481,45.96877]]]]},"properties":{"code":"HR050","nom":"Grad Zagreb","country":"HR"}},{"type":"Feature","geometry":{"type":"MultiPolygon","coordinates":[[[[16.15481,45.96877],[16.17018,45.94419],[16.18177,45.89544],[16.2,45.88876],[16.22392,45.86191],[16.22566,45.84125],[16.2066,45.828],[16.19684,45.78387],[16.1366,45.79889],[16.10444,45.78854],[16.06092,45.76243],[16.02905,45.75499],[16.01384,45.72161],[15.98841,45.71648],[15.97479,45.70117],[15.9464,45.63241],[15.91837,45.61604],[15.90446,45.6207],[15.90275,45.63297],[15.87554,45.65378],[15.78546,45.68643],[15.7751,45.70117],[15.79164,45.73234],[15.8546,45.72138],[15.87955,45.74655],[15.86348,45.76258],[15.82706,45.77761],[15.83806,45.79083],[15.82561,45.8372],[15.87172,45.85699],[15.90209,45.88296],[15.95677,45.90159],[15.95166,45.92881],[15.91843,45.95445],[15.81597,45.99006],[15.79406,45.98693],[15.77509,45.96952],[15.70641,45.97526],[15.70817,45.92914],[15.68326,45.90443],[15.68065,45.87084],[15.70486,45.84794],[15.66726,45.84014],[15.64199,45.82415],[15.5797,45.85033],[15.55947,45.83951],[15.5427,45.84601],[15.5228,45.82357],[15.48211,45.8277],[15.46896,45.81646],[15.46685,45.79607],[15.40442,45.79272],[15.33129,45.76285],[15.33454,45.73736],[15.40415,45.70117],[15.41109,45.69101],[15.44337,45.68739],[15.46513,45.65784],[15.51102,45.6399],[15.51529,45.61052],[15.56472,45.5921],[15.59368,45.61212],[15.61925,45.61771],[15.66097,45.59943],[15.6995,45.59979],[15.73016,45.57506],[15.74471,45.59297],[15.75017,45.57714],[15.74228,45.56074],[15.78565,45.53464],[15.78914,45.52304],[15.8117,45.52598],[15.83759,45.54576],[15.86176,45.5462],[15.87236,45.53016],[15.90132,45.52869],[15.91601,45.51673],[15.92078,45.4869],[15.92211,45.47859],[15.97365,45.47169],[16.01724,45.48568],[16.05722,45.47968],[16.06198,45.4869],[16.07217,45.50236],[16.10007,45.5163],[16.09714,45.53665],[16.07159,45.56836],[16.10677,45.60943],[16.15991,45.63569],[16.18028,45.63506],[16.20016,45.61168],[16.24502,45.59737],[16.3285,45.64329],[16.34302,45.62487],[16.39176,45.6248],[16.47123,45.57301],[16.48762,45.58432],[16.50524,45.60245],[16.54858,45.62309],[16.58681,45.62967],[16.60992,45.67036],[16.5771,45.70117],[16.56735,45.71026],[16.54374,45.70919],[16.51923,45.72312],[16.49234,45.72597],[16.52009,45.75949],[16.50266,45.77226],[16.51224,45.77976],[16.51085,45.79367],[16.55377,45.80406],[16.60185,45.79199],[16.60445,45.81619],[16.63431,45.84245],[16.64777,45.82767],[16.662,45.83165],[16.68009,45.824],[16.6839,45.83744],[16.7116,45.85466],[16.69779,45.88278],[16.7022,45.92312],[16.67356,45.92885],[16.64819,45.92064],[16.59809,45.92222],[16.54476,45.95778],[16.50858,45.9678],[16.46787,45.94924],[16.46339,45.97299],[16.43931,45.98531],[16.42921,46.00144],[16.40181,46.00269],[16.39176,46.00683],[16.34149,46.02754],[16.30156,46.01376],[16.28206,46.02008],[16.27276,46.03567],[16.25128,46.07165],[16.21157,46.0455],[16.2146,46.03567],[16.21836,46.02344],[16.17982,46.01873],[16.19515,45.99882],[16.16414,45.99546],[16.15481,45.96877]]]]},"properties":{"code":"HR065","nom":"Zagreba\u010dka \u017eupanija","country":"HR"}},{"type":"Feature","geometry":{"type":"MultiPolygon","coordinates":[[[[15.70641,45.97526],[15.77509,45.96952],[15.79406,45.98693],[15.81597,45.99006],[15.91843,45.95445],[15.95166,45.92881],[15.95677,45.90159],[15.97065,45.90884],[15.97606,45.91499],[15.99883,45.92363],[16.00625,45.92877],[16.0211,45.93195],[16.03644,45.93828],[16.04901,45.93835],[16.05213,45.94332],[16.07787,45.95563],[16.08973,45.95858],[16.09656,45.9541],[16.10825,45.95638],[16.11616,45.9686],[16.13275,45.96507],[16.14112,45.96804],[16.15481,45.96877],[16.16414,45.99546],[16.19515,45.99882],[16.17982,46.01873],[16.21836,46.02344],[16.2146,46.03567],[16.21157,46.0455],[16.25128,46.07165],[16.24129,46.1253],[16.24984,46.15324],[16.23346,46.17381],[16.24247,46.1863],[16.20387,46.1912],[16.19432,46.20925],[16.14272,46.18027],[16.11296,46.18343],[16.09007,46.19652],[15.99744,46.18799],[15.94747,46.20351],[15.92796,46.22358],[15.88692,46.23378],[15.87349,46.27932],[15.85694,46.2671],[15.79148,46.25933],[15.79791,46.23873],[15.77444,46.21206],[15.67926,46.22594],[15.64605,46.21355],[15.64418,46.19003],[15.60926,46.16626],[15.60954,46.15324],[15.5998,46.14539],[15.61048,46.13157],[15.60724,46.11098],[15.62726,46.08595],[15.64831,46.0857],[15.66092,46.07343],[15.7267,46.04785],[15.72092,46.03567],[15.70358,45.99911],[15.70641,45.97526]]]]},"properties":{"code":"HR064","nom":"Krapinsko-zagorska \u017eupanija","country":"HR"}},{"type":"Feature","geometry":{"type":"MultiPolygon","coordinates":[[[[16.30155,46.37829],[16.19342,46.38021],[16.14479,46.40421],[16.08957,46.39004],[16.06017,46.39185],[16.05342,46.3819],[16.07239,46.3609],[16.07035,46.34221],[16.03162,46.33246],[16.01206,46.30987],[15.98182,46.3124],[15.95303,46.29398],[15.87349,46.27932],[15.88692,46.23378],[15.92796,46.22358],[15.94747,46.20351],[15.99744,46.18799],[16.09007,46.19652],[16.11296,46.18343],[16.14272,46.18027],[16.19432,46.20925],[16.20387,46.1912],[16.24247,46.1863],[16.23346,46.17381],[16.24984,46.15324],[16.24129,46.1253],[16.25128,46.07165],[16.27276,46.03567],[16.28206,46.02008],[16.30156,46.01376],[16.34149,46.02754],[16.34273,46.03567],[16.34964,46.08085],[16.37749,46.10919],[16.38111,46.12529],[16.39176,46.13077],[16.42375,46.14725],[16.44359,46.13287],[16.46762,46.13617],[16.48774,46.14611],[16.49013,46.16366],[16.54626,46.16844],[16.54852,46.18493],[16.58821,46.20448],[16.63215,46.19834],[16.68255,46.2062],[16.75446,46.25543],[16.75809,46.26478],[16.77362,46.30478],[16.75809,46.30714],[16.74502,46.30912],[16.73848,46.31976],[16.67491,46.32061],[16.61158,46.31039],[16.56484,46.32724],[16.52309,46.30979],[16.46208,46.32336],[16.43924,46.31346],[16.40843,46.31982],[16.39176,46.31753],[16.37175,46.31478],[16.30155,46.37829]]]]},"properties":{"code":"HR062","nom":"Vara\u017edinska \u017eupanija","country":"HR"}},{"type":"Feature","geometry":{"type":"MultiPolygon","coordinates":[[[[17.44154,45.57507],[17.46085,45.576],[17.49604,45.56142],[17.52596,45.57675],[17.5894,45.54772],[17.59499,45.54335],[17.62573,45.51928],[17.77875,45.49423],[17.78961,45.4869],[17.80715,45.47508],[17.82803,45.47416],[17.85564,45.48683],[17.88574,45.47365],[17.9119,45.4869],[17.93984,45.50105],[17.9571,45.53601],[18.0433,45.62831],[18.06574,45.63349],[18.06196,45.64246],[18.03507,45.64508],[18.01788,45.6581],[18.00362,45.70117],[17.99658,45.71708],[17.96438,45.71815],[17.9602,45.72773],[17.93473,45.73214],[17.91209,45.79078],[17.86317,45.77074],[17.82487,45.80624],[17.77875,45.81202],[17.75948,45.81443],[17.73862,45.82878],[17.67064,45.83649],[17.6515,45.84784],[17.62375,45.8998],[17.59499,45.91812],[17.57103,45.93338],[17.44654,45.94788],[17.42668,45.93115],[17.39887,45.93318],[17.3487,45.94805],[17.36381,45.97916],[17.3365,45.9892],[17.31805,45.97104],[17.31372,45.98556],[17.29433,45.98854],[17.19527,45.97891],[17.12537,45.91646],[17.12205,45.88336],[17.16143,45.87129],[17.20454,45.83663],[17.27222,45.80874],[17.28524,45.77978],[17.31802,45.7666],[17.32536,45.7528],[17.35698,45.75637],[17.36268,45.74544],[17.35657,45.72442],[17.37559,45.71945],[17.3858,45.70391],[17.44049,45.72743],[17.45181,45.72167],[17.45466,45.70895],[17.48687,45.69938],[17.48876,45.68416],[17.45182,45.61064],[17.4261,45.59356],[17.42891,45.58156],[17.44154,45.57507]]],[[[17.37255,45.95975],[17.38495,45.95372],[17.39615,45.95897],[17.38895,45.96898],[17.37255,45.95975]]]]},"properties":{"code":"HR022","nom":"Viroviti\u010dko-podravska \u017eupanija","country":"HR"}},{"type":"Feature","geometry":{"type":"MultiPolygon","coordinates":[[[[17.88574,45.47365],[17.85564,45.48683],[17.82803,45.47416],[17.80715,45.47508],[17.78961,45.4869],[17.77875,45.49423],[17.62573,45.51928],[17.59499,45.54335],[17.5894,45.54772],[17.52596,45.57675],[17.49604,45.56142],[17.46085,45.576],[17.44154,45.57507],[17.44786,45.56081],[17.43921,45.53027],[17.40908,45.51033],[17.34569,45.52308],[17.23159,45.5121],[17.18194,45.53385],[17.15299,45.51411],[17.11638,45.51842],[17.08272,45.50492],[17.05108,45.51841],[17.01176,45.50892],[16.95482,45.53871],[16.93355,45.51506],[16.92996,45.48165],[16.95894,45.45636],[17.00681,45.45371],[17.02441,45.42345],[17.04277,45.42178],[17.052,45.43496],[17.06371,45.43585],[17.06741,45.42594],[17.04935,45.39429],[17.12102,45.37015],[17.13598,45.34614],[17.17597,45.3486],[17.24038,45.39007],[17.31195,45.36725],[17.33226,45.36902],[17.34227,45.38292],[17.40577,45.39013],[17.45544,45.35519],[17.48567,45.34457],[17.49142,45.32532],[17.50733,45.31138],[17.57164,45.28065],[17.59499,45.27368],[17.61104,45.26888],[17.69392,45.26851],[17.70633,45.2523],[17.71398,45.21657],[17.70409,45.2028],[17.75345,45.18361],[17.77113,45.18868],[17.77875,45.20102],[17.78823,45.21637],[17.8217,45.21098],[17.87896,45.25402],[17.89911,45.28533],[17.97588,45.28622],[18.07225,45.2657],[18.11086,45.30048],[18.09584,45.32942],[18.07565,45.34382],[18.1104,45.36874],[18.10774,45.38135],[18.09058,45.39815],[18.03248,45.39756],[18.01565,45.41365],[17.98785,45.41637],[17.93763,45.44972],[17.8941,45.45668],[17.88574,45.47365]]]]},"properties":{"code":"HR023","nom":"Po\u017ee\u0161ko-slavonska \u017eupanija","country":"HR"}},{"type":"Feature","geometry":{"type":"MultiPolygon","coordinates":[[[[17.17597,45.3486],[17.19121,45.33089],[17.17292,45.31785],[17.18014,45.29748],[17.15652,45.28752],[17.13092,45.2607],[17.0947,45.24624],[17.0825,45.22615],[17.08235,45.21576],[17.11395,45.19903],[17.1328,45.1743],[17.14119,45.16329],[17.17921,45.14789],[17.24138,45.14679],[17.26398,45.1743],[17.27303,45.1853],[17.30619,45.1743],[17.33783,45.14788],[17.3666,45.1386],[17.41298,45.1375],[17.44519,45.15491],[17.45579,45.13113],[17.48262,45.13146],[17.48784,45.1152],[17.50166,45.11128],[17.52819,45.11134],[17.54667,45.12398],[17.56244,45.11202],[17.59499,45.10866],[17.67156,45.12897],[17.85272,45.048],[17.91767,45.07213],[17.94008,45.10721],[18.00563,45.14627],[18.0356,45.13403],[18.06798,45.13513],[18.08404,45.10378],[18.12678,45.0826],[18.19973,45.08397],[18.21371,45.09638],[18.22053,45.12389],[18.25338,45.13534],[18.32483,45.10455],[18.41955,45.10532],[18.47336,45.06754],[18.52354,45.05467],[18.54165,45.06977],[18.52967,45.08751],[18.49325,45.1232],[18.53108,45.1743],[18.5351,45.17973],[18.56417,45.1963],[18.56796,45.223],[18.52112,45.2325],[18.52105,45.21538],[18.50909,45.20652],[18.44492,45.21157],[18.34862,45.24513],[18.30211,45.24303],[18.26305,45.22587],[18.21712,45.21947],[18.17393,45.24313],[18.07225,45.2657],[17.97588,45.28622],[17.89911,45.28533],[17.87896,45.25402],[17.8217,45.21098],[17.78823,45.21637],[17.77875,45.20102],[17.77113,45.18868],[17.75345,45.18361],[17.70409,45.2028],[17.71398,45.21657],[17.70633,45.2523],[17.69392,45.26851],[17.61104,45.26888],[17.59499,45.27368],[17.57164,45.28065],[17.50733,45.31138],[17.49142,45.32532],[17.48567,45.34457],[17.45544,45.35519],[17.40577,45.39013],[17.34227,45.38292],[17.33226,45.36902],[17.31195,45.36725],[17.24038,45.39007],[17.17597,45.3486]]]]},"properties":{"code":"HR024","nom":"Brodsko-posavska \u017eupanija","country":"HR"}},{"type":"Feature","geometry":{"type":"MultiPolygon","coordinates":[[[[17.91209,45.79078],[17.93473,45.73214],[17.9602,45.72773],[17.96438,45.71815],[17.99658,45.71708],[18.00362,45.70117],[18.01788,45.6581],[18.03507,45.64508],[18.06196,45.64246],[18.06574,45.63349],[18.0433,45.62831],[17.9571,45.53601],[17.93984,45.50105],[17.9119,45.4869],[17.88574,45.47365],[17.8941,45.45668],[17.93763,45.44972],[17.98785,45.41637],[18.01565,45.41365],[18.03248,45.39756],[18.09058,45.39815],[18.10774,45.38135],[18.1104,45.36874],[18.07565,45.34382],[18.09584,45.32942],[18.11086,45.30048],[18.07225,45.2657],[18.17393,45.24313],[18.21712,45.21947],[18.26305,45.22587],[18.30211,45.24303],[18.34862,45.24513],[18.44492,45.21157],[18.50909,45.20652],[18.52105,45.21538],[18.52112,45.2325],[18.51064,45.2418],[18.5152,45.29109],[18.53964,45.30058],[18.5686,45.29751],[18.59147,45.31608],[18.62908,45.31634],[18.6246,45.34431],[18.64772,45.35504],[18.64806,45.39069],[18.74591,45.41492],[18.77551,45.40395],[18.79535,45.40802],[18.79973,45.42026],[18.78954,45.43528],[18.80076,45.46061],[18.84206,45.46704],[18.85508,45.48204],[18.88314,45.48444],[18.91238,45.47252],[18.95143,45.43289],[19.00526,45.43463],[18.99637,45.44019],[18.99051,45.4469],[18.98877,45.45385],[18.99207,45.48039],[18.99575,45.4869],[18.99865,45.49204],[19.00855,45.49663],[19.03373,45.4869],[19.07527,45.49289],[19.08592,45.51055],[19.01991,45.54683],[18.94574,45.54201],[18.91189,45.57398],[18.92966,45.60936],[18.91633,45.61979],[18.94085,45.62556],[18.95886,45.65321],[18.94209,45.69285],[18.96123,45.7063],[18.94787,45.72452],[18.9639,45.74717],[18.95443,45.75655],[18.90518,45.75622],[18.89786,45.7705],[18.91078,45.79459],[18.90865,45.81049],[18.85913,45.8224],[18.86353,45.8504],[18.88707,45.87189],[18.88973,45.92118],[18.87621,45.91593],[18.86538,45.91881],[18.86671,45.91115],[18.83027,45.90521],[18.82131,45.91438],[18.80888,45.88455],[18.79781,45.87926],[18.70323,45.91667],[18.66211,45.91252],[18.65928,45.89773],[18.6446,45.88811],[18.65085,45.87375],[18.63037,45.87032],[18.6187,45.83986],[18.57782,45.81384],[18.57274,45.80273],[18.51862,45.78466],[18.49312,45.79314],[18.47992,45.76939],[18.45006,45.76306],[18.44215,45.73928],[18.40575,45.74172],[18.38783,45.76201],[18.37005,45.76849],[18.33805,45.75018],[18.24768,45.76185],[18.22681,45.77815],[18.19023,45.78488],[18.16801,45.77839],[18.12789,45.78813],[18.10182,45.7688],[18.08089,45.76583],[17.9973,45.79373],[17.91209,45.79078]]]]},"properties":{"code":"HR025","nom":"Osje\u010dko-baranjska \u017eupanija","country":"HR"}},{"type":"Feature","geometry":{"type":"MultiPolygon","coordinates":[[[[18.52112,45.2325],[18.56796,45.223],[18.56417,45.1963],[18.5351,45.17973],[18.53108,45.1743],[18.49325,45.1232],[18.52967,45.08751],[18.56864,45.07839],[18.58138,45.08864],[18.61976,45.08563],[18.62045,45.06735],[18.64125,45.06173],[18.66237,45.08342],[18.67529,45.08539],[18.67837,45.05735],[18.72514,45.02226],[18.73583,44.99962],[18.78877,44.98711],[18.79731,44.94695],[18.76525,44.93525],[18.76829,44.91112],[18.84122,44.86139],[18.93542,44.8506],[19.02207,44.85535],[19.00155,44.89073],[19.00606,44.90959],[19.02895,44.91691],[19.07806,44.9122],[19.14363,44.9556],[19.13246,44.97406],[19.07823,44.98328],[19.10026,45.03161],[19.10048,45.07449],[19.08388,45.11553],[19.08801,45.13104],[19.15301,45.14288],[19.18124,45.17186],[19.17589,45.19018],[19.18404,45.19692],[19.24098,45.17715],[19.27465,45.17497],[19.29037,45.19956],[19.30805,45.20376],[19.35312,45.16871],[19.42517,45.16769],[19.42917,45.1743],[19.44345,45.19784],[19.41975,45.23055],[19.35317,45.23152],[19.26561,45.24254],[19.26178,45.25164],[19.27212,45.27189],[19.26514,45.27789],[19.21559,45.26542],[19.14252,45.28125],[19.1092,45.29785],[19.08806,45.33594],[19.07637,45.33964],[18.98361,45.36894],[18.97354,45.37963],[18.97637,45.39271],[19.02688,45.41026],[19.02441,45.42197],[19.00526,45.43463],[18.95143,45.43289],[18.91238,45.47252],[18.88314,45.48444],[18.85508,45.48204],[18.84206,45.46704],[18.80076,45.46061],[18.78954,45.43528],[18.79973,45.42026],[18.79535,45.40802],[18.77551,45.40395],[18.74591,45.41492],[18.64806,45.39069],[18.64772,45.35504],[18.6246,45.34431],[18.62908,45.31634],[18.59147,45.31608],[18.5686,45.29751],[18.53964,45.30058],[18.5152,45.29109],[18.51064,45.2418],[18.52112,45.2325]]]]},"properties":{"code":"HR026","nom":"Vukovarsko-srijemska \u017eupanija","country":"HR"}},{"type":"Feature","geometry":{"type":"MultiPolygon","coordinates":[[[[15.01663,45.12303],[15.03762,45.11734],[15.11069,45.09056],[15.13861,45.08847],[15.19159,45.10928],[15.23969,45.07666],[15.2993,45.05066],[15.32989,45.02341],[15.37487,45.0102],[15.44333,44.93491],[15.46698,44.92797],[15.51396,44.93063],[15.5241,44.91093],[15.55932,44.8852],[15.57043,44.89195],[15.5308,44.9213],[15.53647,44.93786],[15.58209,44.9273],[15.6003,44.93086],[15.60325,44.93909],[15.62381,44.93354],[15.65909,44.94607],[15.70866,44.92135],[15.73672,44.93563],[15.75021,44.96472],[15.77774,44.97171],[15.78294,44.98247],[15.75306,45.05066],[15.74496,45.06205],[15.76871,45.0772],[15.78748,45.11521],[15.7682,45.16611],[15.77384,45.1743],[15.78241,45.18672],[15.84002,45.22447],[15.82828,45.23973],[15.80087,45.24844],[15.78257,45.27065],[15.80358,45.31318],[15.76842,45.36731],[15.77874,45.38668],[15.80221,45.38208],[15.82484,45.3916],[15.82137,45.40597],[15.83858,45.42213],[15.85004,45.45684],[15.83146,45.46536],[15.83215,45.4869],[15.83545,45.49136],[15.87492,45.50164],[15.90576,45.4869],[15.92211,45.47859],[15.92078,45.4869],[15.91601,45.51673],[15.90132,45.52869],[15.87236,45.53016],[15.86176,45.5462],[15.83759,45.54576],[15.8117,45.52598],[15.78914,45.52304],[15.78565,45.53464],[15.74228,45.56074],[15.75017,45.57714],[15.74471,45.59297],[15.73016,45.57506],[15.6995,45.59979],[15.66097,45.59943],[15.61925,45.61771],[15.59368,45.61212],[15.56472,45.5921],[15.51529,45.61052],[15.51102,45.6399],[15.46513,45.65784],[15.44337,45.68739],[15.41109,45.69101],[15.40415,45.70117],[15.33454,45.73736],[15.33129,45.76285],[15.27415,45.73474],[15.26648,45.72156],[15.31442,45.68884],[15.35358,45.70754],[15.35766,45.68103],[15.3763,45.67599],[15.39463,45.65083],[15.31736,45.63137],[15.28656,45.60152],[15.30973,45.53451],[15.37163,45.4869],[15.33167,45.45849],[15.26264,45.45603],[15.22644,45.42709],[15.22276,45.39244],[15.18374,45.34459],[15.16958,45.31272],[15.12654,45.3022],[15.10284,45.28365],[15.03888,45.30304],[15.01984,45.31957],[14.98978,45.30896],[14.98374,45.28425],[14.96679,45.27242],[14.98583,45.24729],[14.9793,45.22855],[14.9881,45.20545],[14.97675,45.1743],[14.97628,45.15687],[14.98086,45.14972],[15.01144,45.1329],[15.01663,45.12303]]]]},"properties":{"code":"HR027","nom":"Karlova\u010dka \u017eupanija","country":"HR"}},{"type":"Feature","geometry":{"type":"MultiPolygon","coordinates":[[[[15.84002,45.22447],[15.88245,45.21958],[15.9134,45.22704],[15.93404,45.21521],[15.98341,45.22617],[16.01652,45.21027],[16.02369,45.18185],[16.04832,45.1743],[16.08173,45.13633],[16.09049,45.1056],[16.16109,45.0789],[16.1792,45.05066],[16.19517,45.03337],[16.24208,45.01409],[16.26809,45.01392],[16.29411,44.99793],[16.35137,45.00419],[16.35895,45.03255],[16.37513,45.05066],[16.39176,45.08277],[16.39827,45.09535],[16.39735,45.11249],[16.46378,45.14418],[16.47695,45.1743],[16.48762,45.19868],[16.52325,45.22405],[16.5594,45.22001],[16.60029,45.22933],[16.68673,45.19835],[16.7334,45.20576],[16.75809,45.20039],[16.82315,45.18623],[16.84093,45.19518],[16.84008,45.2159],[16.85924,45.21155],[16.86875,45.23035],[16.88007,45.23114],[16.88083,45.24392],[16.92989,45.27365],[16.94901,45.2568],[16.9392,45.24189],[16.94208,45.23107],[16.96973,45.23053],[16.96722,45.24562],[16.97563,45.24701],[16.99116,45.22517],[17.01339,45.23407],[17.01532,45.21881],[17.03604,45.22031],[17.07627,45.1893],[17.11372,45.1743],[17.14119,45.16329],[17.1328,45.1743],[17.11395,45.19903],[17.08235,45.21576],[17.0825,45.22615],[17.0947,45.24624],[17.13092,45.2607],[17.15652,45.28752],[17.18014,45.29748],[17.17292,45.31785],[17.19121,45.33089],[17.17597,45.3486],[17.13598,45.34614],[17.12102,45.37015],[17.04935,45.39429],[17.06741,45.42594],[17.06371,45.43585],[17.052,45.43496],[17.04277,45.42178],[17.02441,45.42345],[17.00681,45.45371],[16.95894,45.45636],[16.92996,45.48165],[16.92558,45.4713],[16.91381,45.47028],[16.90231,45.4869],[16.89346,45.4997],[16.86073,45.51259],[16.86742,45.52807],[16.85254,45.54795],[16.81062,45.57323],[16.79041,45.622],[16.75809,45.61901],[16.73084,45.62696],[16.70308,45.65326],[16.60992,45.67036],[16.58681,45.62967],[16.54858,45.62309],[16.50524,45.60245],[16.48762,45.58432],[16.47123,45.57301],[16.39176,45.6248],[16.34302,45.62487],[16.3285,45.64329],[16.24502,45.59737],[16.20016,45.61168],[16.18028,45.63506],[16.15991,45.63569],[16.10677,45.60943],[16.07159,45.56836],[16.09714,45.53665],[16.10007,45.5163],[16.07217,45.50236],[16.06198,45.4869],[16.05722,45.47968],[16.01724,45.48568],[15.97365,45.47169],[15.92211,45.47859],[15.90576,45.4869],[15.87492,45.50164],[15.83545,45.49136],[15.83215,45.4869],[15.83146,45.46536],[15.85004,45.45684],[15.83858,45.42213],[15.82137,45.40597],[15.82484,45.3916],[15.80221,45.38208],[15.77874,45.38668],[15.76842,45.36731],[15.80358,45.31318],[15.78257,45.27065],[15.80087,45.24844],[15.82828,45.23973],[15.84002,45.22447]]]]},"properties":{"code":"HR028","nom":"Sisa\u010dko-moslava\u010dka \u017eupanija","country":"HR"}},{"type":"Feature","geometry":{"type":"MultiPolygon","coordinates":[[[[16.7022,45.92312],[16.70037,45.96428],[16.72238,46.01626],[16.72274,46.03567],[16.75809,46.05085],[16.77493,46.05808],[16.79248,46.04868],[16.81457,46.05384],[16.84406,46.08545],[16.86742,46.07964],[16.87685,46.05892],[16.90623,46.03567],[16.90482,45.99115],[16.96503,45.98403],[16.99108,45.96707],[16.99252,45.93544],[17.04923,45.93556],[17.07075,45.9091],[17.12205,45.88336],[17.12537,45.91646],[17.19527,45.97891],[17.29433,45.98854],[17.2965,46.00089],[17.26943,46.01316],[17.28163,46.02945],[17.2651,46.03567],[17.26218,46.05649],[17.22573,46.08113],[17.21378,46.10582],[17.18207,46.11208],[17.17959,46.14318],[17.15904,46.16482],[16.98235,46.22489],[16.89227,46.27976],[16.87604,46.3206],[16.87562,46.33666],[16.85476,46.35044],[16.85256,46.3291],[16.82025,46.29146],[16.80058,46.30518],[16.77362,46.30478],[16.75809,46.26478],[16.75446,46.25543],[16.68255,46.2062],[16.63215,46.19834],[16.58821,46.20448],[16.54852,46.18493],[16.54626,46.16844],[16.49013,46.16366],[16.48774,46.14611],[16.46762,46.13617],[16.44359,46.13287],[16.42375,46.14725],[16.39176,46.13077],[16.38111,46.12529],[16.37749,46.10919],[16.34964,46.08085],[16.34273,46.03567],[16.34149,46.02754],[16.39176,46.00683],[16.40181,46.00269],[16.42921,46.00144],[16.43931,45.98531],[16.46339,45.97299],[16.46787,45.94924],[16.50858,45.9678],[16.54476,45.95778],[16.59809,45.92222],[16.64819,45.92064],[16.67356,45.92885],[16.7022,45.92312]],[[17.19411,46.08008],[17.2046,46.08642],[17.21576,46.08368],[17.21542,46.07644],[17.20623,46.07294],[17.19411,46.08008]]]]},"properties":{"code":"HR063","nom":"Koprivni\u010dko-kri\u017eeva\u010dka \u017eupanija","country":"HR"}},{"type":"Feature","geometry":{"type":"MultiPolygon","coordinates":[[[[16.75809,46.38416],[16.73326,46.39814],[16.71611,46.39609],[16.65914,46.46006],[16.5968,46.4759],[16.59391,46.46856],[16.55706,46.47697],[16.52971,46.47301],[16.48132,46.50982],[16.39176,46.53643],[16.38282,46.53909],[16.37105,46.55291],[16.30499,46.51557],[16.26951,46.51402],[16.24215,46.49008],[16.26149,46.46053],[16.27423,46.41797],[16.30436,46.39814],[16.30155,46.37829],[16.37175,46.31478],[16.39176,46.31753],[16.40843,46.31982],[16.43924,46.31346],[16.46208,46.32336],[16.52309,46.30979],[16.56484,46.32724],[16.61158,46.31039],[16.67491,46.32061],[16.73848,46.31976],[16.74502,46.30912],[16.75809,46.30714],[16.77362,46.30478],[16.80058,46.30518],[16.82025,46.29146],[16.85256,46.3291],[16.85476,46.35044],[16.83387,46.37038],[16.80711,46.38049],[16.75809,46.38416]]]]},"properties":{"code":"HR061","nom":"Me\u0111imurska \u017eupanija","country":"HR"}},{"type":"Feature","geometry":{"type":"MultiPolygon","coordinates":[[[[16.75809,46.05085],[16.72274,46.03567],[16.72238,46.01626],[16.70037,45.96428],[16.7022,45.92312],[16.69779,45.88278],[16.7116,45.85466],[16.6839,45.83744],[16.68009,45.824],[16.662,45.83165],[16.64777,45.82767],[16.63431,45.84245],[16.60445,45.81619],[16.60185,45.79199],[16.55377,45.80406],[16.51085,45.79367],[16.51224,45.77976],[16.50266,45.77226],[16.52009,45.75949],[16.49234,45.72597],[16.51923,45.72312],[16.54374,45.70919],[16.56735,45.71026],[16.5771,45.70117],[16.60992,45.67036],[16.70308,45.65326],[16.73084,45.62696],[16.75809,45.61901],[16.79041,45.622],[16.81062,45.57323],[16.85254,45.54795],[16.86742,45.52807],[16.86073,45.51259],[16.89346,45.4997],[16.90231,45.4869],[16.91381,45.47028],[16.92558,45.4713],[16.92996,45.48165],[16.93355,45.51506],[16.95482,45.53871],[17.01176,45.50892],[17.05108,45.51841],[17.08272,45.50492],[17.11638,45.51842],[17.15299,45.51411],[17.18194,45.53385],[17.23159,45.5121],[17.34569,45.52308],[17.40908,45.51033],[17.43921,45.53027],[17.44786,45.56081],[17.44154,45.57507],[17.42891,45.58156],[17.4261,45.59356],[17.45182,45.61064],[17.48876,45.68416],[17.48687,45.69938],[17.45466,45.70895],[17.45181,45.72167],[17.44049,45.72743],[17.3858,45.70391],[17.37559,45.71945],[17.35657,45.72442],[17.36268,45.74544],[17.35698,45.75637],[17.32536,45.7528],[17.31802,45.7666],[17.28524,45.77978],[17.27222,45.80874],[17.20454,45.83663],[17.16143,45.87129],[17.12205,45.88336],[17.07075,45.9091],[17.04923,45.93556],[16.99252,45.93544],[16.99108,45.96707],[16.96503,45.98403],[16.90482,45.99115],[16.90623,46.03567],[16.87685,46.05892],[16.86742,46.07964],[16.84406,46.08545],[16.81457,46.05384],[16.79248,46.04868],[16.77493,46.05808],[16.75809,46.05085]]]]},"properties":{"code":"HR021","nom":"Bjelovarsko-bilogorska \u017eupanija","country":"HR"}},{"type":"Feature","geometry":{"type":"MultiPolygon","coordinates":[[[[14.1182,45.48124],[14.11128,45.48234],[14.11085,45.45813],[14.12478,45.44057],[14.20216,45.40222],[14.18484,45.38321],[14.20075,45.36784],[14.21073,45.33233],[14.1923,45.32029],[14.18384,45.29793],[14.20603,45.21381],[14.20077,45.1743],[14.19977,45.1668],[14.2264,45.15378],[14.23404,45.1743],[14.28087,45.30013],[14.3253,45.3467],[14.33883,45.35031],[14.46048,45.31882],[14.53823,45.28226],[14.56373,45.29214],[14.56923,45.28255],[14.55641,45.24957],[14.60032,45.23803],[14.62114,45.21493],[14.639,45.2037],[14.68575,45.1743],[14.73665,45.14228],[14.83742,45.11099],[14.88128,45.03115],[14.88822,45.04303],[14.88706,45.05066],[14.8888,45.05592],[14.92707,45.07867],[14.95165,45.06915],[15.00989,45.07313],[15.02157,45.09532],[15.01663,45.12303],[15.01144,45.1329],[14.98086,45.14972],[14.97628,45.15687],[14.97675,45.1743],[14.9881,45.20545],[14.9793,45.22855],[14.98583,45.24729],[14.96679,45.27242],[14.98374,45.28425],[14.98978,45.30896],[15.01984,45.31957],[15.03888,45.30304],[15.10284,45.28365],[15.12654,45.3022],[15.16958,45.31272],[15.18374,45.34459],[15.22276,45.39244],[15.22644,45.42709],[15.15985,45.42603],[15.07434,45.48483],[14.98934,45.49776],[14.92965,45.52523],[14.91651,45.51723],[14.903,45.47899],[14.8888,45.47653],[14.82169,45.46493],[14.78571,45.50519],[14.72644,45.53068],[14.69321,45.53242],[14.68979,45.57711],[14.60709,45.62241],[14.60373,45.65916],[14.57001,45.67294],[14.56359,45.64982],[14.54197,45.62133],[14.50464,45.60522],[14.49374,45.5432],[14.43156,45.51024],[14.36505,45.4869],[14.32618,45.47326],[14.28869,45.4869],[14.27644,45.4869],[14.26397,45.4869],[14.23907,45.5045],[14.22075,45.49614],[14.21414,45.4869],[14.20357,45.47212],[14.1182,45.48124]]],[[[14.27965,45.10969],[14.30852,45.07176],[14.35077,45.04707],[14.3564,45.00519],[14.39011,44.96609],[14.39622,44.91489],[14.38497,44.90552],[14.36241,44.90843],[14.31803,44.9416],[14.30501,44.92834],[14.30266,44.91142],[14.31831,44.8864],[14.33498,44.82625],[14.36076,44.8064],[14.3747,44.75878],[14.39212,44.74018],[14.39169,44.70337],[14.38734,44.69867],[14.34705,44.70618],[14.34056,44.69788],[14.35139,44.6534],[14.38693,44.60994],[14.37299,44.57081],[14.39035,44.55971],[14.43119,44.56821],[14.39853,44.62342],[14.40016,44.68238],[14.48794,44.60999],[14.51505,44.61295],[14.53477,44.62939],[14.51342,44.64486],[14.50571,44.66724],[14.47685,44.70337],[14.46934,44.72506],[14.47343,44.7521],[14.45559,44.78377],[14.46741,44.80574],[14.44945,44.87475],[14.46336,44.94136],[14.47804,44.96537],[14.46442,44.97994],[14.42045,44.99261],[14.38155,45.05078],[14.35996,45.10204],[14.36374,45.15324],[14.35017,45.16603],[14.32076,45.17067],[14.30135,45.15678],[14.27965,45.10969]]],[[[14.43407,45.08677],[14.43688,45.06929],[14.4572,45.05066],[14.49546,45.02452],[14.54902,45.01436],[14.57942,45.02423],[14.61442,45.01663],[14.61242,45.0313],[14.62324,45.03704],[14.62175,44.97865],[14.639,44.97231],[14.73694,44.93861],[14.75409,44.9441],[14.75918,44.9646],[14.79863,44.96609],[14.81204,44.97874],[14.75381,45.02773],[14.73467,45.06115],[14.67448,45.08233],[14.6636,45.11712],[14.67285,45.14313],[14.639,45.15819],[14.60355,45.15332],[14.60685,45.16564],[14.62555,45.16842],[14.62486,45.1743],[14.58789,45.2314],[14.55998,45.23931],[14.53601,45.2147],[14.54015,45.1743],[14.54097,45.16808],[14.52597,45.15069],[14.52337,45.12404],[14.50632,45.11806],[14.47568,45.12579],[14.46734,45.10112],[14.43407,45.08677]]],[[[14.66763,44.794],[14.67209,44.77642],[14.70318,44.75979],[14.76399,44.75587],[14.81327,44.72407],[14.80882,44.71428],[14.81876,44.70337],[14.83772,44.68861],[14.83849,44.70127],[14.84593,44.70337],[14.86133,44.70885],[14.85998,44.7156],[14.82839,44.75432],[14.74924,44.81257],[14.74996,44.84247],[14.73235,44.84693],[14.693,44.83919],[14.71428,44.808],[14.69697,44.79308],[14.66763,44.794]]],[[[14.49324,44.52742],[14.46875,44.54049],[14.44636,44.54162],[14.45477,44.52742],[14.51467,44.47933],[14.53612,44.48283],[14.53958,44.49388],[14.51881,44.51439],[14.49324,44.52742]]],[[[14.23144,44.62857],[14.23627,44.61916],[14.25236,44.61923],[14.27998,44.60446],[14.28132,44.61085],[14.259,44.6382],[14.26463,44.64236],[14.26011,44.65466],[14.26825,44.6611],[14.27845,44.65698],[14.28713,44.66601],[14.27843,44.68757],[14.26333,44.68192],[14.25236,44.66669],[14.23883,44.65855],[14.23999,44.64381],[14.24683,44.63521],[14.23144,44.62857]]],[[[14.76704,44.92099],[14.77121,44.91147],[14.81131,44.89435],[14.83112,44.88749],[14.83438,44.89115],[14.82796,44.90583],[14.81277,44.91777],[14.79366,44.92713],[14.76931,44.93316],[14.76704,44.92099]]],[[[14.49605,44.97704],[14.521,44.96067],[14.53764,44.95344],[14.55493,44.95672],[14.53899,44.97566],[14.52171,44.98747],[14.49605,44.97704]]],[[[14.52973,44.45551],[14.53827,44.44393],[14.55446,44.4413],[14.55912,44.44684],[14.57626,44.44766],[14.55889,44.4672],[14.54471,44.4737],[14.54235,44.46405],[14.52973,44.45551]]],[[[14.73512,44.87433],[14.7472,44.85917],[14.77656,44.85473],[14.78212,44.85801],[14.77293,44.87066],[14.74762,44.88462],[14.74694,44.87477],[14.73512,44.87433]]],[[[14.80147,44.84913],[14.80461,44.8395],[14.82527,44.8285],[14.8286,44.83707],[14.8372,44.83651],[14.83916,44.84687],[14.82701,44.84972],[14.80147,44.84913]]],[[[14.28752,44.51401],[14.29072,44.5078],[14.30949,44.49917],[14.31504,44.50608],[14.30923,44.51583],[14.29067,44.52085],[14.28752,44.51401]]],[[[14.30329,44.7595],[14.31199,44.76245],[14.31982,44.78475],[14.31875,44.79073],[14.30721,44.78038],[14.30329,44.771],[14.30329,44.7595]]],[[[14.42161,44.54989],[14.43444,44.54186],[14.4411,44.55022],[14.43122,44.56044],[14.42161,44.54989]]],[[[14.32444,44.56544],[14.33165,44.55478],[14.34735,44.55962],[14.33717,44.56922],[14.32444,44.56544]]],[[[14.57262,44.55061],[14.58117,44.5404],[14.59142,44.55175],[14.5821,44.55976],[14.57262,44.55061]]],[[[14.54734,44.50542],[14.55231,44.49134],[14.56466,44.49314],[14.56373,44.50421],[14.54734,44.50542]]]]},"properties":{"code":"HR031","nom":"Primorsko-goranska \u017eupanija","country":"HR"}},{"type":"Feature","geometry":{"type":"MultiPolygon","coordinates":[[[[16.13218,44.45453],[16.1383,44.47787],[16.11658,44.51839],[16.09134,44.52742],[16.07162,44.53449],[16.05369,44.54091],[16.02136,44.56498],[16.02157,44.58422],[16.04434,44.59357],[16.0554,44.61461],[16.02957,44.65151],[15.97732,44.67181],[15.95525,44.70337],[15.92838,44.7148],[15.89939,44.74199],[15.83277,44.71917],[15.7806,44.7547],[15.73644,44.81872],[15.785,44.84772],[15.76138,44.87374],[15.73672,44.93563],[15.70866,44.92135],[15.65909,44.94607],[15.62381,44.93354],[15.60325,44.93909],[15.6003,44.93086],[15.58209,44.9273],[15.53647,44.93786],[15.5308,44.9213],[15.57043,44.89195],[15.55932,44.8852],[15.5241,44.91093],[15.51396,44.93063],[15.46698,44.92797],[15.44333,44.93491],[15.37487,45.0102],[15.32989,45.02341],[15.2993,45.05066],[15.23969,45.07666],[15.19159,45.10928],[15.13861,45.08847],[15.11069,45.09056],[15.03762,45.11734],[15.01663,45.12303],[15.02157,45.09532],[15.00989,45.07313],[14.95165,45.06915],[14.92707,45.07867],[14.8888,45.05592],[14.88706,45.05066],[14.88822,45.04303],[14.88128,45.03115],[14.8888,45.01763],[14.92561,44.95142],[14.8888,44.86045],[14.88432,44.84938],[14.88029,44.79406],[14.8888,44.76526],[14.89575,44.74173],[14.8929,44.70885],[14.89671,44.70337],[14.93376,44.64994],[14.95786,44.62944],[14.98971,44.57782],[15.06004,44.53449],[15.0715,44.52742],[15.09946,44.5102],[15.14196,44.46913],[15.2136,44.42461],[15.28948,44.36324],[15.29891,44.38612],[15.32624,44.41509],[15.53173,44.34235],[15.57455,44.29659],[15.64748,44.2887],[15.68332,44.27388],[15.77296,44.27305],[15.82452,44.31218],[15.8121,44.3559],[15.77917,44.37006],[15.78539,44.39258],[15.78043,44.42542],[15.84767,44.45055],[15.92867,44.50366],[15.96544,44.50468],[15.99538,44.49326],[16.04905,44.4384],[16.06041,44.45945],[16.08533,44.44986],[16.13218,44.45453]]],[[[15.01284,44.52742],[14.93829,44.58254],[14.90064,44.59905],[14.85861,44.60011],[14.78481,44.64791],[14.78841,44.6357],[14.89667,44.52803],[14.91549,44.53843],[14.94234,44.53616],[14.94702,44.53449],[14.96172,44.52742],[15.01646,44.50114],[15.05119,44.49755],[15.04134,44.51299],[15.01284,44.52742]]],[[[14.84444,44.48691],[14.84693,44.48078],[14.86653,44.46873],[14.8687,44.4779],[14.85053,44.48934],[14.84444,44.48691]]]]},"properties":{"code":"HR032","nom":"Li\u010dko-senjska \u017eupanija","country":"HR"}},{"type":"Feature","geometry":{"type":"MultiPolygon","coordinates":[[[[15.55888,43.87188],[15.58498,43.87746],[15.62803,43.85804],[15.68456,43.8819],[15.73985,43.86382],[15.75144,43.88555],[15.745,43.89999],[15.77176,43.91546],[15.77289,43.93984],[15.81222,43.94306],[15.80211,43.97847],[15.83394,44.00007],[15.84869,44.03758],[15.8444,44.05236],[15.83219,44.0633],[15.81625,44.0776],[15.879,44.11324],[15.89489,44.1261],[15.96323,44.18144],[16.00475,44.14742],[16.08397,44.1261],[16.09721,44.1261],[16.12893,44.14582],[16.14379,44.20485],[16.17245,44.20922],[16.21765,44.22758],[16.19324,44.26853],[16.18901,44.30024],[16.21567,44.34776],[16.15838,44.37718],[16.13125,44.37958],[16.13212,44.39274],[16.16817,44.40429],[16.14399,44.42523],[16.13218,44.45453],[16.08533,44.44986],[16.06041,44.45945],[16.04905,44.4384],[15.99538,44.49326],[15.96544,44.50468],[15.92867,44.50366],[15.84767,44.45055],[15.78043,44.42542],[15.78539,44.39258],[15.77917,44.37006],[15.8121,44.3559],[15.82452,44.31218],[15.77296,44.27305],[15.68332,44.27388],[15.64748,44.2887],[15.57455,44.29659],[15.53173,44.34235],[15.32624,44.41509],[15.29891,44.38612],[15.28948,44.36324],[15.40715,44.31632],[15.45303,44.28279],[15.48357,44.2705],[15.51515,44.27031],[15.53604,44.25562],[15.52232,44.24617],[15.44551,44.26147],[15.40431,44.25831],[15.27282,44.3295],[15.26543,44.3173],[15.30417,44.28648],[15.28523,44.27703],[15.2972,44.25507],[15.29243,44.24762],[15.21385,44.28805],[15.20024,44.27913],[15.20652,44.25366],[15.18878,44.24578],[15.14379,44.27546],[15.12839,44.27341],[15.11827,44.25865],[15.16352,44.22623],[15.15201,44.19397],[15.16085,44.17994],[15.20651,44.14828],[15.20816,44.13086],[15.21293,44.1261],[15.23244,44.10668],[15.27402,44.08532],[15.2855,44.0633],[15.28818,44.05814],[15.30552,44.05215],[15.31237,44.03827],[15.34338,44.02867],[15.36352,44.00852],[15.43844,43.95024],[15.45997,43.92167],[15.53434,43.88911],[15.55888,43.87188]]],[[[14.94101,44.52742],[14.93407,44.53288],[14.92869,44.53449],[14.91549,44.53843],[14.89667,44.52803],[14.89721,44.52742],[14.91392,44.50897],[14.90642,44.4939],[14.91397,44.48195],[14.98566,44.44957],[15.04342,44.3965],[15.08023,44.39396],[15.10383,44.38313],[15.09642,44.35954],[15.10225,44.3341],[15.15293,44.3017],[15.16456,44.29996],[15.15832,44.32203],[15.21018,44.31577],[15.22446,44.32223],[15.22335,44.33683],[15.24572,44.33736],[15.23734,44.3526],[15.18667,44.37934],[15.10874,44.44277],[15.05697,44.46917],[15.04542,44.45295],[15.03515,44.45344],[14.94101,44.52742]]],[[[14.86489,44.14139],[14.8888,44.12515],[14.89611,44.12164],[14.95783,44.07517],[14.9731,44.0633],[15.00469,44.03874],[15.11723,43.91785],[15.13893,43.90441],[15.15178,43.91304],[15.22139,43.88295],[15.21587,43.90579],[15.15237,43.94801],[15.14144,43.97267],[15.12523,43.97193],[15.0595,44.00451],[15.01607,44.0633],[15.00137,44.08321],[14.95783,44.09803],[14.92152,44.1261],[14.8888,44.14892],[14.87297,44.15811],[14.86489,44.14139]]],[[[15.26143,44.01061],[15.3102,43.95524],[15.35492,43.9287],[15.36352,43.91097],[15.38863,43.91153],[15.42413,43.89233],[15.4153,43.88532],[15.42447,43.87536],[15.43325,43.88217],[15.42983,43.89148],[15.45376,43.88909],[15.44946,43.89979],[15.39374,43.93775],[15.38112,43.96103],[15.36352,43.96732],[15.28181,44.01305],[15.26143,44.01061]]],[[[15.06616,44.15234],[15.07061,44.13012],[15.07755,44.1261],[15.11558,44.10408],[15.16106,44.0633],[15.16681,44.05814],[15.19387,44.0375],[15.22158,44.04265],[15.24263,44.01557],[15.24956,44.01589],[15.25518,44.0235],[15.24796,44.03985],[15.21933,44.05814],[15.2136,44.0633],[15.17744,44.09586],[15.11787,44.1261],[15.06616,44.15234]]],[[[14.7531,44.36672],[14.7921,44.34413],[14.81071,44.34301],[14.81712,44.35701],[14.7974,44.37958],[14.80518,44.4052],[14.78621,44.41936],[14.76517,44.41246],[14.77554,44.37958],[14.7531,44.36672]]],[[[15.01829,44.32252],[15.02355,44.30642],[15.04582,44.28646],[15.07396,44.28605],[15.07925,44.29523],[15.09466,44.29757],[15.11678,44.29109],[15.12007,44.28192],[15.13465,44.28598],[15.12007,44.29804],[15.10073,44.30941],[15.08441,44.3101],[15.07051,44.31935],[15.05688,44.31886],[15.047,44.32526],[15.02593,44.32687],[15.01829,44.32252]]],[[[14.79227,44.25831],[14.81104,44.22995],[14.82766,44.23037],[14.8888,44.20059],[14.89529,44.19876],[14.90082,44.20858],[14.90979,44.21208],[14.89798,44.21888],[14.89611,44.22528],[14.8888,44.22805],[14.8776,44.22227],[14.80631,44.26203],[14.79227,44.25831]]],[[[15.07407,44.0633],[15.0765,44.05814],[15.1275,44.01782],[15.15145,44.01066],[15.14991,44.02266],[15.10855,44.05814],[15.10397,44.0633],[15.09964,44.0675],[15.07681,44.07739],[15.07407,44.0633]]],[[[14.66427,44.39503],[14.68818,44.37958],[14.69607,44.3594],[14.7257,44.34956],[14.72068,44.36363],[14.70074,44.37958],[14.70307,44.39916],[14.69741,44.40613],[14.67915,44.41243],[14.66629,44.40821],[14.66427,44.39503]]],[[[14.95403,44.18599],[14.97543,44.15719],[15.00281,44.13694],[15.02589,44.12713],[15.03187,44.13411],[15.02822,44.14334],[15.00281,44.16054],[14.95764,44.18852],[14.95403,44.18599]]],[[[14.73596,44.27872],[14.7414,44.26753],[14.76082,44.25671],[14.76894,44.25669],[14.76544,44.2715],[14.78176,44.26425],[14.79464,44.27265],[14.75652,44.2942],[14.75179,44.29208],[14.7578,44.27953],[14.73596,44.27872]]],[[[14.58578,44.35104],[14.59643,44.33729],[14.64145,44.31046],[14.65628,44.30695],[14.6587,44.31157],[14.63899,44.32905],[14.59301,44.35377],[14.58578,44.35104]]],[[[14.88995,44.45005],[14.9042,44.43332],[14.9588,44.40398],[14.96291,44.40794],[14.90247,44.45261],[14.88995,44.45005]]],[[[14.68765,44.28859],[14.70115,44.27664],[14.7152,44.27207],[14.72216,44.28309],[14.71075,44.28968],[14.69352,44.29184],[14.68765,44.28859]]],[[[15.01831,44.16617],[15.03612,44.14819],[15.05748,44.1407],[15.05454,44.15268],[15.04596,44.15461],[15.02351,44.16956],[15.01831,44.16617]]],[[[15.05667,44.03367],[15.06029,44.01874],[15.07744,44.00822],[15.08718,44.00946],[15.07332,44.02819],[15.05667,44.03367]]],[[[14.89166,44.17244],[14.89594,44.16727],[14.91455,44.16034],[14.92369,44.15206],[14.93525,44.15078],[14.93449,44.15781],[14.91335,44.16947],[14.89515,44.17489],[14.89166,44.17244]]],[[[15.15729,43.88906],[15.19718,43.87173],[15.19591,43.8785],[15.16772,43.8949],[15.15729,43.88906]]],[[[15.48766,43.85603],[15.5,43.84541],[15.51321,43.85245],[15.5003,43.86203],[15.48766,43.85603]]],[[[14.90535,44.18941],[14.93054,44.17217],[14.93514,44.17824],[14.91416,44.19201],[14.90535,44.18941]]],[[[15.19486,43.94482],[15.20328,43.93127],[15.21326,43.92449],[15.2177,43.93161],[15.20413,43.94421],[15.19486,43.94482]]],[[[15.39167,43.96],[15.40014,43.94876],[15.41362,43.95261],[15.40571,43.96343],[15.39167,43.96]]],[[[15.50791,43.83046],[15.51503,43.82279],[15.52399,43.82463],[15.52402,43.83571],[15.51501,43.83916],[15.50791,43.83046]]],[[[14.81632,44.1574],[14.82213,44.14444],[14.83422,44.14538],[14.83431,44.15116],[14.82217,44.16073],[14.81632,44.1574]]],[[[15.24081,43.90264],[15.24927,43.89274],[15.25629,43.89176],[15.26225,43.8991],[15.25523,43.90444],[15.24889,43.90598],[15.24081,43.90264]]],[[[14.81834,44.21765],[14.82882,44.19942],[14.83931,44.20447],[14.82408,44.21971],[14.81834,44.21765]]],[[[14.76406,44.22395],[14.78283,44.21445],[14.78363,44.22739],[14.77424,44.2315],[14.76406,44.22395]]]]},"properties":{"code":"HR033","nom":"Zadarska \u017eupanija","country":"HR"}},{"type":"Feature","geometry":{"type":"MultiPolygon","coordinates":[[[[15.55888,43.87188],[15.63542,43.82622],[15.63248,43.81329],[15.61349,43.806],[15.63503,43.7805],[15.67378,43.78606],[15.82892,43.73479],[15.8808,43.72942],[15.88612,43.70398],[15.93725,43.6682],[15.92375,43.61192],[15.93819,43.5532],[15.97517,43.50773],[16.01653,43.50191],[16.05526,43.51355],[16.04779,43.53378],[16.08002,43.53987],[16.05783,43.56874],[16.05249,43.59658],[16.10303,43.61791],[16.15504,43.69054],[16.22631,43.67439],[16.25389,43.69372],[16.32503,43.69118],[16.34377,43.7054],[16.34055,43.73503],[16.35345,43.75255],[16.34906,43.76899],[16.39176,43.79332],[16.42395,43.81212],[16.43156,43.81656],[16.39715,43.85211],[16.39176,43.85566],[16.34515,43.88166],[16.3417,43.89787],[16.35318,43.91715],[16.39176,43.91905],[16.40144,43.91953],[16.41121,43.94231],[16.48714,43.97149],[16.54435,43.97418],[16.4995,44.02262],[16.44147,44.03144],[16.43109,44.0633],[16.42606,44.07877],[16.39176,44.08229],[16.37563,44.08395],[16.31918,44.11814],[16.31412,44.1261],[16.29651,44.15381],[16.22821,44.20624],[16.20325,44.21478],[16.17245,44.20922],[16.14379,44.20485],[16.12893,44.14582],[16.09721,44.1261],[16.08397,44.1261],[16.00475,44.14742],[15.96323,44.18144],[15.89489,44.1261],[15.879,44.11324],[15.81625,44.0776],[15.83219,44.0633],[15.8444,44.05236],[15.84869,44.03758],[15.83394,44.00007],[15.80211,43.97847],[15.81222,43.94306],[15.77289,43.93984],[15.77176,43.91546],[15.745,43.89999],[15.75144,43.88555],[15.73985,43.86382],[15.68456,43.8819],[15.62803,43.85804],[15.58498,43.87746],[15.55888,43.87188]]],[[[15.22486,43.85555],[15.25375,43.8387],[15.25963,43.82327],[15.27626,43.82337],[15.29319,43.81212],[15.32557,43.7906],[15.37496,43.77495],[15.37567,43.77992],[15.36354,43.7868],[15.32629,43.81212],[15.26425,43.85428],[15.2563,43.86814],[15.22557,43.87302],[15.22486,43.85555]]],[[[15.60337,43.67081],[15.62189,43.66019],[15.62621,43.66272],[15.65496,43.64161],[15.68266,43.63226],[15.68906,43.63617],[15.71083,43.63043],[15.71452,43.63826],[15.68699,43.64554],[15.66309,43.66471],[15.65464,43.66346],[15.63809,43.67082],[15.62097,43.67072],[15.60528,43.67612],[15.60337,43.67081]]],[[[15.26224,43.88934],[15.26362,43.87844],[15.34005,43.84066],[15.34358,43.84453],[15.32469,43.8751],[15.29377,43.87895],[15.28666,43.88934],[15.26224,43.88934]]],[[[15.82217,43.69789],[15.83499,43.68524],[15.85878,43.67178],[15.86172,43.66514],[15.86924,43.67763],[15.86159,43.69085],[15.84429,43.70645],[15.83499,43.70925],[15.83499,43.69985],[15.82217,43.69789]]],[[[15.68064,43.71424],[15.68227,43.70221],[15.69831,43.69302],[15.69728,43.68227],[15.71882,43.67444],[15.72426,43.68797],[15.7161,43.69027],[15.70642,43.70285],[15.68879,43.71467],[15.68064,43.71424]]],[[[15.73684,43.70024],[15.75408,43.68441],[15.76427,43.68667],[15.77395,43.68017],[15.7784,43.6848],[15.74679,43.70256],[15.73684,43.70024]]],[[[15.64963,43.69655],[15.67794,43.6791],[15.68767,43.68368],[15.67588,43.69385],[15.65232,43.70121],[15.64963,43.69655]]],[[[15.28423,43.93311],[15.30524,43.91994],[15.30976,43.91058],[15.32234,43.91626],[15.30829,43.92777],[15.2895,43.93694],[15.28423,43.93311]]],[[[15.7781,43.68614],[15.78266,43.67399],[15.79899,43.67234],[15.79189,43.68685],[15.7802,43.69155],[15.7781,43.68614]]],[[[15.78022,43.7396],[15.79679,43.71792],[15.80432,43.72748],[15.78352,43.74399],[15.78022,43.7396]]],[[[15.75034,43.72935],[15.76592,43.71463],[15.77761,43.71621],[15.76984,43.72478],[15.75435,43.73296],[15.75034,43.72935]]],[[[15.336,43.76258],[15.35782,43.75741],[15.36256,43.76538],[15.34081,43.76947],[15.336,43.76258]]],[[[15.3618,43.75509],[15.36187,43.74781],[15.37426,43.74354],[15.38106,43.75418],[15.36518,43.75816],[15.3618,43.75509]]],[[[15.53544,43.85921],[15.5469,43.84603],[15.55588,43.85094],[15.55033,43.86241],[15.53544,43.85921]]],[[[15.23229,43.82914],[15.24142,43.81603],[15.25468,43.82481],[15.23535,43.83343],[15.23229,43.82914]]],[[[15.30737,43.77397],[15.31886,43.76705],[15.3309,43.77234],[15.32189,43.78227],[15.30737,43.77397]]],[[[15.46523,43.73176],[15.47139,43.72286],[15.48532,43.72286],[15.48326,43.73158],[15.47279,43.73624],[15.46523,43.73176]]],[[[15.8007,43.66772],[15.8111,43.65658],[15.82174,43.66806],[15.80708,43.67376],[15.8007,43.66772]]],[[[15.44681,43.72386],[15.46623,43.70886],[15.46774,43.72013],[15.45042,43.72903],[15.44681,43.72386]]]]},"properties":{"code":"HR034","nom":"\u0160ibensko-kninska \u017eupanija","country":"HR"}}]}