{"type":"FeatureCollection","features":[{"type":"Feature","geometry":{"type":"MultiPolygon","coordinates":[[[[12.5582,55.98591],[12.6004,56.01456],[12.61651,56.04023],[12.53387,56.08234],[12.38893,56.10242],[12.35959,56.11523],[12.30702,56.12829],[12.2884,56.12934],[12.20707,56.11523],[12.16537,56.09761],[12.00184,56.02851],[11.85973,55.97859],[11.84569,55.96689],[11.85466,55.94705],[11.88574,55.9422],[11.97853,55.96604],[12.00265,55.96574],[12.01636,55.95653],[12.05479,55.89146],[12.06459,55.87487],[12.05885,55.86553],[12.05075,55.85234],[12.04472,55.84253],[12.06265,55.8248],[12.07788,55.78638],[12.08959,55.78085],[12.16399,55.74945],[12.2151,55.74547],[12.21994,55.72667],[12.24627,55.70664],[12.16537,55.67483],[12.15529,55.66717],[12.16259,55.61855],[12.16537,55.61308],[12.20396,55.60591],[12.22422,55.61907],[12.27601,55.62031],[12.35881,55.59829],[12.36347,55.59381],[12.3944,55.61301],[12.4877,55.60132],[12.50479,55.63734],[12.52699,55.63154],[12.5113,55.60705],[12.51651,55.58964],[12.5707,55.55937],[12.59887,55.55839],[12.67296,55.5884],[12.67795,55.62607],[12.6494,55.64429],[12.64074,55.67604],[12.62809,55.69004],[12.60114,55.69317],[12.60372,55.70664],[12.60584,55.71769],[12.58413,55.722],[12.59903,55.76148],[12.58275,55.80797],[12.57258,55.84628],[12.56854,55.85234],[12.55972,55.86553],[12.54239,55.89146],[12.52137,55.9229],[12.5582,55.98591]]],[[[14.88943,55.22813],[14.82887,55.25331],[14.80381,55.27795],[14.76677,55.29476],[14.71085,55.2176],[14.70226,55.1886],[14.70717,55.13406],[14.68981,55.09924],[14.76746,55.05604],[14.8735,55.03465],[14.97373,55.00267],[15.08537,54.99204],[15.11549,55.01349],[15.11857,55.04142],[15.15363,55.08906],[15.15268,55.12618],[15.14519,55.13656],[15.02294,55.17782],[14.97373,55.21234],[14.94373,55.21131],[14.88943,55.22813]]],[[[12.06004,55.77619],[12.03101,55.84238],[12.00041,55.86553],[12.01277,55.89146],[12.01931,55.90517],[11.95901,55.92938],[11.9182,55.93474],[11.90654,55.93213],[11.90403,55.91861],[11.92444,55.89146],[11.94393,55.86553],[11.95385,55.85234],[11.93992,55.82461],[11.88828,55.8138],[11.86771,55.79478],[11.85678,55.74689],[11.8753,55.73766],[11.90329,55.73312],[11.93096,55.74432],[11.98078,55.73012],[11.99328,55.7342],[12.02174,55.7238],[12.05434,55.73226],[12.06,55.74082],[12.06004,55.77619]]],[[[12.78949,55.61123],[12.78328,55.62274],[12.78359,55.63917],[12.77664,55.6662],[12.76824,55.67124],[12.74558,55.66545],[12.73537,55.63481],[12.74697,55.61975],[12.75921,55.61619],[12.76371,55.60713],[12.78092,55.60663],[12.78949,55.61123]]],[[[12.08987,55.72928],[12.07841,55.74434],[12.06821,55.7332],[12.07736,55.72637],[12.08987,55.72928]]],[[[12.76397,55.59017],[12.76522,55.5995],[12.75118,55.60354],[12.74761,55.59696],[12.7542,55.58841],[12.76397,55.59017]]],[[[11.71835,56.1988],[11.69935,56.20145],[11.69509,56.19759],[11.7022,56.19194],[11.72001,56.19094],[11.71835,56.1988]]],[[[15.1993,55.31919],[15.19441,55.32769],[15.18458,55.32758],[15.18064,55.32024],[15.19236,55.31218],[15.1993,55.31919]]]]},"properties":{"code":"DK01","nom":"Hovedstaden","country":"DK"}},{"type":"Feature","geometry":{"type":"MultiPolygon","coordinates":[[[[9.38701,55.92415],[9.35417,55.93633],[9.29204,55.93681],[9.27241,55.94512],[9.25468,55.95262],[9.22308,55.95368],[9.21575,55.94512],[9.19115,55.91636],[9.17943,55.90756],[9.14945,55.88508],[9.11813,55.87144],[9.09561,55.87446],[9.07516,55.85234],[9.07051,55.84731],[9.00974,55.83297],[8.96303,55.84357],[8.96384,55.85234],[8.96601,55.87579],[8.95852,55.88682],[8.87002,55.89439],[8.83917,55.87853],[8.82386,55.85234],[8.8035,55.8379],[8.81353,55.81952],[8.77407,55.80984],[8.75967,55.8067],[8.72858,55.81265],[8.70411,55.83687],[8.67665,55.84679],[8.59412,55.83688],[8.55766,55.84731],[8.5362,55.84067],[8.54303,55.82199],[8.51427,55.80792],[8.50678,55.78404],[8.46196,55.77489],[8.352,55.81955],[8.32237,55.80082],[8.27138,55.79949],[8.21594,55.82358],[8.19581,55.83232],[8.1836,55.8202],[8.17079,55.81538],[8.17547,55.75451],[8.1304,55.65304],[8.1238,55.64059],[8.09713,55.59805],[8.09532,55.59056],[8.076,55.56472],[8.077,55.55731],[8.1304,55.54345],[8.21594,55.51074],[8.30067,55.47834],[8.30248,55.49581],[8.26029,55.52304],[8.26371,55.5341],[8.23849,55.55991],[8.26247,55.58996],[8.29295,55.59311],[8.31303,55.58269],[8.29841,55.56907],[8.30398,55.55726],[8.44771,55.45809],[8.54643,55.4551],[8.61723,55.42806],[8.66581,55.34047],[8.64946,55.27432],[8.67971,55.16783],[8.66485,55.1514],[8.67851,55.13817],[8.63677,55.05272],[8.65766,54.97394],[8.64165,54.92808],[8.63593,54.91168],[8.68219,54.90917],[8.7315,54.89375],[8.77407,54.89426],[8.81212,54.90398],[8.94425,54.90159],[9.04989,54.87324],[9.1131,54.8736],[9.17943,54.86099],[9.23671,54.8501],[9.23926,54.82739],[9.25456,54.81086],[9.34004,54.80249],[9.3837,54.83768],[9.40788,54.84071],[9.42015,54.83196],[9.55495,54.8818],[9.62738,54.92014],[9.63525,54.9159],[9.63324,54.89346],[9.65065,54.86916],[9.72126,54.84511],[9.74204,54.8533],[9.72688,54.8868],[9.74428,54.90059],[9.87845,54.89832],[9.87884,54.87308],[9.96424,54.85459],[9.9713,54.86267],[9.93192,54.88726],[10.00064,54.87153],[10.05193,54.89362],[10.03285,54.93412],[9.96788,54.99587],[9.77971,55.07133],[9.69394,55.07012],[9.6717,55.0596],[9.66505,55.04374],[9.69893,55.01422],[9.78794,54.99455],[9.82117,54.97078],[9.8249,54.95238],[9.74929,54.96808],[9.59863,55.02953],[9.49526,55.02049],[9.44966,55.0327],[9.52933,55.07341],[9.5283,55.09488],[9.50702,55.12355],[9.52428,55.1572],[9.58495,55.18323],[9.65927,55.19273],[9.69392,55.2322],[9.64278,55.32818],[9.60318,55.37249],[9.61387,55.41669],[9.65351,55.44309],[9.66418,55.46476],[9.58187,55.50699],[9.59975,55.51757],[9.71922,55.52776],[9.80919,55.60856],[9.64922,55.69545],[9.67206,55.71206],[9.68288,55.73603],[9.67633,55.75055],[9.65505,55.75773],[9.59726,55.75327],[9.58814,55.76135],[9.59149,55.77555],[9.57158,55.77405],[9.5444,55.77594],[9.52292,55.78829],[9.50074,55.8255],[9.45822,55.83443],[9.45087,55.83598],[9.44592,55.85234],[9.451,55.86725],[9.38701,55.92415]]],[[[10.41238,55.58914],[10.31106,55.61914],[10.29931,55.61315],[10.29976,55.58675],[10.26862,55.60461],[10.22431,55.60146],[10.14687,55.57309],[10.03884,55.55529],[9.93576,55.51364],[9.86663,55.51752],[9.84608,55.54489],[9.82507,55.55181],[9.77083,55.54191],[9.74327,55.51128],[9.69039,55.51129],[9.68342,55.50085],[9.69058,55.48221],[9.72349,55.49019],[9.80111,55.44768],[9.79224,55.44018],[9.7318,55.4595],[9.75275,55.4365],[9.81505,55.41996],[9.8312,55.38727],[9.79709,55.36623],[9.87488,55.3435],[9.88885,55.30704],[9.88785,55.26268],[9.90352,55.2375],[10.02849,55.18341],[10.10518,55.18475],[10.12072,55.17522],[10.15605,55.12797],[10.09131,55.10502],[10.08175,55.08378],[10.1339,55.08701],[10.20699,55.07012],[10.23058,55.0951],[10.32832,55.05569],[10.37609,55.05819],[10.41057,55.04409],[10.50759,55.03037],[10.59684,55.05015],[10.52454,55.00808],[10.52124,54.9992],[10.53125,54.9749],[10.55991,54.94863],[10.61481,54.95237],[10.6827,54.98002],[10.68123,54.99201],[10.65225,54.98245],[10.63159,54.98912],[10.65278,55.02494],[10.64778,55.04475],[10.67647,55.03277],[10.70531,55.03464],[10.71561,55.05717],[10.76847,55.1007],[10.79733,55.16438],[10.80619,55.1848],[10.81154,55.22195],[10.79733,55.26181],[10.78493,55.29659],[10.79733,55.30206],[10.82972,55.29207],[10.84181,55.29769],[10.79733,55.34233],[10.76267,55.38574],[10.67349,55.4481],[10.67735,55.46093],[10.739,55.48931],[10.69565,55.54527],[10.62692,55.60663],[10.62067,55.59991],[10.62613,55.57033],[10.60645,55.57175],[10.6204,55.52553],[10.57927,55.52107],[10.61175,55.5033],[10.6144,55.48872],[10.5016,55.46789],[10.47655,55.44427],[10.45058,55.43973],[10.43167,55.44275],[10.44506,55.47205],[10.49301,55.50125],[10.48121,55.52611],[10.4876,55.54964],[10.41238,55.58914]]],[[[10.73349,54.74551],[10.79733,54.86618],[10.83008,54.92808],[10.83701,54.9412],[10.89264,54.99562],[10.94707,55.12338],[10.95428,55.15041],[10.94027,55.16152],[10.90667,55.14026],[10.89678,55.12338],[10.87813,55.10268],[10.84507,55.0363],[10.8127,54.99952],[10.79733,54.99187],[10.73323,54.95994],[10.69519,54.92808],[10.6809,54.90611],[10.7057,54.89896],[10.7147,54.87988],[10.67534,54.87794],[10.64797,54.83616],[10.61718,54.83057],[10.65627,54.79526],[10.67221,54.7407],[10.69583,54.72515],[10.73349,54.74551]]],[[[8.54344,55.06938],[8.54283,55.07561],[8.5531,55.07684],[8.56982,55.08536],[8.55305,55.10202],[8.55926,55.12045],[8.55169,55.14101],[8.55591,55.14898],[8.56705,55.14958],[8.57258,55.1695],[8.59064,55.183],[8.59195,55.19147],[8.56691,55.20098],[8.54371,55.20428],[8.51666,55.21126],[8.49023,55.19685],[8.48123,55.18569],[8.47804,55.17351],[8.47745,55.14506],[8.46428,55.10744],[8.46788,55.09323],[8.47905,55.0773],[8.49519,55.06545],[8.52136,55.0616],[8.54344,55.06938]]],[[[10.28288,54.93914],[10.23514,54.95301],[10.23173,54.94998],[10.24763,54.92025],[10.28292,54.89258],[10.41738,54.81854],[10.45474,54.83736],[10.52017,54.85066],[10.51546,54.86099],[10.4736,54.8843],[10.44644,54.86499],[10.40944,54.8925],[10.41686,54.90206],[10.40518,54.91049],[10.40192,54.89515],[10.37356,54.88674],[10.28288,54.93914]]],[[[8.50459,55.34627],[8.50527,55.35135],[8.46829,55.36925],[8.45464,55.38958],[8.46094,55.4108],[8.45242,55.42726],[8.41546,55.43313],[8.39758,55.46621],[8.33664,55.45784],[8.33837,55.44173],[8.37583,55.41445],[8.42876,55.35334],[8.46534,55.34035],[8.50459,55.34627]]],[[[10.03878,55.13613],[9.98762,55.17376],[9.98163,55.13393],[10.00591,55.12318],[10.02695,55.12074],[10.03878,55.13613]]],[[[8.5695,55.26703],[8.59053,55.29428],[8.56102,55.29596],[8.54534,55.2929],[8.53102,55.28065],[8.53264,55.27033],[8.54069,55.26548],[8.5695,55.26703]]],[[[9.81998,55.32643],[9.80678,55.32325],[9.79499,55.32586],[9.7892,55.31541],[9.79882,55.29484],[9.82495,55.2995],[9.83016,55.30927],[9.81998,55.32643]]],[[[9.76351,55.2507],[9.77245,55.26564],[9.76093,55.2662],[9.75741,55.27398],[9.74671,55.27533],[9.72463,55.26994],[9.72974,55.26166],[9.72339,55.25801],[9.74161,55.24654],[9.76351,55.2507]]],[[[10.17029,55.03568],[10.18099,55.04258],[10.176,55.04847],[10.14812,55.05082],[10.13809,55.05488],[10.13958,55.06087],[10.12366,55.05374],[10.12527,55.04371],[10.14609,55.03128],[10.17029,55.03568]]],[[[10.61672,54.89204],[10.62512,54.89899],[10.62167,54.91595],[10.61119,54.91873],[10.59159,54.91445],[10.59132,54.9083],[10.60557,54.89152],[10.61672,54.89204]]],[[[10.2758,55.02141],[10.26796,55.03071],[10.25184,55.0401],[10.23754,55.03697],[10.23503,55.03209],[10.25607,55.01818],[10.26917,55.01722],[10.2758,55.02141]]],[[[10.42758,54.98155],[10.41819,54.97522],[10.40591,54.97906],[10.39905,54.97572],[10.42336,54.96188],[10.44164,54.97102],[10.42758,54.98155]]],[[[9.57183,55.11309],[9.57183,55.12124],[9.56248,55.12919],[9.54913,55.13001],[9.54445,55.12333],[9.55302,55.11164],[9.57183,55.11309]]],[[[10.19096,55.63718],[10.18975,55.64285],[10.16905,55.64667],[10.16202,55.6448],[10.1685,55.63569],[10.18208,55.62837],[10.19096,55.63718]]],[[[9.72305,55.35737],[9.71407,55.36392],[9.69787,55.36438],[9.68855,55.35714],[9.70274,55.35034],[9.72305,55.35737]]],[[[8.32831,55.50855],[8.31287,55.52199],[8.30099,55.51731],[8.31467,55.50638],[8.32526,55.50329],[8.32831,55.50855]]],[[[10.4783,55.005],[10.46377,55.01566],[10.45183,55.00434],[10.46748,54.99819],[10.4783,55.005]]],[[[10.47271,55.47988],[10.45518,55.47362],[10.45424,55.46607],[10.47609,55.4658],[10.47271,55.47988]]],[[[10.56298,55.51602],[10.54329,55.5296],[10.53155,55.53002],[10.53585,55.52368],[10.55813,55.51306],[10.56298,55.51602]]],[[[10.51287,54.92734],[10.49992,54.94183],[10.49208,54.93493],[10.49731,54.92531],[10.51287,54.92734]]],[[[10.70355,54.95605],[10.68136,54.96172],[10.67743,54.95743],[10.70429,54.94661],[10.70355,54.95605]]],[[[10.38366,54.97541],[10.38075,54.98186],[10.35771,54.97728],[10.36644,54.9689],[10.38366,54.97541]]],[[[10.19592,55.6085],[10.18251,55.6172],[10.17366,55.60953],[10.1817,55.60093],[10.19592,55.6085]]],[[[10.48956,54.95686],[10.49141,54.96734],[10.47353,54.96864],[10.46952,54.96488],[10.48166,54.95673],[10.48956,54.95686]]],[[[10.34163,55.00365],[10.3384,55.01831],[10.32051,55.01037],[10.33055,55.00361],[10.34163,55.00365]]],[[[10.26412,55.05941],[10.24701,55.07116],[10.2399,55.06667],[10.25999,55.05228],[10.26412,55.05941]]],[[[10.79636,55.50923],[10.79019,55.52045],[10.77657,55.51634],[10.77696,55.50686],[10.79636,55.50923]]],[[[10.59043,54.89919],[10.57311,54.90672],[10.56616,54.90024],[10.57842,54.89152],[10.59043,54.89919]]],[[[10.48726,54.92797],[10.47533,54.92615],[10.46923,54.91623],[10.48591,54.9129],[10.48726,54.92797]]],[[[10.59955,55.61451],[10.58988,55.62722],[10.58263,55.61183],[10.59562,55.60666],[10.59955,55.61451]]],[[[9.88871,55.24828],[9.87258,55.25647],[9.86749,55.25093],[9.8788,55.23859],[9.88871,55.24828]]]]},"properties":{"code":"DK03","nom":"Syddanmark","country":"DK"}},{"type":"Feature","geometry":{"type":"MultiPolygon","coordinates":[[[[11.32926,55.97824],[11.32855,55.97129],[11.35189,55.96318],[11.45313,55.94827],[11.49895,55.93333],[11.51708,55.91017],[11.5124,55.874],[11.48096,55.85184],[11.39591,55.83127],[11.35803,55.772],[11.27631,55.74069],[11.20651,55.73904],[11.15361,55.74821],[11.06101,55.73673],[10.94793,55.73925],[11.00596,55.70664],[11.05366,55.68056],[11.04934,55.66748],[11.02003,55.65306],[11.09717,55.62224],[11.13483,55.5897],[11.13865,55.55195],[11.11847,55.52442],[11.16817,55.48982],[11.19368,55.44697],[11.19672,55.40672],[11.16901,55.38163],[11.1247,55.36292],[11.11924,55.35195],[11.22102,55.28381],[11.26312,55.21174],[11.29479,55.20074],[11.38982,55.19567],[11.46746,55.20819],[11.64707,55.17348],[11.69819,55.19547],[11.72053,55.16783],[11.77613,55.14339],[11.73718,55.11271],[11.75368,55.09077],[11.79428,55.06593],[11.79623,55.03971],[11.88571,54.99609],[11.93934,54.99316],[12.0443,54.9697],[12.14384,54.99741],[12.13324,55.06252],[12.15773,55.08922],[12.16274,55.10916],[12.12515,55.12674],[12.04855,55.13239],[12.03408,55.14371],[12.03626,55.155],[12.06919,55.16486],[12.09607,55.15272],[12.12612,55.18385],[12.17175,55.21222],[12.26163,55.23733],[12.37229,55.24797],[12.41696,55.26632],[12.44568,55.29527],[12.44459,55.33285],[12.40433,55.37029],[12.34774,55.39738],[12.21957,55.42506],[12.20205,55.44415],[12.19884,55.48654],[12.2361,55.5361],[12.3056,55.57619],[12.36347,55.59381],[12.35881,55.59829],[12.27601,55.62031],[12.22422,55.61907],[12.20396,55.60591],[12.16537,55.61308],[12.16259,55.61855],[12.15529,55.66717],[12.16537,55.67483],[12.24627,55.70664],[12.21994,55.72667],[12.2151,55.74547],[12.16399,55.74945],[12.08959,55.78085],[12.10404,55.71081],[12.10058,55.70664],[12.0822,55.68443],[12.07558,55.65732],[12.01651,55.67262],[12.01837,55.6906],[12.00257,55.69798],[11.98197,55.67912],[11.95462,55.67404],[11.96982,55.70664],[11.98078,55.73012],[11.93096,55.74432],[11.90329,55.73312],[11.8753,55.73766],[11.85511,55.72737],[11.84559,55.71153],[11.84265,55.70664],[11.83144,55.68797],[11.80528,55.66458],[11.77939,55.65903],[11.79389,55.68651],[11.7832,55.70664],[11.71053,55.72654],[11.74467,55.75121],[11.74038,55.77316],[11.65875,55.77738],[11.63805,55.78638],[11.66367,55.80762],[11.71323,55.82314],[11.70996,55.85111],[11.68016,55.89586],[11.69366,55.90805],[11.74534,55.91608],[11.7686,55.95143],[11.76414,55.96302],[11.64007,55.94477],[11.58416,55.95709],[11.49444,55.95605],[11.32926,55.97824]]],[[[11.50976,54.83225],[11.38679,54.88521],[11.35135,54.91493],[11.28392,54.94725],[11.17709,54.95834],[11.08177,54.9412],[11.03673,54.91581],[11.02609,54.88327],[11.05262,54.86528],[11.0548,54.85017],[11.09921,54.82632],[11.06601,54.80556],[11.01745,54.81253],[10.97758,54.79352],[10.99141,54.77818],[11.05452,54.74794],[11.25585,54.7021],[11.35298,54.6516],[11.45565,54.6142],[11.55095,54.64659],[11.59593,54.66187],[11.68388,54.66265],[11.80451,54.64646],[11.82237,54.65288],[11.84559,54.68008],[11.85231,54.68817],[11.84559,54.69352],[11.81448,54.71831],[11.82192,54.72852],[11.84559,54.73433],[11.85554,54.73678],[11.86091,54.76486],[11.87632,54.75019],[11.87757,54.72794],[11.9038,54.71399],[11.88032,54.68599],[11.8734,54.64889],[11.9117,54.60691],[11.92462,54.57662],[11.93999,54.57128],[11.96218,54.56358],[11.96752,54.57128],[11.96495,54.65558],[11.97411,54.68596],[12.04572,54.75887],[12.15627,54.83364],[12.11772,54.88223],[12.00669,54.89807],[11.96351,54.93602],[11.93363,54.9353],[11.90587,54.92231],[11.84022,54.95723],[11.80733,54.94507],[11.75444,54.95662],[11.72339,54.93492],[11.74656,54.91317],[11.75786,54.86903],[11.79864,54.8382],[11.8074,54.80198],[11.79372,54.80695],[11.73376,54.86995],[11.66999,54.89299],[11.64671,54.89044],[11.63221,54.86233],[11.58235,54.85035],[11.5678,54.83166],[11.55095,54.83068],[11.50976,54.83225]]],[[[12.54105,54.9896],[12.51319,55.01078],[12.45899,55.02317],[12.35881,55.02664],[12.30436,55.03187],[12.26392,55.05783],[12.24444,55.05272],[12.23724,55.04031],[12.26061,55.0347],[12.28155,55.01715],[12.27504,54.98461],[12.21151,54.96975],[12.17222,54.98565],[12.17395,54.97293],[12.16537,54.97018],[12.12585,54.95749],[12.13512,54.94085],[12.11988,54.92808],[12.11498,54.92397],[12.11648,54.90357],[12.14746,54.88201],[12.16537,54.88209],[12.20435,54.88227],[12.27004,54.92808],[12.28604,54.93924],[12.35881,54.96416],[12.41932,54.96193],[12.51413,54.94393],[12.54008,54.94742],[12.55276,54.96449],[12.54105,54.9896]]],[[[11.40995,54.96823],[11.41017,54.9512],[11.40559,54.94817],[11.37995,54.95534],[11.3632,54.94865],[11.37159,54.93622],[11.3884,54.92808],[11.39998,54.92246],[11.40909,54.92808],[11.43543,54.9443],[11.46949,54.9434],[11.47005,54.95221],[11.45412,54.96352],[11.42589,54.96326],[11.40995,54.96823]]],[[[11.84559,55.78768],[11.82858,55.80501],[11.81687,55.78628],[11.79347,55.78938],[11.77822,55.77982],[11.79284,55.75992],[11.81376,55.75177],[11.83144,55.75721],[11.84559,55.77816],[11.84559,55.78768]]],[[[12.01055,54.93428],[11.99874,54.94089],[11.99328,54.93585],[11.99928,54.92808],[12.01017,54.92015],[12.07213,54.90881],[12.08648,54.92808],[12.06939,54.93866],[12.03283,54.93861],[12.02161,54.93366],[12.01055,54.93428]]],[[[11.19289,55.86553],[11.18769,55.87309],[11.11483,55.91041],[11.08201,55.91401],[11.08827,55.9041],[11.15027,55.87289],[11.18708,55.86553],[11.19289,55.86553]]],[[[11.55095,54.9608],[11.56793,54.97255],[11.55095,54.98754],[11.51541,54.99061],[11.50037,54.98135],[11.53436,54.95103],[11.55095,54.9608]]],[[[11.20578,55.19839],[11.19428,55.22122],[11.1777,55.23155],[11.18908,55.24122],[11.17349,55.25065],[11.16997,55.24721],[11.17567,55.24107],[11.17103,55.23202],[11.1744,55.19936],[11.19409,55.19145],[11.20578,55.19839]]],[[[12.23638,55.06062],[12.2093,55.05725],[12.1845,55.04454],[12.18805,55.04008],[12.22134,55.03426],[12.23638,55.06062]]],[[[11.16152,55.15728],[11.17826,55.16705],[11.17647,55.17487],[11.15603,55.17126],[11.13315,55.16045],[11.14116,55.15437],[11.15038,55.14017],[11.16152,55.15728]]],[[[11.50673,54.88878],[11.50828,54.89388],[11.49332,54.90218],[11.49155,54.91397],[11.47773,54.91501],[11.47246,54.9104],[11.4808,54.90149],[11.47597,54.89638],[11.48138,54.88529],[11.50673,54.88878]]],[[[11.30339,55.77692],[11.29057,55.78501],[11.29567,55.79051],[11.28341,55.79623],[11.27906,55.78927],[11.29226,55.77073],[11.30363,55.76552],[11.30339,55.77692]]],[[[11.37302,55.03345],[11.36931,55.04032],[11.3449,55.03121],[11.34194,55.02589],[11.34656,55.02276],[11.37302,55.03345]]],[[[10.99142,55.34296],[10.97241,55.34111],[10.96623,55.33466],[10.98556,55.33103],[10.99142,55.34296]]],[[[11.9986,54.95562],[11.9921,54.95873],[11.9785,54.95251],[11.99665,54.94136],[11.9986,54.95562]]],[[[10.96954,54.82545],[10.96712,54.83627],[10.95936,54.83759],[10.95265,54.83141],[10.95441,54.82261],[10.96954,54.82545]]],[[[11.7045,55.15495],[11.68611,55.16309],[11.67999,55.1586],[11.69564,55.14686],[11.7045,55.15495]]],[[[12.09916,54.95576],[12.09593,54.96332],[12.06946,54.95125],[12.07528,54.94795],[12.09916,54.95576]]],[[[11.36679,54.96439],[11.3575,54.96917],[11.34808,54.96681],[11.35393,54.95659],[11.36653,54.95499],[11.36679,54.96439]]],[[[11.02575,54.84234],[11.02215,54.85085],[11.01438,54.85154],[11.01247,54.84025],[11.01827,54.82959],[11.02575,54.84234]]],[[[11.32242,54.96676],[11.3115,54.97406],[11.2983,54.97134],[11.31011,54.95927],[11.32242,54.96676]]]]},"properties":{"code":"DK02","nom":"Sj\u00e6lland","country":"DK"}},{"type":"Feature","geometry":{"type":"MultiPolygon","coordinates":[[[[8.40435,56.67165],[8.40527,56.67593],[8.45286,56.69408],[8.51283,56.6929],[8.51025,56.70868],[8.48327,56.72333],[8.49171,56.75395],[8.48053,56.78471],[8.53115,56.81235],[8.57629,56.82292],[8.61215,56.84654],[8.62649,56.86438],[8.6357,56.8984],[8.67269,56.94577],[8.77407,56.95095],[8.82806,56.9703],[8.84556,56.98957],[8.90473,56.9824],[8.96103,57.00897],[9.00857,57.01816],[9.05474,57.01451],[9.12746,57.03349],[9.26561,56.98554],[9.19306,56.9263],[9.17348,56.89915],[9.17616,56.8848],[9.20367,56.85453],[9.17938,56.81028],[9.18394,56.78508],[9.22656,56.75865],[9.23452,56.74454],[9.22129,56.72035],[9.17512,56.67811],[9.19731,56.67227],[9.2825,56.69216],[9.31951,56.67165],[9.38267,56.66338],[9.44064,56.64178],[9.45822,56.65614],[9.47679,56.67131],[9.51029,56.67979],[9.58154,56.63317],[9.66731,56.62466],[9.66769,56.61471],[9.64691,56.6011],[9.64679,56.58403],[9.6987,56.5874],[9.75329,56.55812],[9.79582,56.56161],[9.83301,56.55196],[9.87145,56.55609],[9.88648,56.57154],[9.94373,56.58055],[9.96215,56.5944],[10.05306,56.60473],[10.11321,56.62648],[10.12506,56.64457],[10.15278,56.65113],[10.1644,56.66747],[10.17168,56.67165],[10.19436,56.68466],[10.18869,56.70654],[10.31247,56.72751],[10.28411,56.79667],[10.27138,56.86],[10.28304,56.9672],[10.17822,56.99694],[10.03381,57.06989],[10.21989,56.9983],[10.31979,57.00717],[10.35251,57.02365],[10.43204,57.15172],[10.53816,57.25738],[10.52357,57.37427],[10.53704,57.44932],[10.45006,57.54099],[10.43653,57.56804],[10.43609,57.58924],[10.4597,57.63042],[10.58384,57.73374],[10.53157,57.72905],[10.33092,57.64095],[10.24024,57.61203],[10.10344,57.59166],[9.9463,57.5807],[9.79467,57.47188],[9.67756,57.34535],[9.567,57.25077],[9.41174,57.17216],[9.1605,57.1412],[8.98871,57.15438],[8.8662,57.11947],[8.77037,57.10466],[8.63877,57.12179],[8.58775,57.11409],[8.36488,56.95661],[8.24589,56.81086],[8.22778,56.75655],[8.23563,56.71971],[8.2475,56.72184],[8.25725,56.7604],[8.27541,56.76591],[8.29767,56.75184],[8.35079,56.68893],[8.40435,56.67165]]],[[[8.51646,56.73641],[8.51896,56.73364],[8.55706,56.73099],[8.5692,56.70729],[8.5948,56.72327],[8.65078,56.67265],[8.77409,56.70016],[8.83131,56.74436],[8.84301,56.77107],[8.87308,56.79838],[8.84588,56.83105],[8.83417,56.8671],[8.85241,56.88388],[8.89702,56.8843],[8.917,56.91938],[8.90615,56.94987],[8.85862,56.94998],[8.80769,56.90424],[8.65185,56.88476],[8.64309,56.84212],[8.62839,56.82614],[8.65341,56.81472],[8.655,56.80662],[8.6208,56.79422],[8.5556,56.78712],[8.54757,56.75983],[8.51646,56.73641]]],[[[10.87626,57.26035],[10.98642,57.21814],[11.00139,57.21852],[11.05119,57.23327],[11.08331,57.25504],[11.09169,57.27271],[11.07834,57.2828],[11.08331,57.28878],[11.18078,57.304],[11.19366,57.29921],[11.19792,57.3146],[11.19064,57.32315],[11.1498,57.3267],[11.03399,57.31859],[11.005,57.30636],[10.98642,57.30439],[10.92976,57.29714],[10.87626,57.26035]]],[[[9.06715,56.89358],[9.07848,56.8849],[9.09681,56.87978],[9.10311,56.88916],[9.0884,56.90618],[9.06715,56.89358]]],[[[10.98908,57.20616],[11.0013,57.20158],[11.02793,57.20274],[11.03937,57.21081],[11.03109,57.21463],[10.9922,57.20954],[10.98908,57.20616]]],[[[8.9151,56.96291],[8.92655,56.96184],[8.92963,56.98062],[8.91907,56.97772],[8.9151,56.96291]]],[[[8.52595,56.70045],[8.53889,56.69229],[8.54991,56.70106],[8.54671,56.70764],[8.52595,56.70045]]]]},"properties":{"code":"DK05","nom":"Nordjylland","country":"DK"}},{"type":"Feature","geometry":{"type":"MultiPolygon","coordinates":[[[[9.09519,56.78962],[9.06078,56.7987],[9.02112,56.78948],[8.9501,56.79421],[8.87417,56.76225],[8.84267,56.72034],[8.88799,56.70988],[8.8955,56.69992],[8.81528,56.68926],[8.77407,56.65916],[8.73585,56.63125],[8.68469,56.61718],[8.70419,56.58727],[8.75296,56.55136],[8.74073,56.53104],[8.73341,56.48741],[8.66504,56.46992],[8.6301,56.47623],[8.59629,56.4991],[8.59474,56.52569],[8.56293,56.56238],[8.51373,56.54584],[8.38124,56.57688],[8.32936,56.57442],[8.30185,56.56195],[8.29053,56.59309],[8.24499,56.60512],[8.21594,56.62908],[8.19471,56.63778],[8.21594,56.67045],[8.22361,56.68227],[8.21594,56.69402],[8.21107,56.70147],[8.16646,56.65335],[8.13101,56.57678],[8.11731,56.52479],[8.11636,56.38112],[8.12694,56.25298],[8.12892,56.229],[8.10041,56.04297],[8.13839,55.94512],[8.17079,55.81538],[8.1836,55.8202],[8.1769,55.82598],[8.17717,55.83266],[8.19581,55.83232],[8.21594,55.82358],[8.27138,55.79949],[8.32237,55.80082],[8.352,55.81955],[8.46196,55.77489],[8.50678,55.78404],[8.51427,55.80792],[8.54303,55.82199],[8.5362,55.84067],[8.55766,55.84731],[8.59412,55.83688],[8.67665,55.84679],[8.70411,55.83687],[8.72858,55.81265],[8.75967,55.8067],[8.77407,55.80984],[8.81353,55.81952],[8.8035,55.8379],[8.82386,55.85234],[8.83917,55.87853],[8.87002,55.89439],[8.95852,55.88682],[8.96601,55.87579],[8.96384,55.85234],[8.96303,55.84357],[9.00974,55.83297],[9.07051,55.84731],[9.07516,55.85234],[9.09561,55.87446],[9.11813,55.87144],[9.14945,55.88508],[9.17943,55.90756],[9.19115,55.91636],[9.21575,55.94512],[9.22308,55.95368],[9.25468,55.95262],[9.27241,55.94512],[9.29204,55.93681],[9.35417,55.93633],[9.38701,55.92415],[9.451,55.86725],[9.44592,55.85234],[9.45087,55.83598],[9.45822,55.83443],[9.50074,55.8255],[9.52292,55.78829],[9.5444,55.77594],[9.57158,55.77405],[9.59149,55.77555],[9.58814,55.76135],[9.59726,55.75327],[9.65505,55.75773],[9.67633,55.75055],[9.68288,55.73603],[9.67206,55.71206],[9.74756,55.68328],[9.81665,55.67236],[10.01244,55.70164],[10.01506,55.72744],[10.04912,55.74687],[10.02713,55.77],[10.04823,55.79923],[10.04844,55.8127],[10.01149,55.82849],[9.90119,55.84299],[9.88972,55.85411],[9.98334,55.87346],[10.00343,55.86594],[10.00437,55.87672],[10.06259,55.88126],[10.18856,55.84882],[10.20812,55.88556],[10.25061,55.92084],[10.25996,55.94747],[10.26964,56.02566],[10.22288,56.12911],[10.24438,56.15008],[10.23542,56.16492],[10.24905,56.18523],[10.32719,56.23284],[10.38601,56.2823],[10.43321,56.28972],[10.49182,56.26362],[10.4701,56.238],[10.46097,56.21014],[10.4113,56.21182],[10.36627,56.18883],[10.40023,56.169],[10.45482,56.17704],[10.50536,56.16839],[10.5104,56.15422],[10.4969,56.12916],[10.52579,56.10384],[10.54698,56.11418],[10.5474,56.17337],[10.60121,56.21701],[10.65797,56.21295],[10.66284,56.20174],[10.65213,56.17305],[10.68201,56.15143],[10.70637,56.14991],[10.73127,56.17359],[10.75197,56.22452],[10.79733,56.25173],[10.8064,56.25688],[10.90418,56.34126],[10.92948,56.41366],[10.94829,56.44199],[10.85144,56.51782],[10.81822,56.53057],[10.79733,56.52936],[10.54622,56.515],[10.46572,56.52182],[10.38761,56.54807],[10.32098,56.59434],[10.23475,56.53212],[10.24123,56.56656],[10.33973,56.6307],[10.35204,56.67777],[10.3421,56.69126],[10.32042,56.69837],[10.19436,56.68466],[10.17168,56.67165],[10.1644,56.66747],[10.15278,56.65113],[10.12506,56.64457],[10.11321,56.62648],[10.05306,56.60473],[9.96215,56.5944],[9.94373,56.58055],[9.88648,56.57154],[9.87145,56.55609],[9.83301,56.55196],[9.79582,56.56161],[9.75329,56.55812],[9.6987,56.5874],[9.64679,56.58403],[9.64691,56.6011],[9.66769,56.61471],[9.66731,56.62466],[9.58154,56.63317],[9.51029,56.67979],[9.47679,56.67131],[9.45822,56.65614],[9.44064,56.64178],[9.38267,56.66338],[9.31951,56.67165],[9.31835,56.64339],[9.29989,56.615],[9.25447,56.62666],[9.17395,56.62657],[9.14928,56.64426],[9.12883,56.62595],[9.137,56.61],[9.10579,56.60132],[9.08881,56.57175],[9.06414,56.5633],[9.04942,56.58955],[9.05637,56.62002],[9.09284,56.64424],[9.10696,56.66813],[9.16316,56.71427],[9.09519,56.78962]]],[[[10.64147,55.79651],[10.64532,55.84206],[10.65379,55.85234],[10.66464,55.86553],[10.67539,55.87859],[10.63449,55.88027],[10.61865,55.90277],[10.63797,55.91947],[10.58352,55.94512],[10.55901,55.99948],[10.52239,55.97744],[10.52858,55.94512],[10.58069,55.92879],[10.59922,55.90512],[10.58345,55.87057],[10.57038,55.86553],[10.53617,55.85234],[10.53081,55.85028],[10.53125,55.78953],[10.55275,55.76985],[10.61658,55.76645],[10.64147,55.79651]]],[[[8.58219,56.67165],[8.58641,56.68044],[8.5821,56.68795],[8.54563,56.68431],[8.5147,56.67165],[8.50494,56.66765],[8.49568,56.67165],[8.46876,56.68326],[8.42627,56.67286],[8.40527,56.67593],[8.40435,56.67165],[8.48346,56.63184],[8.53163,56.58318],[8.54279,56.59574],[8.59103,56.61081],[8.59304,56.6343],[8.5764,56.65503],[8.58219,56.67165]]],[[[9.07325,56.82385],[9.0597,56.83528],[9.06247,56.84401],[9.02649,56.84692],[8.97725,56.83962],[8.95855,56.83805],[8.95096,56.8342],[8.96401,56.82773],[8.97725,56.81285],[9.00861,56.79682],[9.02316,56.80405],[9.03339,56.8199],[9.0586,56.81781],[9.07325,56.82385]]],[[[11.64557,56.7307],[11.64401,56.73582],[11.58595,56.72636],[11.55091,56.72469],[11.52642,56.72694],[11.51133,56.71571],[11.52537,56.70319],[11.5314,56.69328],[11.54568,56.68668],[11.58074,56.69078],[11.61636,56.71728],[11.64557,56.7307]]],[[[10.32991,55.76491],[10.32395,55.78241],[10.31235,55.7905],[10.3063,55.77774],[10.29816,55.77123],[10.2972,55.76303],[10.27311,55.75891],[10.24663,55.76062],[10.23369,55.75355],[10.24038,55.74759],[10.28991,55.74644],[10.30776,55.74072],[10.32073,55.74422],[10.32991,55.76491]]],[[[8.63586,56.63968],[8.63038,56.64686],[8.64077,56.65966],[8.61457,56.66245],[8.59262,56.66138],[8.58863,56.65373],[8.5984,56.64906],[8.59924,56.63867],[8.63175,56.62588],[8.63586,56.63968]]],[[[10.07777,55.84919],[10.10321,55.86047],[10.10229,55.86567],[10.05987,55.86906],[10.04666,55.86122],[10.03665,55.84905],[10.03744,55.84436],[10.07777,55.84919]]],[[[8.6362,56.5241],[8.63062,56.54373],[8.6331,56.55205],[8.65028,56.56742],[8.63736,56.57852],[8.63058,56.57413],[8.61263,56.55381],[8.62019,56.54508],[8.62041,56.53502],[8.6288,56.52146],[8.6362,56.5241]]],[[[10.10355,55.82489],[10.09643,55.83032],[10.0774,55.83486],[10.05706,55.83047],[10.06906,55.81784],[10.08439,55.81696],[10.10355,55.82489]]],[[[10.44512,55.94512],[10.454,55.94805],[10.45384,55.95409],[10.41248,55.96157],[10.40527,55.95804],[10.41244,55.95177],[10.43415,55.94512],[10.44512,55.94512]]],[[[10.6536,55.88815],[10.64436,55.90053],[10.6323,55.89361],[10.63747,55.88525],[10.6536,55.88815]]],[[[10.76845,55.93995],[10.7672,55.94997],[10.75552,55.95112],[10.74887,55.94514],[10.75899,55.93755],[10.76845,55.93995]]],[[[10.816,56.13467],[10.80461,56.14083],[10.79733,56.13502],[10.79733,56.12703],[10.816,56.13467]]]]},"properties":{"code":"DK04","nom":"Midtjylland","country":"DK"}}]}