{"type":"FeatureCollection","features":[{"type":"Feature","geometry":{"type":"MultiPolygon","coordinates":[[[[-6.86423,54.33017],[-6.87029,54.33608],[-6.90227,54.35372],[-6.92294,54.37853],[-7.02807,54.41811],[-7.06053,54.40498],[-7.11625,54.35248],[-7.15091,54.33815],[-7.18797,54.33608],[-7.18052,54.31394],[-7.20833,54.29875],[-7.17705,54.28552],[-7.17456,54.27356],[-7.14822,54.25735],[-7.14742,54.22741],[-7.23941,54.20586],[-7.25683,54.18815],[-7.25075,54.17123],[-7.25604,54.15476],[-7.28068,54.12436],[-7.31866,54.11637],[-7.36184,54.12911],[-7.388,54.12393],[-7.38192,54.13881],[-7.42102,54.14002],[-7.41368,54.15502],[-7.45035,54.14781],[-7.4813,54.12388],[-7.52589,54.13344],[-7.55473,54.12466],[-7.57867,54.13974],[-7.61239,54.14603],[-7.63259,54.17018],[-7.67405,54.18472],[-7.69273,54.2047],[-7.81318,54.20274],[-7.84571,54.21351],[-7.85462,54.22232],[-7.87249,54.29034],[-7.9517,54.30877],[-7.98152,54.33608],[-8.00279,54.35555],[-8.05438,54.36798],[-8.09768,54.40539],[-8.15142,54.43691],[-8.14925,54.45118],[-8.16023,54.46477],[-8.04848,54.49008],[-8.01589,54.52569],[-7.99931,54.5438],[-7.93704,54.53428],[-7.85003,54.53683],[-7.78646,54.58086],[-7.70341,54.60829],[-7.71407,54.62802],[-7.75243,54.62299],[-7.80956,54.63792],[-7.85003,54.63863],[-7.9002,54.66639],[-7.91149,54.69303],[-7.85003,54.72391],[-7.82988,54.73152],[-7.74942,54.70883],[-7.64152,54.74739],[-7.54975,54.74664],[-7.53932,54.79402],[-7.48447,54.82681],[-7.44949,54.86734],[-7.44547,54.92384],[-7.40578,54.94964],[-7.39033,55.01831],[-7.34874,55.04549],[-7.28844,55.05186],[-7.25607,55.06703],[-7.15853,55.14337],[-6.98003,55.20367],[-6.94842,55.23875],[-6.98328,55.25761],[-7.13481,55.29535],[-7.20877,55.34528],[-7.35775,55.36896],[-7.3521,55.33491],[-7.35936,55.31509],[-7.42189,55.2886],[-7.50822,55.27557],[-7.53513,55.22524],[-7.53363,55.19535],[-7.47625,55.12878],[-7.47528,55.08725],[-7.50933,55.0715],[-7.52153,55.03171],[-7.63209,54.97774],[-7.6383,54.98154],[-7.63434,54.99133],[-7.58302,55.03597],[-7.60743,55.05969],[-7.55056,55.09468],[-7.53526,55.12145],[-7.56903,55.16806],[-7.6061,55.19854],[-7.61805,55.23726],[-7.64339,55.26344],[-7.84317,55.22491],[-7.85595,55.20406],[-7.8441,55.16889],[-7.86391,55.15095],[-7.98023,55.20975],[-8.13484,55.14097],[-8.28091,55.14289],[-8.34125,55.05979],[-8.39229,55.03028],[-8.41732,55.02531],[-8.43193,54.99998],[-8.40449,54.95581],[-8.43635,54.94214],[-8.43472,54.91638],[-8.39743,54.8971],[-8.35703,54.89413],[-8.35229,54.88203],[-8.41099,54.85256],[-8.51267,54.83039],[-8.48089,54.78641],[-8.55331,54.77229],[-8.66236,54.76522],[-8.7299,54.73624],[-8.77966,54.698],[-8.78429,54.68505],[-8.75394,54.65468],[-8.66891,54.62588],[-8.596,54.61573],[-8.50531,54.62601],[-8.46356,54.61788],[-8.42582,54.6275],[-8.37079,54.6138],[-8.30281,54.63477],[-8.26805,54.61528],[-8.14585,54.64024],[-8.13769,54.63711],[-8.14243,54.61843],[-8.20581,54.57281],[-8.27392,54.49247],[-8.38286,54.46435],[-8.45595,54.45941],[-8.51733,54.41352],[-8.65187,54.35997],[-8.65645,54.3469],[-8.64257,54.33334],[-8.58064,54.33894],[-8.53884,54.32711],[-8.55047,54.31339],[-8.52722,54.29821],[-8.52411,54.28751],[-8.58674,54.28134],[-8.60166,54.27239],[-8.57105,54.23212],[-8.57197,54.22098],[-8.59892,54.22379],[-8.67865,54.26789],[-8.76644,54.27191],[-8.83333,54.26002],[-8.93677,54.28921],[-9.02095,54.29153],[-9.11395,54.2092],[-9.13226,54.16236],[-9.09585,54.14413],[-9.06133,54.14445],[-9.0223,54.15947],[-8.94749,54.14334],[-8.92097,54.11665],[-8.95441,54.10229],[-8.966,54.08105],[-8.97035,54.07307],[-8.97706,54.0699],[-9.0079,54.05347],[-9.00939,54.03058],[-8.96657,54.02669],[-8.93321,54.0111],[-8.8905,54.01878],[-8.86972,53.98705],[-8.82801,53.96913],[-8.78878,53.96792],[-8.74186,53.98957],[-8.71402,53.99166],[-8.68419,54.01081],[-8.67467,54.02903],[-8.64451,54.03372],[-8.59013,54.01281],[-8.5846,53.95993],[-8.5744,53.95872],[-8.53831,53.95443],[-8.51161,53.92743],[-8.46519,53.91529],[-8.43209,53.92664],[-8.3437,53.92871],[-8.35,53.94786],[-8.39926,53.96066],[-8.38885,53.97365],[-8.39405,53.99735],[-8.32523,54.00446],[-8.29472,54.04015],[-8.2662,54.04931],[-8.24217,54.0449],[-8.2177,54.0699],[-8.21644,54.08105],[-8.1797,54.0902],[-8.13842,54.12164],[-8.05937,54.10056],[-8.05273,54.08105],[-8.05167,54.0699],[-8.08575,54.03907],[-8.07502,53.98406],[-8.10641,53.95184],[-8.08946,53.93973],[-8.08317,53.92347],[-8.06596,53.91545],[-8.04386,53.91802],[-8.02306,53.9318],[-7.99979,53.92143],[-7.97692,53.87071],[-7.92854,53.84564],[-7.91877,53.82149],[-7.90962,53.82231],[-7.88682,53.82436],[-7.86767,53.81041],[-7.85648,53.82861],[-7.84571,53.82184],[-7.83251,53.81354],[-7.80568,53.81622],[-7.79133,53.81766],[-7.77423,53.84694],[-7.77365,53.86551],[-7.73209,53.88089],[-7.64475,53.93931],[-7.60866,53.93563],[-7.57821,53.9061],[-7.5557,53.9002],[-7.55471,53.88499],[-7.57147,53.87605],[-7.57977,53.85337],[-7.49376,53.85804],[-7.47531,53.84766],[-7.47013,53.80955],[-7.45035,53.80114],[-7.40135,53.77947],[-7.34383,53.79906],[-7.30761,53.81071],[-7.27297,53.78121],[-7.22587,53.77276],[-7.19921,53.79159],[-7.14855,53.80063],[-7.11348,53.79033],[-7.09804,53.77626],[-7.00797,53.76717],[-6.99486,53.77733],[-6.97695,53.77627],[-6.96449,53.78847],[-6.93716,53.78434],[-6.93765,53.79608],[-6.91852,53.8146],[-6.96573,53.84916],[-6.96881,53.8655],[-6.93049,53.87407],[-6.92934,53.89164],[-6.86682,53.87607],[-6.82589,53.89581],[-6.79304,53.88883],[-6.78226,53.91011],[-6.76095,53.91584],[-6.73068,53.91478],[-6.70308,53.90266],[-6.6541,53.91491],[-6.63261,53.92851],[-6.65612,53.94093],[-6.6541,53.96224],[-6.61817,53.98181],[-6.57157,53.97109],[-6.55688,53.98781],[-6.55566,54.00944],[-6.59499,54.04467],[-6.62777,54.04166],[-6.6626,54.0699],[-6.6575,54.08105],[-6.64906,54.09948],[-6.65743,54.11856],[-6.63333,54.15117],[-6.64391,54.18002],[-6.69696,54.1994],[-6.73743,54.18378],[-6.79433,54.21001],[-6.81494,54.22611],[-6.83225,54.26283],[-6.87456,54.27812],[-6.85463,54.29114],[-6.86423,54.33017]]],[[[-8.56754,54.97662],[-8.54548,54.973],[-8.50398,54.97168],[-8.48789,54.97358],[-8.48914,54.98565],[-8.49641,54.9879],[-8.49554,55.00213],[-8.5068,55.00728],[-8.51208,55.00433],[-8.52969,55.01253],[-8.53791,55.02167],[-8.54513,55.01327],[-8.55677,55.00926],[-8.54772,55.0018],[-8.56307,54.99417],[-8.55954,54.98418],[-8.56754,54.97662]]],[[[-7.33805,54.14582],[-7.32722,54.13617],[-7.31927,54.13727],[-7.31223,54.13003],[-7.29282,54.1316],[-7.28615,54.1402],[-7.2954,54.14749],[-7.28523,54.15339],[-7.28153,54.16643],[-7.29068,54.17058],[-7.31003,54.16613],[-7.32573,54.15117],[-7.33805,54.14582]]],[[[-8.25268,55.26819],[-8.24856,55.26385],[-8.22984,55.2618],[-8.22549,55.26473],[-8.21374,55.25395],[-8.20505,55.25893],[-8.22265,55.27075],[-8.23521,55.27459],[-8.2523,55.27312],[-8.25268,55.26819]]],[[[-8.45322,54.57468],[-8.4411,54.57304],[-8.42678,54.58659],[-8.42889,54.59176],[-8.44338,54.58832],[-8.45322,54.57468]]],[[[-8.46804,54.97435],[-8.45497,54.96875],[-8.44617,54.97009],[-8.45454,54.97893],[-8.45401,54.98896],[-8.46087,54.99087],[-8.46804,54.97435]]],[[[-8.59824,54.30036],[-8.59499,54.28976],[-8.58549,54.28867],[-8.57828,54.30014],[-8.59125,54.30499],[-8.59824,54.30036]]],[[[-8.37994,55.09227],[-8.37356,55.08416],[-8.35236,55.08393],[-8.36049,55.09546],[-8.37994,55.09227]]],[[[-8.46293,55.0574],[-8.45231,55.04771],[-8.4393,55.05218],[-8.44814,55.06216],[-8.46293,55.0574]]],[[[-8.14988,55.14826],[-8.13298,55.15575],[-8.132,55.16244],[-8.14871,55.16359],[-8.14988,55.14826]]],[[[-8.17368,55.1943],[-8.15865,55.18158],[-8.15594,55.19429],[-8.16385,55.20205],[-8.17368,55.1943]]],[[[-8.18633,55.17835],[-8.17664,55.16913],[-8.16291,55.17157],[-8.16291,55.17739],[-8.17472,55.17806],[-8.17898,55.1844],[-8.18633,55.17835]]],[[[-8.34935,55.10401],[-8.33534,55.09717],[-8.32498,55.10439],[-8.34156,55.11197],[-8.34935,55.10401]]],[[[-8.67656,54.43278],[-8.67213,54.42695],[-8.64949,54.43096],[-8.64956,54.43599],[-8.66572,54.43693],[-8.67656,54.43278]]]]},"properties":{"code":"IE041","nom":"Border","country":"IE"}},{"type":"Feature","geometry":{"type":"MultiPolygon","coordinates":[[[[-7.92972,53.10238],[-7.93659,53.10794],[-7.95731,53.12472],[-8.08146,53.16688],[-8.12443,53.15826],[-8.14996,53.14192],[-8.18253,53.10794],[-8.18805,53.10238],[-8.21907,53.07112],[-8.26357,53.05465],[-8.27895,53.02149],[-8.31227,52.99169],[-8.35575,52.97603],[-8.40974,52.99104],[-8.44662,52.97654],[-8.49773,52.98684],[-8.5278,53.01813],[-8.56648,53.03888],[-8.63044,53.04077],[-8.71989,53.0229],[-8.78338,52.97697],[-8.83667,52.98649],[-8.86096,52.97351],[-8.88064,52.97985],[-8.89169,52.99546],[-8.88946,53.02149],[-8.90057,53.06178],[-8.99931,53.10238],[-9.01282,53.10794],[-9.02586,53.1298],[-9.00931,53.14082],[-9.07502,53.16253],[-9.10548,53.15412],[-9.11682,53.13681],[-9.14054,53.12603],[-9.2494,53.14751],[-9.27324,53.14356],[-9.28221,53.13267],[-9.30369,53.10661],[-9.30908,53.10238],[-9.37,53.0546],[-9.45325,52.9508],[-9.44658,52.93698],[-9.37716,52.93834],[-9.36308,52.92662],[-9.42615,52.87927],[-9.44373,52.83871],[-9.4821,52.80435],[-9.50461,52.75448],[-9.52851,52.74388],[-9.56564,52.74746],[-9.59861,52.74034],[-9.66643,52.67962],[-9.82386,52.60188],[-9.8954,52.57848],[-9.9075,52.56681],[-9.87317,52.56146],[-9.72227,52.58399],[-9.68679,52.60963],[-9.57321,52.63293],[-9.56166,52.66132],[-9.51374,52.63109],[-9.4322,52.60978],[-9.32139,52.62319],[-9.31958,52.60233],[-9.29556,52.5957],[-9.28221,52.60093],[-9.23953,52.617],[-9.14645,52.63433],[-9.09274,52.66693],[-9.04451,52.70996],[-9.01474,52.75562],[-8.97521,52.77116],[-8.96205,52.76436],[-8.94579,52.69371],[-8.86256,52.69377],[-8.80069,52.6735],[-8.81088,52.66527],[-8.93628,52.65915],[-9.01163,52.6261],[-9.11544,52.62006],[-9.28221,52.57618],[-9.36519,52.57212],[-9.34565,52.56076],[-9.34204,52.54133],[-9.31107,52.52147],[-9.30248,52.50298],[-9.33687,52.46586],[-9.31095,52.43177],[-9.33452,52.40545],[-9.30754,52.38208],[-9.34049,52.35962],[-9.29723,52.33479],[-9.28221,52.331],[-9.24705,52.32212],[-9.22205,52.30302],[-9.18128,52.31212],[-9.1331,52.33714],[-9.03228,52.32023],[-8.98751,52.29781],[-8.9709,52.31396],[-8.88902,52.3323],[-8.87071,52.35271],[-8.81817,52.38323],[-8.80333,52.38551],[-8.79025,52.37628],[-8.77438,52.38512],[-8.7286,52.37168],[-8.67644,52.38078],[-8.65435,52.35031],[-8.61286,52.33398],[-8.58609,52.31087],[-8.51786,52.28351],[-8.39489,52.29534],[-8.33929,52.32522],[-8.31357,52.32024],[-8.28239,52.28989],[-8.24063,52.29486],[-8.18761,52.28634],[-8.16865,52.27401],[-8.15489,52.2426],[-8.10887,52.22801],[-8.10473,52.2065],[-8.00355,52.20448],[-7.99322,52.21106],[-7.99012,52.23873],[-7.94923,52.24461],[-7.90962,52.22784],[-7.84571,52.21993],[-7.81132,52.21567],[-7.80568,52.21602],[-7.75381,52.21927],[-7.75193,52.25242],[-7.7926,52.30053],[-7.78618,52.33487],[-7.778,52.34111],[-7.59626,52.36302],[-7.37748,52.33941],[-7.3926,52.36864],[-7.39002,52.42393],[-7.45978,52.47052],[-7.4269,52.50888],[-7.4534,52.51962],[-7.45608,52.57724],[-7.47509,52.596],[-7.48099,52.61747],[-7.51564,52.65076],[-7.5463,52.6966],[-7.64623,52.73529],[-7.66555,52.756],[-7.67408,52.78129],[-7.69458,52.82317],[-7.72552,52.86008],[-7.71672,52.8882],[-7.66943,52.92889],[-7.74434,52.9607],[-7.80474,52.97668],[-7.85267,52.95782],[-7.86135,52.94952],[-7.85364,52.92971],[-7.89389,52.89749],[-7.94755,52.88316],[-7.95395,52.86613],[-7.97072,52.85481],[-8.03941,52.89855],[-8.04411,52.93047],[-8.00203,52.93318],[-7.98631,52.94538],[-7.99843,52.98666],[-7.95815,53.00163],[-7.95692,53.03548],[-7.93708,53.05846],[-7.92972,53.10238]]],[[[-9.06024,52.68023],[-9.04747,52.67293],[-9.0413,52.67401],[-9.04267,52.69076],[-9.06024,52.68023]]],[[[-9.03356,52.67471],[-9.01573,52.66927],[-9.01045,52.6774],[-9.02429,52.68398],[-9.03356,52.67471]]],[[[-9.01909,52.70991],[-9.01351,52.70542],[-9.00142,52.70697],[-8.99724,52.71072],[-9.00204,52.71685],[-9.01399,52.7169],[-9.01909,52.70991]]],[[[-9.52664,52.61775],[-9.52091,52.60323],[-9.50993,52.61025],[-9.50948,52.61984],[-9.52664,52.61775]]],[[[-8.98611,52.70842],[-8.97443,52.69701],[-8.9656,52.70161],[-8.9704,52.71337],[-8.98611,52.70842]]]]},"properties":{"code":"IE051","nom":"Mid-West","country":"IE"}},{"type":"Feature","geometry":{"type":"MultiPolygon","coordinates":[[[[-8.10473,52.2065],[-8.10887,52.22801],[-8.15489,52.2426],[-8.16865,52.27401],[-8.18761,52.28634],[-8.24063,52.29486],[-8.28239,52.28989],[-8.31357,52.32024],[-8.33929,52.32522],[-8.39489,52.29534],[-8.51786,52.28351],[-8.58609,52.31087],[-8.61286,52.33398],[-8.65435,52.35031],[-8.67644,52.38078],[-8.7286,52.37168],[-8.77438,52.38512],[-8.79025,52.37628],[-8.80333,52.38551],[-8.81817,52.38323],[-8.87071,52.35271],[-8.88902,52.3323],[-8.9709,52.31396],[-8.98751,52.29781],[-9.03228,52.32023],[-9.1331,52.33714],[-9.18128,52.31212],[-9.22205,52.30302],[-9.24705,52.32212],[-9.28221,52.331],[-9.29723,52.33479],[-9.34049,52.35962],[-9.30754,52.38208],[-9.33452,52.40545],[-9.31095,52.43177],[-9.33687,52.46586],[-9.30248,52.50298],[-9.31107,52.52147],[-9.34204,52.54133],[-9.34565,52.56076],[-9.36519,52.57212],[-9.40332,52.58142],[-9.48324,52.5702],[-9.6249,52.56911],[-9.66907,52.54255],[-9.7304,52.47061],[-9.79389,52.44584],[-9.91365,52.41894],[-9.90469,52.39778],[-9.84667,52.36822],[-9.83766,52.28828],[-9.77796,52.26895],[-9.77218,52.26125],[-9.77837,52.25557],[-9.89134,52.23543],[-9.93964,52.23644],[-9.99825,52.26293],[-10.02996,52.29566],[-10.0942,52.254],[-10.13798,52.24568],[-10.17075,52.27272],[-10.20528,52.27698],[-10.33983,52.23236],[-10.38432,52.18972],[-10.43596,52.18726],[-10.45778,52.12498],[-10.4484,52.11136],[-10.42488,52.1041],[-10.34698,52.12148],[-10.26787,52.1281],[-10.17197,52.11601],[-10.01871,52.13503],[-9.96053,52.12751],[-9.9235,52.14438],[-9.85767,52.15287],[-9.81582,52.14212],[-9.83022,52.12959],[-9.89486,52.11611],[-9.93725,52.08061],[-10.01459,52.047],[-10.14502,52.02179],[-10.24989,51.98448],[-10.28391,51.9599],[-10.27542,51.93217],[-10.28252,51.91171],[-10.29795,51.91035],[-10.32409,51.92887],[-10.38979,51.90644],[-10.40302,51.88855],[-10.39264,51.8669],[-10.34735,51.83258],[-10.3245,51.80281],[-10.28676,51.80999],[-10.2405,51.83332],[-10.20725,51.83259],[-10.18634,51.81409],[-10.1734,51.77629],[-10.11667,51.75206],[-9.92618,51.8031],[-9.85296,51.80729],[-9.74138,51.84704],[-9.67365,51.85326],[-9.68111,51.84205],[-9.75883,51.81468],[-9.82533,51.76911],[-9.96467,51.72881],[-9.9867,51.69029],[-10.07126,51.66429],[-10.08146,51.63287],[-10.12743,51.6084],[-10.11746,51.59707],[-10.02442,51.59961],[-9.92929,51.62539],[-9.89084,51.61877],[-9.84095,51.62371],[-9.82107,51.63668],[-9.84825,51.64754],[-9.84545,51.65379],[-9.72265,51.67955],[-9.6404,51.6844],[-9.5327,51.73268],[-9.47122,51.71285],[-9.46911,51.6922],[-9.48944,51.67629],[-9.67485,51.61946],[-9.80801,51.55756],[-9.80949,51.55069],[-9.79684,51.55021],[-9.63067,51.59601],[-9.61365,51.59137],[-9.68042,51.5407],[-9.79885,51.49459],[-9.80855,51.47069],[-9.78199,51.45824],[-9.74156,51.46539],[-9.65863,51.50368],[-9.60333,51.50145],[-9.54205,51.51456],[-9.50298,51.51273],[-9.42948,51.54035],[-9.40805,51.53158],[-9.3896,51.49207],[-9.34868,51.47682],[-9.21781,51.4962],[-9.09641,51.55365],[-9.00147,51.55937],[-8.93083,51.54832],[-8.8365,51.59066],[-8.72647,51.58159],[-8.70548,51.59722],[-8.68001,51.64131],[-8.55399,51.63225],[-8.5051,51.68458],[-8.41862,51.69773],[-8.33521,51.73038],[-8.29498,51.79257],[-8.31659,51.83326],[-8.3109,51.84857],[-8.22428,51.85449],[-8.21787,51.84646],[-8.23685,51.82278],[-8.23406,51.80906],[-8.12066,51.80088],[-8.03884,51.82128],[-7.97694,51.86043],[-7.89535,51.87986],[-7.88246,51.91439],[-7.84216,51.95422],[-7.85732,51.97642],[-7.9164,51.97927],[-7.96186,52.03217],[-8.01286,52.05268],[-8.02892,52.09236],[-8.06793,52.12324],[-8.06784,52.14197],[-8.08237,52.13175],[-8.15042,52.14805],[-8.15072,52.15895],[-8.12242,52.19545],[-8.10473,52.2065]]],[[[-9.52383,51.42942],[-9.51251,51.42262],[-9.50016,51.43246],[-9.49802,51.42745],[-9.48599,51.43114],[-9.4613,51.44847],[-9.46787,51.45294],[-9.48455,51.45085],[-9.51506,51.43807],[-9.52383,51.42942]]],[[[-9.43875,51.46177],[-9.43679,51.45316],[-9.39933,51.46815],[-9.3982,51.48792],[-9.41412,51.48845],[-9.41575,51.47898],[-9.42507,51.47618],[-9.42538,51.46575],[-9.43875,51.46177]]],[[[-10.57114,52.07993],[-10.56761,52.07772],[-10.54905,52.08586],[-10.51954,52.09485],[-10.51231,52.10478],[-10.52027,52.10758],[-10.56721,52.08586],[-10.57114,52.07993]]],[[[-10.20925,51.59425],[-10.20573,51.59162],[-10.16103,51.60496],[-10.16222,51.61047],[-10.19519,51.60595],[-10.20925,51.59425]]],[[[-9.51229,51.6855],[-9.49689,51.67847],[-9.47948,51.69978],[-9.48401,51.70446],[-9.51229,51.6855]]],[[[-9.44204,51.49522],[-9.43658,51.48695],[-9.42875,51.48772],[-9.43001,51.49637],[-9.4171,51.50883],[-9.41911,51.51481],[-9.42976,51.51623],[-9.43454,51.4988],[-9.44204,51.49522]]],[[[-9.88965,52.29676],[-9.88096,52.28721],[-9.86954,52.28727],[-9.86338,52.29516],[-9.88497,52.30211],[-9.88965,52.29676]]],[[[-10.41424,51.83748],[-10.40459,51.82909],[-10.39307,51.83489],[-10.40811,51.84667],[-10.41424,51.83748]]],[[[-10.2306,51.78151],[-10.21136,51.77206],[-10.20427,51.7811],[-10.22563,51.78607],[-10.2306,51.78151]]],[[[-8.29956,51.83697],[-8.29532,51.82735],[-8.27741,51.83185],[-8.28164,51.84058],[-8.29956,51.83697]]],[[[-9.49777,51.4842],[-9.49635,51.47963],[-9.49065,51.47649],[-9.47514,51.48044],[-9.48208,51.48569],[-9.48274,51.49018],[-9.49142,51.48869],[-9.49777,51.4842]]],[[[-10.62314,52.04916],[-10.61646,52.04026],[-10.60523,52.03848],[-10.59971,52.04535],[-10.61894,52.05245],[-10.62314,52.04916]]],[[[-10.26319,51.7267],[-10.24976,51.72408],[-10.24057,51.73093],[-10.2457,51.73726],[-10.25616,51.73565],[-10.26319,51.7267]]],[[[-10.59053,52.12687],[-10.58943,52.12154],[-10.56882,52.12646],[-10.57386,52.13798],[-10.59053,52.12687]]],[[[-10.23218,51.73267],[-10.21115,51.72992],[-10.21333,51.74268],[-10.22393,51.7424],[-10.23218,51.73267]]],[[[-9.5152,51.47947],[-9.50239,51.47276],[-9.49758,51.48024],[-9.49822,51.48479],[-9.50386,51.48442],[-9.5152,51.47947]]],[[[-9.4519,51.49202],[-9.44725,51.48911],[-9.44151,51.49395],[-9.4446,51.49832],[-9.45054,51.49486],[-9.4519,51.49202]]]]},"properties":{"code":"IE053","nom":"South-West","country":"IE"}},{"type":"Feature","geometry":{"type":"MultiPolygon","coordinates":[[[[-6.45669,53.22893],[-6.42371,53.2299],[-6.40146,53.21274],[-6.37425,53.21454],[-6.37066,53.19222],[-6.33985,53.18038],[-6.31604,53.19207],[-6.30212,53.22196],[-6.2443,53.20379],[-6.18644,53.21925],[-6.13826,53.20085],[-6.10277,53.21077],[-6.11015,53.24927],[-6.1012,53.27804],[-6.18624,53.30745],[-6.20511,53.32847],[-6.19319,53.34303],[-6.19672,53.35541],[-6.1602,53.3594],[-6.14649,53.38114],[-6.12708,53.39114],[-6.11885,53.41294],[-6.12997,53.4524],[-6.10437,53.48733],[-6.10942,53.50725],[-6.08477,53.52324],[-6.08305,53.5506],[-6.10661,53.57855],[-6.14757,53.58892],[-6.18859,53.62583],[-6.2149,53.63341],[-6.25662,53.63057],[-6.27724,53.59556],[-6.3232,53.57519],[-6.38389,53.58975],[-6.42115,53.56632],[-6.43185,53.54966],[-6.41805,53.5335],[-6.37355,53.51836],[-6.33306,53.48718],[-6.35781,53.44874],[-6.41549,53.43618],[-6.42282,53.41874],[-6.45669,53.38824],[-6.49075,53.35759],[-6.49836,53.32643],[-6.53653,53.30987],[-6.52961,53.29475],[-6.54301,53.27853],[-6.52047,53.26215],[-6.52954,53.24929],[-6.46267,53.22876],[-6.45669,53.22893]]],[[[-6.11782,53.39093],[-6.10233,53.38452],[-6.09641,53.36983],[-6.0773,53.36036],[-6.06815,53.36397],[-6.05255,53.3626],[-6.04394,53.37799],[-6.04585,53.38504],[-6.1134,53.39503],[-6.11782,53.39093]]],[[[-6.03439,53.48966],[-6.01515,53.48245],[-6.00344,53.49355],[-6.00931,53.49875],[-6.02733,53.49795],[-6.03439,53.48966]]],[[[-6.07326,53.40085],[-6.06333,53.39686],[-6.05636,53.40142],[-6.05576,53.41208],[-6.07065,53.40883],[-6.07326,53.40085]]]]},"properties":{"code":"IE061","nom":"Dublin","country":"IE"}},{"type":"Feature","geometry":{"type":"MultiPolygon","coordinates":[[[[-6.14452,52.7377],[-6.13814,52.80074],[-6.10517,52.8371],[-6.06157,52.85842],[-6.05756,52.87961],[-6.00292,52.96279],[-6.04651,52.99317],[-6.04859,53.02305],[-6.03586,53.06954],[-6.03985,53.10238],[-6.04053,53.10794],[-6.04125,53.11391],[-6.07311,53.16029],[-6.07835,53.18768],[-6.10277,53.21077],[-6.13826,53.20085],[-6.18644,53.21925],[-6.2443,53.20379],[-6.30212,53.22196],[-6.31604,53.19207],[-6.33985,53.18038],[-6.37066,53.19222],[-6.37425,53.21454],[-6.40146,53.21274],[-6.42371,53.2299],[-6.45669,53.22893],[-6.46267,53.22876],[-6.52954,53.24929],[-6.52047,53.26215],[-6.54301,53.27853],[-6.52961,53.29475],[-6.53653,53.30987],[-6.49836,53.32643],[-6.49075,53.35759],[-6.45669,53.38824],[-6.42282,53.41874],[-6.41549,53.43618],[-6.35781,53.44874],[-6.33306,53.48718],[-6.37355,53.51836],[-6.41805,53.5335],[-6.43185,53.54966],[-6.42115,53.56632],[-6.38389,53.58975],[-6.3232,53.57519],[-6.27724,53.59556],[-6.25662,53.63057],[-6.2149,53.63341],[-6.2478,53.72634],[-6.24423,53.76162],[-6.2248,53.79365],[-6.25698,53.81361],[-6.24554,53.85862],[-6.34139,53.88376],[-6.36323,53.9014],[-6.37529,53.94598],[-6.36318,53.97681],[-6.33552,54.01168],[-6.24053,53.98712],[-6.171,53.97903],[-6.11124,54.00094],[-6.13161,54.02754],[-6.17842,54.04067],[-6.24859,54.08105],[-6.26802,54.10234],[-6.29191,54.11158],[-6.32396,54.09308],[-6.34299,54.11047],[-6.35975,54.11218],[-6.36401,54.08105],[-6.39582,54.06148],[-6.43867,54.05963],[-6.45669,54.06622],[-6.47453,54.07274],[-6.51133,54.05606],[-6.57926,54.05473],[-6.59499,54.04467],[-6.55566,54.00944],[-6.55688,53.98781],[-6.57157,53.97109],[-6.61817,53.98181],[-6.6541,53.96224],[-6.65612,53.94093],[-6.63261,53.92851],[-6.6541,53.91491],[-6.70308,53.90266],[-6.73068,53.91478],[-6.76095,53.91584],[-6.78226,53.91011],[-6.79304,53.88883],[-6.82589,53.89581],[-6.86682,53.87607],[-6.92934,53.89164],[-6.93049,53.87407],[-6.96881,53.8655],[-6.96573,53.84916],[-6.91852,53.8146],[-6.93765,53.79608],[-6.93716,53.78434],[-6.96449,53.78847],[-6.97695,53.77627],[-6.99486,53.77733],[-7.00797,53.76717],[-7.09804,53.77626],[-7.11348,53.79033],[-7.14855,53.80063],[-7.19921,53.79159],[-7.22587,53.77276],[-7.27297,53.78121],[-7.30761,53.81071],[-7.34383,53.79906],[-7.26173,53.75228],[-7.2014,53.69932],[-7.0774,53.657],[-7.00719,53.66742],[-6.97286,53.64989],[-6.99194,53.5938],[-7.02098,53.56269],[-7.0331,53.5202],[-7.0648,53.48139],[-7.17412,53.42769],[-7.13711,53.39844],[-7.04053,53.35072],[-6.99962,53.31737],[-7.04198,53.24418],[-7.0373,53.20672],[-7.10335,53.17847],[-7.08736,53.16361],[-7.0886,53.13566],[-7.06903,53.10238],[-7.05528,53.079],[-7.07371,52.99956],[-7.03104,52.97574],[-6.97107,52.96038],[-6.94348,52.91903],[-6.93941,52.88005],[-6.92394,52.88331],[-6.88428,52.8598],[-6.86709,52.87044],[-6.85232,52.86128],[-6.81811,52.87211],[-6.78846,52.86884],[-6.75046,52.8919],[-6.73496,52.91493],[-6.63223,52.9026],[-6.6006,52.89776],[-6.57707,52.88047],[-6.5284,52.88672],[-6.51119,52.87439],[-6.54006,52.81814],[-6.5841,52.8048],[-6.61384,52.81054],[-6.63223,52.82395],[-6.66527,52.83321],[-6.69751,52.80733],[-6.70771,52.77927],[-6.65771,52.76713],[-6.64901,52.74364],[-6.63223,52.72746],[-6.62142,52.71704],[-6.57736,52.70218],[-6.56343,52.6853],[-6.49853,52.69132],[-6.43574,52.7347],[-6.41111,52.77866],[-6.36607,52.79446],[-6.32061,52.7964],[-6.29494,52.78371],[-6.25805,52.793],[-6.23925,52.7795],[-6.17372,52.76579],[-6.16627,52.74536],[-6.14452,52.7377]]]]},"properties":{"code":"IE062","nom":"Mid-East","country":"IE"}},{"type":"Feature","geometry":{"type":"MultiPolygon","coordinates":[[[[-6.93941,52.88005],[-6.94348,52.91903],[-6.97107,52.96038],[-7.03104,52.97574],[-7.07371,52.99956],[-7.05528,53.079],[-7.06903,53.10238],[-7.0886,53.13566],[-7.08736,53.16361],[-7.10335,53.17847],[-7.0373,53.20672],[-7.04198,53.24418],[-6.99962,53.31737],[-7.04053,53.35072],[-7.13711,53.39844],[-7.17412,53.42769],[-7.0648,53.48139],[-7.0331,53.5202],[-7.02098,53.56269],[-6.99194,53.5938],[-6.97286,53.64989],[-7.00719,53.66742],[-7.0774,53.657],[-7.2014,53.69932],[-7.26173,53.75228],[-7.34383,53.79906],[-7.40135,53.77947],[-7.45035,53.80114],[-7.47013,53.80955],[-7.47531,53.84766],[-7.49376,53.85804],[-7.57977,53.85337],[-7.57147,53.87605],[-7.55471,53.88499],[-7.5557,53.9002],[-7.57821,53.9061],[-7.60866,53.93563],[-7.64475,53.93931],[-7.73209,53.88089],[-7.77365,53.86551],[-7.77423,53.84694],[-7.79133,53.81766],[-7.80568,53.81622],[-7.83251,53.81354],[-7.84571,53.82184],[-7.85648,53.82861],[-7.86767,53.81041],[-7.88682,53.82436],[-7.90962,53.82231],[-7.91877,53.82149],[-7.90962,53.80125],[-7.90657,53.79448],[-7.87949,53.77581],[-7.89026,53.75843],[-7.90962,53.74485],[-7.92169,53.73639],[-7.94393,53.73465],[-7.94512,53.72571],[-7.95189,53.71439],[-7.98186,53.70117],[-7.98991,53.67575],[-8.03043,53.64669],[-8.03539,53.61259],[-7.97742,53.54276],[-7.95667,53.48371],[-7.96424,53.45353],[-7.95553,53.43294],[-7.96273,53.42163],[-7.92491,53.39386],[-7.91388,53.37211],[-7.94814,53.34114],[-8.02355,53.3196],[-8.02853,53.30026],[-8.05203,53.2784],[-8.02385,53.25417],[-7.97463,53.23285],[-7.9698,53.22343],[-7.97676,53.20792],[-7.99491,53.19498],[-8.04989,53.19243],[-8.08146,53.16688],[-7.95731,53.12472],[-7.93659,53.10794],[-7.92972,53.10238],[-7.93708,53.05846],[-7.95692,53.03548],[-7.95815,53.00163],[-7.99843,52.98666],[-7.98631,52.94538],[-8.00203,52.93318],[-8.04411,52.93047],[-8.03941,52.89855],[-7.97072,52.85481],[-7.95395,52.86613],[-7.94755,52.88316],[-7.89389,52.89749],[-7.85364,52.92971],[-7.86135,52.94952],[-7.85267,52.95782],[-7.80474,52.97668],[-7.74434,52.9607],[-7.66943,52.92889],[-7.71672,52.8882],[-7.72552,52.86008],[-7.69458,52.82317],[-7.67408,52.78129],[-7.61737,52.79074],[-7.61318,52.80717],[-7.57784,52.82566],[-7.55156,52.8075],[-7.52564,52.80877],[-7.47516,52.78745],[-7.4281,52.8019],[-7.39944,52.79788],[-7.37516,52.828],[-7.35054,52.81394],[-7.34237,52.83956],[-7.32145,52.86165],[-7.26058,52.85171],[-7.24728,52.8615],[-7.24421,52.87664],[-7.19562,52.89235],[-7.14645,52.87274],[-7.1206,52.82816],[-7.07486,52.81323],[-7.05398,52.79489],[-7.0331,52.80849],[-6.95277,52.81626],[-6.93407,52.84722],[-6.93941,52.88005]]]]},"properties":{"code":"IE063","nom":"Midland","country":"IE"}},{"type":"Feature","geometry":{"type":"MultiPolygon","coordinates":[[[[-8.18805,53.10238],[-8.18253,53.10794],[-8.14996,53.14192],[-8.12443,53.15826],[-8.08146,53.16688],[-8.04989,53.19243],[-7.99491,53.19498],[-7.97676,53.20792],[-7.9698,53.22343],[-7.97463,53.23285],[-8.02385,53.25417],[-8.05203,53.2784],[-8.02853,53.30026],[-8.02355,53.3196],[-7.94814,53.34114],[-7.91388,53.37211],[-7.92491,53.39386],[-7.96273,53.42163],[-7.95553,53.43294],[-7.96424,53.45353],[-7.95667,53.48371],[-7.97742,53.54276],[-8.03539,53.61259],[-8.03043,53.64669],[-7.98991,53.67575],[-7.98186,53.70117],[-7.95189,53.71439],[-7.94512,53.72571],[-7.94393,53.73465],[-7.92169,53.73639],[-7.90962,53.74485],[-7.89026,53.75843],[-7.87949,53.77581],[-7.90657,53.79448],[-7.90962,53.80125],[-7.91877,53.82149],[-7.92854,53.84564],[-7.97692,53.87071],[-7.99979,53.92143],[-8.02306,53.9318],[-8.04386,53.91802],[-8.06596,53.91545],[-8.08317,53.92347],[-8.08946,53.93973],[-8.10641,53.95184],[-8.07502,53.98406],[-8.08575,54.03907],[-8.05167,54.0699],[-8.05273,54.08105],[-8.05937,54.10056],[-8.13842,54.12164],[-8.1797,54.0902],[-8.21644,54.08105],[-8.2177,54.0699],[-8.24217,54.0449],[-8.2662,54.04931],[-8.29472,54.04015],[-8.32523,54.00446],[-8.39405,53.99735],[-8.38885,53.97365],[-8.39926,53.96066],[-8.35,53.94786],[-8.3437,53.92871],[-8.43209,53.92664],[-8.46519,53.91529],[-8.51161,53.92743],[-8.53831,53.95443],[-8.5744,53.95872],[-8.5846,53.95993],[-8.59013,54.01281],[-8.64451,54.03372],[-8.67467,54.02903],[-8.68419,54.01081],[-8.71402,53.99166],[-8.74186,53.98957],[-8.78878,53.96792],[-8.82801,53.96913],[-8.86972,53.98705],[-8.8905,54.01878],[-8.93321,54.0111],[-8.96657,54.02669],[-9.00939,54.03058],[-9.0079,54.05347],[-8.97706,54.0699],[-8.97035,54.07307],[-8.966,54.08105],[-8.95441,54.10229],[-8.92097,54.11665],[-8.94749,54.14334],[-9.0223,54.15947],[-9.06133,54.14445],[-9.09585,54.14413],[-9.13226,54.16236],[-9.16406,54.19398],[-9.20247,54.21543],[-9.21858,54.27201],[-9.24673,54.28002],[-9.27805,54.30833],[-9.32183,54.31723],[-9.40458,54.30367],[-9.80116,54.33478],[-9.83755,54.31817],[-9.83333,54.28409],[-9.85848,54.26556],[-9.88072,54.23342],[-9.90256,54.22294],[-9.92233,54.22963],[-9.92337,54.26357],[-9.96961,54.28548],[-10.05686,54.27104],[-10.07204,54.25012],[-10.07624,54.20795],[-10.11274,54.14223],[-10.11167,54.10892],[-10.08333,54.10258],[-10.06372,54.16131],[-10.00584,54.20631],[-9.98362,54.20877],[-9.94994,54.18809],[-9.936,54.13841],[-9.96501,54.10339],[-9.96219,54.08137],[-9.92135,54.07411],[-9.88483,54.0916],[-9.86625,54.09087],[-9.88714,54.03406],[-9.85177,53.97982],[-9.81993,53.95517],[-9.89709,53.94079],[-9.91722,53.90989],[-9.91342,53.88002],[-9.86193,53.87216],[-9.75404,53.89884],[-9.61076,53.89178],[-9.58604,53.86637],[-9.60007,53.82845],[-9.58509,53.79877],[-9.6154,53.78296],[-9.78051,53.77783],[-9.88022,53.75648],[-9.90639,53.70711],[-9.90581,53.67543],[-9.85326,53.61598],[-9.93291,53.60222],[-10.01331,53.60251],[-10.02219,53.59318],[-10.00766,53.57339],[-10.01064,53.5637],[-10.09702,53.57098],[-10.1558,53.54968],[-10.16195,53.54079],[-10.15392,53.52887],[-10.08862,53.49158],[-10.07473,53.46976],[-10.08578,53.45028],[-10.12774,53.43929],[-10.13436,53.41797],[-10.06939,53.41135],[-9.97644,53.38071],[-9.8879,53.40258],[-9.82315,53.39958],[-9.82336,53.38671],[-9.86784,53.3647],[-9.88322,53.34373],[-9.8793,53.32417],[-9.85154,53.30092],[-9.83084,53.31185],[-9.77551,53.30877],[-9.74416,53.31561],[-9.69529,53.3485],[-9.67419,53.35269],[-9.65503,53.37298],[-9.62121,53.34622],[-9.59219,53.36001],[-9.57949,53.34634],[-9.61015,53.30448],[-9.61721,53.27317],[-9.61162,53.25591],[-9.59243,53.25088],[-9.56105,53.26722],[-9.53738,53.24328],[-9.50292,53.2288],[-9.157,53.24882],[-9.03437,53.26668],[-8.97238,53.26461],[-8.97353,53.23346],[-8.93704,53.20529],[-8.93991,53.18039],[-8.95214,53.1651],[-9.00262,53.16431],[-9.00931,53.14082],[-9.02586,53.1298],[-9.01282,53.10794],[-8.99931,53.10238],[-8.90057,53.06178],[-8.88946,53.02149],[-8.89169,52.99546],[-8.88064,52.97985],[-8.86096,52.97351],[-8.83667,52.98649],[-8.78338,52.97697],[-8.71989,53.0229],[-8.63044,53.04077],[-8.56648,53.03888],[-8.5278,53.01813],[-8.49773,52.98684],[-8.44662,52.97654],[-8.40974,52.99104],[-8.35575,52.97603],[-8.31227,52.99169],[-8.27895,53.02149],[-8.26357,53.05465],[-8.21907,53.07112],[-8.18805,53.10238]]],[[[-10.22382,53.97616],[-10.20828,53.9653],[-10.19275,53.96153],[-10.18889,53.96908],[-10.1548,53.96658],[-10.1273,53.97363],[-10.11621,53.96153],[-10.09921,53.96449],[-10.08483,53.9721],[-10.07394,53.97319],[-10.05177,53.96462],[-10.0452,53.9582],[-10.05441,53.93784],[-10.05397,53.91715],[-10.03816,53.91463],[-10.02734,53.92088],[-10.01894,53.92021],[-10.01564,53.91259],[-9.99362,53.90272],[-10.00047,53.89668],[-9.991,53.88882],[-9.96578,53.87718],[-9.96749,53.87115],[-9.9532,53.85943],[-9.94429,53.85729],[-9.94264,53.87269],[-9.94796,53.87839],[-9.93697,53.8975],[-9.94641,53.91597],[-9.93415,53.91711],[-9.92467,53.92961],[-9.93316,53.93621],[-9.9262,53.94084],[-9.923,53.9629],[-9.94078,53.96361],[-9.95043,53.95721],[-9.95593,53.97361],[-9.95212,53.98164],[-9.95625,53.98846],[-9.93863,53.99182],[-9.9315,53.997],[-9.94276,54.00972],[-9.97276,54.02833],[-9.98676,54.01853],[-9.98861,54.0124],[-10.01425,54.01619],[-10.02696,54.01202],[-10.04259,54.02392],[-10.06886,54.02462],[-10.10119,54.00144],[-10.12005,54.00252],[-10.13371,53.9996],[-10.14765,54.00901],[-10.16723,54.00806],[-10.18762,54.01454],[-10.18806,53.99704],[-10.20828,53.98244],[-10.22382,53.97616]]],[[[-9.63501,53.10238],[-9.63334,53.10578],[-9.64883,53.10238],[-9.65082,53.10238],[-9.66303,53.10794],[-9.66868,53.11298],[-9.66363,53.13099],[-9.72017,53.13734],[-9.74777,53.13492],[-9.76434,53.14725],[-9.78431,53.15091],[-9.80782,53.14988],[-9.81957,53.14131],[-9.70481,53.10794],[-9.68806,53.10238],[-9.65097,53.09008],[-9.64003,53.09218],[-9.63501,53.10238]]],[[[-9.71854,53.2598],[-9.70931,53.25273],[-9.71399,53.23925],[-9.70072,53.22802],[-9.66303,53.22605],[-9.64985,53.23069],[-9.64367,53.24105],[-9.65078,53.27654],[-9.65845,53.28243],[-9.71672,53.26249],[-9.71854,53.2598]]],[[[-10.04872,53.80132],[-10.04623,53.79077],[-9.98598,53.79061],[-9.95054,53.79788],[-9.9443,53.81112],[-9.96527,53.8138],[-9.97581,53.82672],[-9.98648,53.82578],[-9.99654,53.81435],[-10.02385,53.81065],[-10.04872,53.80132]]],[[[-10.26032,53.6231],[-10.25392,53.61756],[-10.23389,53.61238],[-10.21669,53.61335],[-10.21313,53.60794],[-10.1912,53.60716],[-10.17924,53.61672],[-10.18789,53.62371],[-10.18364,53.63136],[-10.20025,53.63684],[-10.20632,53.62725],[-10.2215,53.63127],[-10.24039,53.62187],[-10.24929,53.63078],[-10.26032,53.6231]]],[[[-9.61916,53.0685],[-9.60701,53.06555],[-9.58055,53.07114],[-9.57383,53.08029],[-9.56206,53.08698],[-9.56602,53.099],[-9.57515,53.10204],[-9.59745,53.09793],[-9.59932,53.09247],[-9.61358,53.08334],[-9.61916,53.0685]]],[[[-9.71262,53.29782],[-9.69301,53.29052],[-9.69065,53.27975],[-9.68403,53.28717],[-9.65126,53.28821],[-9.63187,53.29534],[-9.64375,53.30389],[-9.65126,53.30028],[-9.68476,53.30993],[-9.70615,53.30423],[-9.71262,53.29782]]],[[[-9.76416,53.26806],[-9.76317,53.25597],[-9.75075,53.25223],[-9.76225,53.24194],[-9.75727,53.2357],[-9.74453,53.23797],[-9.74098,53.23322],[-9.72304,53.22988],[-9.72304,53.24707],[-9.74975,53.25847],[-9.75173,53.27109],[-9.76416,53.26806]]],[[[-10.13711,53.69295],[-10.1282,53.69076],[-10.10167,53.69498],[-10.08849,53.69937],[-10.08211,53.71015],[-10.09038,53.71404],[-10.10515,53.70988],[-10.12493,53.71141],[-10.1248,53.70551],[-10.13543,53.70105],[-10.13711,53.69295]]],[[[-10.22218,54.11638],[-10.20273,54.11107],[-10.20272,54.12832],[-10.18416,54.13092],[-10.18445,54.13702],[-10.19594,54.14394],[-10.18503,54.15337],[-10.1944,54.16357],[-10.20623,54.15225],[-10.20214,54.14744],[-10.20821,54.13888],[-10.20779,54.12955],[-10.22218,54.11638]]],[[[-9.5529,53.05207],[-9.55059,53.04914],[-9.52669,53.04566],[-9.50452,53.0559],[-9.50465,53.06149],[-9.52972,53.06788],[-9.54379,53.06362],[-9.5529,53.05207]]],[[[-9.92368,53.99499],[-9.91637,53.98547],[-9.91323,53.99068],[-9.89239,53.98885],[-9.88874,54.00176],[-9.90765,54.00079],[-9.92368,53.99499]]],[[[-10.29706,53.60667],[-10.29469,53.60311],[-10.26381,53.60726],[-10.26951,53.61305],[-10.2897,53.61811],[-10.29706,53.60667]]],[[[-9.64586,53.82947],[-9.63642,53.82348],[-9.62322,53.83059],[-9.6307,53.8398],[-9.64586,53.82947]]],[[[-10.16062,53.50802],[-10.15759,53.49705],[-10.15073,53.49635],[-10.14786,53.51413],[-10.15795,53.51563],[-10.16062,53.50802]]],[[[-10.17958,54.07373],[-10.1589,54.06911],[-10.15757,54.0796],[-10.16434,54.08116],[-10.17324,54.08116],[-10.17958,54.07373]]],[[[-9.03747,53.21877],[-9.02411,53.21052],[-9.01603,53.21739],[-9.02299,53.22739],[-9.03747,53.21877]]],[[[-9.6779,53.3204],[-9.67543,53.31468],[-9.65303,53.31556],[-9.6593,53.32615],[-9.6779,53.3204]]],[[[-9.93571,53.3746],[-9.9341,53.36265],[-9.92111,53.36526],[-9.92089,53.37906],[-9.93571,53.3746]]],[[[-9.15561,54.20389],[-9.14815,54.19594],[-9.13285,54.19817],[-9.1424,54.21045],[-9.15561,54.20389]]],[[[-9.65059,53.31328],[-9.63716,53.30821],[-9.62758,53.31545],[-9.63429,53.32427],[-9.65059,53.31328]]],[[[-9.9821,53.32748],[-9.97543,53.3146],[-9.96225,53.32648],[-9.97686,53.33297],[-9.9821,53.32748]]],[[[-10.03932,53.71761],[-10.02787,53.70797],[-10.01927,53.72074],[-10.03424,53.72509],[-10.03932,53.71761]]],[[[-9.72495,53.27948],[-9.7171,53.26979],[-9.70639,53.27568],[-9.71556,53.28617],[-9.72495,53.28516],[-9.72495,53.27948]]]]},"properties":{"code":"IE042","nom":"West","country":"IE"}},{"type":"Feature","geometry":{"type":"MultiPolygon","coordinates":[[[[-7.84216,51.95422],[-7.81727,51.94133],[-7.80568,51.94353],[-7.72445,51.94262],[-7.69141,51.97253],[-7.59416,51.99359],[-7.55846,52.04492],[-7.62055,52.06892],[-7.62193,52.08089],[-7.60015,52.09139],[-7.55343,52.08634],[-7.4487,52.12368],[-7.37435,52.13618],[-7.18589,52.1377],[-7.11808,52.16494],[-7.10084,52.16127],[-7.09934,52.14645],[-7.08628,52.13389],[-7.02064,52.13864],[-6.97943,52.16856],[-6.9748,52.20442],[-6.95761,52.23223],[-6.92766,52.21895],[-6.91153,52.20021],[-6.90531,52.1446],[-6.84047,52.17567],[-6.8251,52.22097],[-6.77078,52.24923],[-6.7673,52.24191],[-6.78445,52.21347],[-6.66171,52.21439],[-6.58189,52.17903],[-6.48387,52.18921],[-6.36649,52.18195],[-6.33024,52.24186],[-6.36741,52.25989],[-6.3927,52.29373],[-6.43456,52.30712],[-6.48857,52.35852],[-6.47496,52.36733],[-6.44662,52.35014],[-6.36626,52.35713],[-6.34418,52.41444],[-6.20671,52.54817],[-6.20232,52.56835],[-6.22217,52.61802],[-6.22185,52.64429],[-6.19322,52.68959],[-6.14452,52.7377],[-6.16627,52.74536],[-6.17372,52.76579],[-6.23925,52.7795],[-6.25805,52.793],[-6.29494,52.78371],[-6.32061,52.7964],[-6.36607,52.79446],[-6.41111,52.77866],[-6.43574,52.7347],[-6.49853,52.69132],[-6.56343,52.6853],[-6.57736,52.70218],[-6.62142,52.71704],[-6.63223,52.72746],[-6.64901,52.74364],[-6.65771,52.76713],[-6.70771,52.77927],[-6.69751,52.80733],[-6.66527,52.83321],[-6.63223,52.82395],[-6.61384,52.81054],[-6.5841,52.8048],[-6.54006,52.81814],[-6.51119,52.87439],[-6.5284,52.88672],[-6.57707,52.88047],[-6.6006,52.89776],[-6.63223,52.9026],[-6.73496,52.91493],[-6.75046,52.8919],[-6.78846,52.86884],[-6.81811,52.87211],[-6.85232,52.86128],[-6.86709,52.87044],[-6.88428,52.8598],[-6.92394,52.88331],[-6.93941,52.88005],[-6.93407,52.84722],[-6.95277,52.81626],[-7.0331,52.80849],[-7.05398,52.79489],[-7.07486,52.81323],[-7.1206,52.82816],[-7.14645,52.87274],[-7.19562,52.89235],[-7.24421,52.87664],[-7.24728,52.8615],[-7.26058,52.85171],[-7.32145,52.86165],[-7.34237,52.83956],[-7.35054,52.81394],[-7.37516,52.828],[-7.39944,52.79788],[-7.4281,52.8019],[-7.47516,52.78745],[-7.52564,52.80877],[-7.55156,52.8075],[-7.57784,52.82566],[-7.61318,52.80717],[-7.61737,52.79074],[-7.67408,52.78129],[-7.66555,52.756],[-7.64623,52.73529],[-7.5463,52.6966],[-7.51564,52.65076],[-7.48099,52.61747],[-7.47509,52.596],[-7.45608,52.57724],[-7.4534,52.51962],[-7.4269,52.50888],[-7.45978,52.47052],[-7.39002,52.42393],[-7.3926,52.36864],[-7.37748,52.33941],[-7.59626,52.36302],[-7.778,52.34111],[-7.78618,52.33487],[-7.7926,52.30053],[-7.75193,52.25242],[-7.75381,52.21927],[-7.80568,52.21602],[-7.81132,52.21567],[-7.84571,52.21993],[-7.90962,52.22784],[-7.94923,52.24461],[-7.99012,52.23873],[-7.99322,52.21106],[-8.00355,52.20448],[-8.10473,52.2065],[-8.12242,52.19545],[-8.15072,52.15895],[-8.15042,52.14805],[-8.08237,52.13175],[-8.06784,52.14197],[-8.06793,52.12324],[-8.02892,52.09236],[-8.01286,52.05268],[-7.96186,52.03217],[-7.9164,51.97927],[-7.85732,51.97642],[-7.84216,51.95422]]],[[[-6.62972,52.11095],[-6.61752,52.10484],[-6.61178,52.11919],[-6.62673,52.12086],[-6.62972,52.11095]]],[[[-6.59656,52.13284],[-6.58325,52.12705],[-6.57938,52.14297],[-6.59036,52.144],[-6.59656,52.13284]]]]},"properties":{"code":"IE052","nom":"South-East","country":"IE"}}]}