{"type":"FeatureCollection","features":[{"type":"Feature","geometry":{"type":"MultiPolygon","coordinates":[[[[14.32766,45.8913],[14.31876,45.89366],[14.31205,45.89279],[14.30049,45.88682],[14.30206,45.88239],[14.27862,45.847],[14.27141,45.85249],[14.26015,45.8516],[14.26095,45.85644],[14.25087,45.85],[14.24126,45.85563],[14.24361,45.85947],[14.23259,45.85911],[14.2313,45.8583],[14.22237,45.85899],[14.22406,45.86332],[14.22038,45.86677],[14.21508,45.8692],[14.20728,45.8688],[14.2004,45.87435],[14.18967,45.87852],[14.17449,45.87413],[14.15744,45.87238],[14.14911,45.87668],[14.13298,45.87265],[14.12958,45.8695],[14.12522,45.86689],[14.12176,45.86482],[14.11123,45.862],[14.10379,45.85503],[14.10046,45.84888],[14.08655,45.84554],[14.08595,45.8454],[14.07383,45.84272],[14.0495,45.83734],[14.07028,45.81281],[14.06938,45.80873],[14.06695,45.79825],[14.0637,45.80326],[14.0562,45.79849],[14.05402,45.77069],[14.04744,45.77337],[14.04567,45.76918],[14.04237,45.76136],[14.04768,45.75352],[14.05402,45.7515],[14.07383,45.74936],[14.07834,45.74702],[14.08595,45.74132],[14.08595,45.741],[14.08347,45.73846],[14.08595,45.73374],[14.09314,45.73157],[14.09085,45.72841],[14.09538,45.72501],[14.09933,45.71627],[14.09943,45.71583],[14.09511,45.70973],[14.08595,45.71042],[14.08062,45.71082],[14.07383,45.70768],[14.0671,45.68623],[14.06851,45.68355],[14.07383,45.68243],[14.07787,45.68154],[14.07987,45.67696],[14.07852,45.67117],[14.07925,45.66502],[14.07383,45.65475],[14.07864,45.654],[14.08595,45.64841],[14.08633,45.64811],[14.08733,45.64108],[14.09195,45.63629],[14.08595,45.63297],[14.08316,45.63143],[14.08595,45.63019],[14.09723,45.62513],[14.09707,45.61598],[14.09973,45.6127],[14.10162,45.6118],[14.11242,45.60854],[14.11556,45.60677],[14.10638,45.59759],[14.10162,45.59455],[14.09204,45.58843],[14.09442,45.58683],[14.0926,45.58015],[14.09505,45.57508],[14.09336,45.57078],[14.10014,45.56765],[14.10162,45.56881],[14.10649,45.57263],[14.11823,45.56986],[14.11348,45.56431],[14.11193,45.55339],[14.103,45.54791],[14.10162,45.54387],[14.10114,45.54246],[14.10162,45.54252],[14.10158,45.53203],[14.09223,45.523],[14.09054,45.51647],[14.09443,45.51791],[14.10162,45.51699],[14.1036,45.51674],[14.11429,45.50746],[14.12468,45.51392],[14.12361,45.50608],[14.12522,45.50251],[14.12944,45.49269],[14.12741,45.48848],[14.12522,45.48393],[14.1182,45.48124],[14.12074,45.48012],[14.12301,45.47913],[14.12522,45.47834],[14.12782,45.47741],[14.14147,45.47519],[14.15273,45.48062],[14.16384,45.4798],[14.17855,45.47839],[14.20147,45.47145],[14.20666,45.46988],[14.20673,45.47145],[14.2072,45.48338],[14.21114,45.48848],[14.21429,45.49255],[14.22009,45.49406],[14.22388,45.50124],[14.22899,45.50394],[14.24499,45.50538],[14.25263,45.49658],[14.26626,45.48288],[14.27716,45.48922],[14.28643,45.49035],[14.28801,45.48848],[14.29102,45.48491],[14.30004,45.48207],[14.30598,45.48019],[14.31663,45.48297],[14.32,45.47291],[14.32162,45.47145],[14.32278,45.47041],[14.32463,45.47145],[14.34855,45.48477],[14.36101,45.48442],[14.37718,45.48775],[14.37875,45.48848],[14.38764,45.49359],[14.39449,45.49476],[14.40215,45.50426],[14.41664,45.50954],[14.42874,45.50786],[14.43668,45.51097],[14.44256,45.51649],[14.45612,45.52061],[14.47506,45.53321],[14.48835,45.53685],[14.49947,45.54941],[14.49767,45.56228],[14.49954,45.57566],[14.50252,45.57967],[14.50719,45.59074],[14.50232,45.60812],[14.51354,45.60734],[14.53533,45.61497],[14.5434,45.62219],[14.56576,45.652],[14.56719,45.65905],[14.57001,45.67294],[14.56719,45.67356],[14.5612,45.67486],[14.55768,45.69715],[14.55653,45.69826],[14.5554,45.69982],[14.55474,45.70315],[14.55363,45.70678],[14.55294,45.70889],[14.55166,45.71147],[14.54804,45.71645],[14.54232,45.72499],[14.5375,45.73932],[14.54689,45.7431],[14.5599,45.73387],[14.56719,45.73532],[14.57868,45.73762],[14.56829,45.7509],[14.56719,45.7523],[14.5657,45.7542],[14.56666,45.76057],[14.56698,45.76076],[14.57069,45.76668],[14.5684,45.77863],[14.55758,45.77903],[14.55426,45.77866],[14.55367,45.77995],[14.54599,45.78553],[14.5481,45.78788],[14.55781,45.78839],[14.56251,45.78876],[14.56481,45.79146],[14.56109,45.79622],[14.55371,45.7984],[14.55031,45.80171],[14.55003,45.80217],[14.54958,45.81061],[14.54907,45.8113],[14.54692,45.8134],[14.54559,45.81377],[14.54388,45.81415],[14.54204,45.81422],[14.53079,45.81462],[14.52806,45.82181],[14.52524,45.82319],[14.52291,45.82795],[14.50534,45.83973],[14.50566,45.84227],[14.50607,45.84536],[14.49781,45.85166],[14.49629,45.85906],[14.50195,45.86093],[14.50307,45.8679],[14.49967,45.87541],[14.4908,45.88228],[14.49072,45.88226],[14.46692,45.86883],[14.46275,45.87179],[14.4571,45.87187],[14.44138,45.86113],[14.43243,45.85929],[14.41896,45.87156],[14.40942,45.87221],[14.4043,45.86447],[14.39967,45.85711],[14.39249,45.85981],[14.39094,45.86482],[14.37249,45.87759],[14.36575,45.87056],[14.35682,45.87129],[14.35075,45.88445],[14.3412,45.87999],[14.32766,45.8913]]]]},"properties":{"code":"SI038","nom":"Primorsko-notranjska","country":"SI"}},{"type":"Feature","geometry":{"type":"MultiPolygon","coordinates":[[[[15.12282,46.0863],[15.11971,46.08975],[15.11024,46.09041],[15.10713,46.09165],[15.10205,46.09369],[15.09857,46.0838],[15.10241,46.08222],[15.0965,46.07798],[15.08589,46.07866],[15.08284,46.07716],[15.08512,46.0745],[15.08361,46.06794],[15.07569,46.07068],[15.06731,46.06552],[15.0682,46.05988],[15.06711,46.05964],[15.07236,46.04632],[15.07642,46.04286],[15.07661,46.04267],[15.0885,46.04075],[15.08999,46.03143],[15.09216,46.02914],[15.09098,46.02854],[15.09941,46.01896],[15.10594,46.01063],[15.10713,46.00909],[15.10973,46.00574],[15.1146,46.00389],[15.12282,46.00214],[15.12763,46.00006],[15.12798,45.99641],[15.13066,45.98298],[15.13171,45.98295],[15.13587,45.99032],[15.14117,45.99123],[15.14784,45.99237],[15.14963,45.99728],[15.15402,45.99628],[15.15991,45.99872],[15.16606,45.99847],[15.16267,45.99752],[15.16346,45.99464],[15.15996,45.98521],[15.15158,45.98402],[15.14826,45.97813],[15.15418,45.96928],[15.1575,45.96594],[15.16176,45.96575],[15.16099,45.96443],[15.16283,45.95756],[15.16671,45.95556],[15.17195,45.95241],[15.17157,45.95147],[15.18219,45.94615],[15.1845,45.94327],[15.18679,45.9404],[15.192,45.94015],[15.1939,45.93761],[15.19466,45.93611],[15.2018,45.9332],[15.20892,45.93301],[15.21702,45.92904],[15.22525,45.92856],[15.22255,45.93491],[15.23139,45.93738],[15.23523,45.93273],[15.23946,45.93903],[15.24642,45.94186],[15.24719,45.94327],[15.24673,45.94863],[15.24909,45.94874],[15.25122,45.94971],[15.25253,45.95082],[15.25402,45.95153],[15.2623,45.94654],[15.26437,45.94327],[15.26883,45.9362],[15.27343,45.93535],[15.28124,45.93842],[15.27981,45.94327],[15.27215,45.95066],[15.27578,45.95713],[15.27811,45.9586],[15.27911,45.96005],[15.2886,45.95716],[15.28876,45.95666],[15.30415,45.95039],[15.30558,45.954],[15.30219,45.95964],[15.30447,45.96079],[15.32689,45.95712],[15.33209,45.9597],[15.33246,45.95504],[15.3331,45.94673],[15.33998,45.94327],[15.35123,45.9376],[15.3474,45.93316],[15.34201,45.92887],[15.34305,45.91823],[15.34385,45.91009],[15.34405,45.9091],[15.3441,45.90054],[15.33862,45.89418],[15.33473,45.89311],[15.33492,45.89152],[15.33848,45.88897],[15.34882,45.88704],[15.35643,45.8894],[15.3689,45.88953],[15.36958,45.88717],[15.37911,45.88439],[15.37806,45.87404],[15.38084,45.87356],[15.38324,45.86522],[15.39781,45.86468],[15.39523,45.86102],[15.3822,45.85819],[15.37661,45.85362],[15.37158,45.85528],[15.36755,45.85266],[15.36862,45.85074],[15.3763,45.84794],[15.38048,45.84098],[15.38311,45.83338],[15.37971,45.8319],[15.37658,45.83149],[15.3763,45.8267],[15.37584,45.82632],[15.37589,45.82333],[15.38071,45.81386],[15.38959,45.81315],[15.40053,45.80513],[15.40442,45.79272],[15.40827,45.79193],[15.41259,45.7951],[15.43198,45.79504],[15.45646,45.79459],[15.46522,45.79456],[15.47419,45.79861],[15.46614,45.81837],[15.47222,45.81752],[15.47555,45.81901],[15.4789,45.8275],[15.47925,45.8276],[15.48316,45.82875],[15.48653,45.82934],[15.49273,45.83203],[15.49697,45.8292],[15.50291,45.82855],[15.50357,45.8223],[15.52108,45.82193],[15.53224,45.82796],[15.53543,45.82969],[15.53882,45.83649],[15.53778,45.84219],[15.53855,45.8476],[15.54308,45.84622],[15.54946,45.84626],[15.55101,45.84546],[15.55288,45.84014],[15.55981,45.83627],[15.56354,45.84418],[15.56618,45.84624],[15.57044,45.84957],[15.57252,45.85298],[15.57831,45.84946],[15.59377,45.84493],[15.60719,45.84116],[15.61411,45.8357],[15.63254,45.83064],[15.63477,45.82558],[15.64227,45.82124],[15.65151,45.83123],[15.66037,45.8368],[15.66527,45.84076],[15.68397,45.84268],[15.69257,45.84335],[15.6969,45.84894],[15.70297,45.84541],[15.70899,45.84641],[15.70276,45.85375],[15.69598,45.85956],[15.68498,45.8626],[15.68291,45.864],[15.67982,45.86737],[15.67752,45.86889],[15.6816,45.87062],[15.67974,45.8764],[15.68223,45.8807],[15.68903,45.8817],[15.69089,45.88453],[15.68365,45.88782],[15.68145,45.89612],[15.68144,45.89747],[15.68029,45.90418],[15.68663,45.90856],[15.69228,45.91208],[15.69938,45.91591],[15.70093,45.92],[15.70648,45.92136],[15.70712,45.92475],[15.70335,45.92704],[15.7092,45.93143],[15.70867,45.93832],[15.71193,45.93944],[15.70949,45.94327],[15.70839,45.94499],[15.70972,45.96134],[15.71002,45.96201],[15.70937,45.96372],[15.70765,45.96822],[15.70718,45.97088],[15.70641,45.97526],[15.70475,45.98598],[15.701,45.98958],[15.70567,45.9898],[15.70067,45.99868],[15.71087,46.0043],[15.71182,46.00956],[15.71429,46.01034],[15.70684,46.01459],[15.70948,46.01699],[15.71583,46.02042],[15.71332,46.02376],[15.71896,46.02795],[15.71691,46.03162],[15.71764,46.0367],[15.7315,46.04398],[15.71991,46.05487],[15.71465,46.05942],[15.70669,46.05912],[15.6831,46.06686],[15.68039,46.07074],[15.6735,46.07104],[15.66935,46.07355],[15.65837,46.07125],[15.65825,46.07991],[15.65481,46.0835],[15.65,46.08282],[15.64854,46.08719],[15.64216,46.08681],[15.63606,46.08382],[15.62726,46.08595],[15.61406,46.0714],[15.60597,46.07515],[15.59931,46.07208],[15.59777,46.06873],[15.60168,46.05014],[15.60698,46.03907],[15.61505,46.03876],[15.62349,46.03511],[15.63423,46.03578],[15.64435,46.04051],[15.65461,46.03672],[15.64947,46.03313],[15.6518,46.03063],[15.6417,46.02731],[15.62398,46.01542],[15.6118,46.01144],[15.60477,46.00496],[15.59156,46.00113],[15.58672,46.00019],[15.57968,45.99797],[15.5783,45.99616],[15.57059,45.99819],[15.57232,46.00019],[15.57679,46.00431],[15.58174,46.00516],[15.59004,46.01392],[15.58889,46.01749],[15.5953,46.02639],[15.58059,46.02487],[15.57395,46.02583],[15.56618,46.02287],[15.56389,46.02199],[15.55741,46.02309],[15.54604,46.02007],[15.5465,46.02537],[15.54164,46.0347],[15.54316,46.04145],[15.53877,46.0486],[15.53224,46.04868],[15.53056,46.0487],[15.52269,46.06148],[15.51632,46.06416],[15.51026,46.06431],[15.50542,46.05998],[15.49845,46.05783],[15.49648,46.06153],[15.48294,46.06901],[15.4792,46.07027],[15.47271,46.07172],[15.47077,46.07096],[15.45326,46.06731],[15.44289,46.06993],[15.43079,46.06746],[15.40824,46.06597],[15.39455,46.06774],[15.38965,46.06885],[15.38562,46.07285],[15.37947,46.07336],[15.37332,46.07112],[15.37067,46.06922],[15.35861,46.07419],[15.34288,46.07243],[15.33388,46.07345],[15.31787,46.07498],[15.30903,46.07376],[15.30519,46.07292],[15.29756,46.06829],[15.28177,46.06834],[15.28261,46.05496],[15.27297,46.06009],[15.27484,46.07184],[15.27378,46.07443],[15.26637,46.0751],[15.26751,46.08388],[15.26314,46.08907],[15.26182,46.08871],[15.26193,46.08478],[15.25613,46.08026],[15.24736,46.07735],[15.23437,46.07727],[15.22369,46.0836],[15.22132,46.08447],[15.21946,46.086],[15.21768,46.08709],[15.20888,46.08225],[15.19874,46.08228],[15.19623,46.08535],[15.18565,46.08335],[15.18277,46.07836],[15.18066,46.07881],[15.17475,46.07763],[15.1712,46.08014],[15.17178,46.08348],[15.15649,46.09123],[15.1549,46.09341],[15.14117,46.08717],[15.13895,46.08616],[15.12282,46.0863]]]]},"properties":{"code":"SI036","nom":"Posavska","country":"SI"}},{"type":"Feature","geometry":{"type":"MultiPolygon","coordinates":[[[[13.65243,46.44448],[13.64811,46.44578],[13.63313,46.442],[13.62416,46.44295],[13.61655,46.43971],[13.61067,46.44101],[13.59709,46.43855],[13.58256,46.43018],[13.57803,46.41668],[13.57729,46.40935],[13.56616,46.39886],[13.55889,46.39796],[13.55231,46.39295],[13.54241,46.3914],[13.53729,46.38605],[13.52746,46.38753],[13.51692,46.38297],[13.51544,46.37654],[13.50853,46.37634],[13.49818,46.37102],[13.48244,46.369],[13.46973,46.36124],[13.45025,46.36276],[13.43862,46.35935],[13.43747,46.35437],[13.4462,46.33905],[13.44836,46.33328],[13.43965,46.32322],[13.42614,46.32232],[13.41998,46.31926],[13.41597,46.31491],[13.41736,46.30636],[13.407,46.30531],[13.40288,46.30014],[13.38195,46.29868],[13.37549,46.29823],[13.3768,46.29456],[13.38195,46.289],[13.38646,46.28979],[13.39141,46.28294],[13.39913,46.25381],[13.40749,46.24225],[13.41686,46.23743],[13.42187,46.23448],[13.42044,46.2306],[13.41248,46.22709],[13.41607,46.2216],[13.40989,46.21602],[13.41072,46.21236],[13.42094,46.20907],[13.42336,46.20605],[13.43592,46.21141],[13.43994,46.21223],[13.44626,46.21273],[13.44823,46.21625],[13.44404,46.22543],[13.44601,46.22578],[13.44862,46.22516],[13.45684,46.22612],[13.46542,46.22359],[13.47298,46.22525],[13.4798,46.22482],[13.49693,46.22185],[13.49868,46.21782],[13.5034,46.2159],[13.51507,46.21525],[13.52483,46.21789],[13.52907,46.2189],[13.52946,46.21221],[13.53746,46.21343],[13.54558,46.21217],[13.56066,46.20465],[13.56606,46.19504],[13.56541,46.18783],[13.5666,46.18617],[13.56987,46.18678],[13.57301,46.18487],[13.57778,46.18559],[13.58678,46.1902],[13.58954,46.19061],[13.58985,46.18828],[13.60225,46.18833],[13.61197,46.18885],[13.61458,46.18433],[13.63361,46.19179],[13.63702,46.19068],[13.64534,46.18921],[13.64892,46.1881],[13.65839,46.18418],[13.66435,46.17755],[13.66606,46.17417],[13.66405,46.17044],[13.65347,46.15863],[13.65517,46.15437],[13.65241,46.14771],[13.64376,46.13735],[13.6326,46.13345],[13.62202,46.12321],[13.60248,46.11312],[13.59554,46.10467],[13.58795,46.10046],[13.57976,46.09764],[13.57259,46.08854],[13.54467,46.08239],[13.53024,46.06738],[13.51424,46.06187],[13.502,46.0615],[13.49711,46.05778],[13.49781,46.05146],[13.49694,46.05133],[13.49761,46.04823],[13.50403,46.04642],[13.50771,46.04554],[13.50944,46.04194],[13.5081,46.03393],[13.50445,46.02769],[13.49678,46.01701],[13.4916,46.0144],[13.48121,46.01167],[13.48037,46.0092],[13.47711,46.00625],[13.47863,46.00355],[13.48545,45.99964],[13.49498,45.98667],[13.49572,45.98601],[13.50254,45.98057],[13.51524,45.97875],[13.5194,45.97409],[13.52654,45.97232],[13.52912,45.96715],[13.53948,45.96539],[13.54478,45.96594],[13.54997,45.97005],[13.56294,45.96965],[13.56872,45.96987],[13.578,45.98322],[13.59042,45.98926],[13.60445,45.98682],[13.60495,45.98685],[13.60873,45.98476],[13.62087,45.9846],[13.63301,45.9884],[13.63688,45.98685],[13.64206,45.98275],[13.63991,45.97189],[13.63674,45.96156],[13.63351,45.95047],[13.63543,45.94308],[13.63717,45.93803],[13.6372,45.93494],[13.62691,45.9231],[13.6206,45.91823],[13.61407,45.90747],[13.61141,45.90377],[13.60804,45.89906],[13.5966,45.89452],[13.58989,45.88654],[13.58666,45.88071],[13.59221,45.87459],[13.58667,45.87024],[13.58283,45.86282],[13.57605,45.85353],[13.5758,45.84774],[13.57667,45.84242],[13.58836,45.83494],[13.59331,45.82266],[13.59714,45.81952],[13.60766,45.81958],[13.61191,45.81912],[13.61419,45.81934],[13.62003,45.81947],[13.62285,45.81888],[13.62547,45.81922],[13.63068,45.81909],[13.63472,45.81952],[13.64273,45.81978],[13.65025,45.81697],[13.65687,45.81587],[13.66169,45.816],[13.67385,45.81607],[13.68246,45.81612],[13.68925,45.83402],[13.68953,45.83483],[13.68973,45.83494],[13.70257,45.83521],[13.71597,45.84317],[13.71888,45.85645],[13.71586,45.86351],[13.72214,45.86187],[13.7354,45.85951],[13.74212,45.8582],[13.75556,45.85194],[13.76523,45.848],[13.77152,45.84096],[13.77163,45.84095],[13.77455,45.8406],[13.77654,45.84039],[13.78299,45.83801],[13.78637,45.83643],[13.78987,45.83387],[13.81146,45.83548],[13.81105,45.84149],[13.81821,45.84271],[13.82392,45.8432],[13.83571,45.83831],[13.84036,45.83532],[13.84118,45.83399],[13.84682,45.829],[13.85599,45.82606],[13.86742,45.82573],[13.87345,45.82448],[13.87525,45.82644],[13.8921,45.82882],[13.89131,45.82399],[13.89662,45.82327],[13.89753,45.81773],[13.90282,45.81787],[13.90132,45.81437],[13.90578,45.81409],[13.9079,45.81142],[13.90914,45.80943],[13.92024,45.80418],[13.92656,45.79993],[13.93419,45.79302],[13.94979,45.78871],[13.95744,45.78928],[13.95799,45.7867],[13.96785,45.78387],[13.97849,45.77998],[13.9924,45.77396],[13.99852,45.76918],[13.99594,45.76618],[14.00648,45.7669],[14.00864,45.76918],[14.01112,45.77178],[14.01908,45.77237],[14.02584,45.76918],[14.04237,45.76136],[14.04567,45.76918],[14.04744,45.77337],[14.05402,45.77069],[14.0562,45.79849],[14.0637,45.80326],[14.06695,45.79825],[14.06938,45.80873],[14.07028,45.81281],[14.0495,45.83734],[14.07383,45.84272],[14.08595,45.8454],[14.08655,45.84554],[14.10046,45.84888],[14.10379,45.85503],[14.11123,45.862],[14.12176,45.86482],[14.12522,45.86689],[14.12958,45.8695],[14.12522,45.87664],[14.12405,45.87855],[14.12092,45.89619],[14.10259,45.90977],[14.10192,45.91823],[14.10162,45.92205],[14.09794,45.9305],[14.10162,45.93222],[14.11023,45.93626],[14.11155,45.94327],[14.11239,45.94767],[14.12017,45.95141],[14.11808,45.96706],[14.11022,45.96595],[14.10715,45.97248],[14.1128,45.97646],[14.11354,45.97947],[14.12522,45.98017],[14.12906,45.9804],[14.13457,45.98804],[14.13644,45.99259],[14.14496,45.99353],[14.13999,45.9974],[14.14538,46.00208],[14.14011,46.00466],[14.1374,46.00491],[14.12522,46.00514],[14.12112,46.00522],[14.12138,46.00603],[14.11225,46.01193],[14.10471,46.01132],[14.10473,46.01271],[14.10789,46.01714],[14.10299,46.0221],[14.10432,46.02739],[14.10162,46.02994],[14.09941,46.03202],[14.10228,46.03358],[14.09551,46.03543],[14.08856,46.03165],[14.08595,46.03193],[14.07876,46.02678],[14.07928,46.02908],[14.08537,46.03666],[14.07861,46.03954],[14.08112,46.0392],[14.08092,46.04115],[14.07634,46.04721],[14.07689,46.05028],[14.07383,46.05114],[14.07154,46.05152],[14.05465,46.0617],[14.03045,46.07195],[14.02934,46.07235],[14.02725,46.07302],[14.02348,46.07717],[14.02367,46.08014],[14.01922,46.08409],[14.01867,46.08767],[14.0184,46.0884],[14.02236,46.09862],[14.02247,46.09875],[14.03083,46.10728],[14.04285,46.11293],[14.04788,46.12387],[14.05202,46.12949],[14.05835,46.13244],[14.05733,46.13956],[14.06563,46.14717],[14.07383,46.15649],[14.07164,46.16561],[14.03955,46.17141],[14.02691,46.16967],[14.01693,46.17186],[14.01086,46.17079],[13.99899,46.1698],[13.9871,46.17712],[13.9864,46.18394],[13.98946,46.19122],[13.98822,46.19295],[13.98874,46.19444],[13.99238,46.20449],[13.99534,46.20741],[14.00463,46.20995],[14.007,46.21738],[14.00602,46.22937],[13.99344,46.23693],[13.98015,46.23779],[13.9784,46.23869],[13.96758,46.2337],[13.9547,46.23646],[13.94708,46.23151],[13.93324,46.23065],[13.93151,46.23114],[13.90301,46.23027],[13.89713,46.22647],[13.88435,46.22863],[13.87589,46.22593],[13.86523,46.2277],[13.86497,46.22779],[13.85782,46.2288],[13.85311,46.23254],[13.83434,46.23828],[13.81251,46.23841],[13.78309,46.25205],[13.77183,46.25978],[13.7569,46.26069],[13.74682,46.27305],[13.73721,46.27719],[13.73504,46.28161],[13.73038,46.28576],[13.73119,46.29263],[13.72482,46.29679],[13.74561,46.31205],[13.74158,46.33181],[13.7461,46.33749],[13.75475,46.34157],[13.76749,46.34405],[13.7909,46.35615],[13.80217,46.35619],[13.80751,46.35945],[13.81511,46.35962],[13.82607,46.36422],[13.83644,46.37835],[13.83423,46.38172],[13.82475,46.38147],[13.81607,46.38734],[13.81191,46.40229],[13.81303,46.40797],[13.80753,46.41065],[13.80143,46.41065],[13.77852,46.42233],[13.75612,46.42519],[13.73875,46.4384],[13.72693,46.43596],[13.72214,46.43325],[13.70623,46.42649],[13.68297,46.42027],[13.68022,46.42123],[13.67836,46.42419],[13.68403,46.43747],[13.67609,46.44006],[13.67385,46.44004],[13.65563,46.43988],[13.65243,46.44448]]]]},"properties":{"code":"SI043","nom":"Gori\u0161ka","country":"SI"}},{"type":"Feature","geometry":{"type":"MultiPolygon","coordinates":[[[[14.56719,46.36665],[14.56521,46.3677],[14.56046,46.36388],[14.54059,46.3624],[14.53546,46.3574],[14.54592,46.3521],[14.54918,46.34705],[14.54671,46.34083],[14.53813,46.3317],[14.5386,46.32869],[14.54231,46.32516],[14.55225,46.32178],[14.55445,46.31868],[14.553,46.31496],[14.54276,46.30934],[14.53718,46.30064],[14.54697,46.29049],[14.55327,46.28266],[14.54873,46.27541],[14.56321,46.27267],[14.56373,46.26454],[14.56719,46.26243],[14.56969,46.26091],[14.57175,46.25694],[14.56675,46.2547],[14.56605,46.2484],[14.56497,46.24473],[14.56002,46.24476],[14.55401,46.24248],[14.54152,46.23124],[14.54065,46.22813],[14.52855,46.2181],[14.52356,46.21791],[14.51684,46.21713],[14.50811,46.21116],[14.50056,46.20047],[14.49721,46.2024],[14.47458,46.20315],[14.46989,46.20581],[14.46508,46.20468],[14.46044,46.20177],[14.46918,46.19648],[14.45914,46.19307],[14.45835,46.19171],[14.44136,46.18893],[14.4326,46.18826],[14.43156,46.19039],[14.42488,46.19152],[14.41592,46.18942],[14.40538,46.19003],[14.41056,46.17955],[14.41089,46.1791],[14.41693,46.17132],[14.42248,46.16753],[14.39537,46.15781],[14.39494,46.15782],[14.3827,46.15792],[14.38095,46.14911],[14.37947,46.14715],[14.37846,46.14495],[14.37409,46.14774],[14.37414,46.15093],[14.37118,46.15168],[14.3688,46.15106],[14.36394,46.15256],[14.36315,46.15132],[14.36376,46.14994],[14.36303,46.14838],[14.36462,46.14745],[14.36352,46.14526],[14.35455,46.14564],[14.34549,46.13559],[14.34523,46.13532],[14.33779,46.13431],[14.32879,46.12915],[14.32749,46.11851],[14.33164,46.11423],[14.33519,46.11211],[14.3358,46.10528],[14.33148,46.09744],[14.32643,46.09631],[14.31746,46.09794],[14.31146,46.10216],[14.29817,46.10141],[14.27651,46.10592],[14.26248,46.10759],[14.25622,46.1065],[14.25021,46.09961],[14.24711,46.09761],[14.22543,46.09656],[14.22302,46.0921],[14.21383,46.08642],[14.21302,46.08601],[14.20795,46.07758],[14.2091,46.07287],[14.20759,46.07085],[14.21009,46.0597],[14.20121,46.05327],[14.20107,46.0532],[14.20149,46.04964],[14.19878,46.04338],[14.18996,46.03774],[14.18602,46.037],[14.18546,46.03269],[14.17997,46.03043],[14.17441,46.02737],[14.17537,46.02439],[14.16934,46.01943],[14.15755,46.02123],[14.1571,46.01621],[14.15134,46.01629],[14.14834,46.01408],[14.14776,46.00903],[14.14011,46.00466],[14.14538,46.00208],[14.13999,45.9974],[14.14496,45.99353],[14.13644,45.99259],[14.13457,45.98804],[14.12906,45.9804],[14.12522,45.98017],[14.11354,45.97947],[14.1128,45.97646],[14.10715,45.97248],[14.11022,45.96595],[14.11808,45.96706],[14.12017,45.95141],[14.11239,45.94767],[14.11155,45.94327],[14.11023,45.93626],[14.10162,45.93222],[14.09794,45.9305],[14.10162,45.92205],[14.10192,45.91823],[14.10259,45.90977],[14.12092,45.89619],[14.12405,45.87855],[14.12522,45.87664],[14.12958,45.8695],[14.13298,45.87265],[14.14911,45.87668],[14.15744,45.87238],[14.17449,45.87413],[14.18967,45.87852],[14.2004,45.87435],[14.20728,45.8688],[14.21508,45.8692],[14.22038,45.86677],[14.22406,45.86332],[14.22237,45.85899],[14.2313,45.8583],[14.23259,45.85911],[14.24361,45.85947],[14.24126,45.85563],[14.25087,45.85],[14.26095,45.85644],[14.26015,45.8516],[14.27141,45.85249],[14.27862,45.847],[14.30206,45.88239],[14.30049,45.88682],[14.31205,45.89279],[14.31876,45.89366],[14.32766,45.8913],[14.3412,45.87999],[14.35075,45.88445],[14.35682,45.87129],[14.36575,45.87056],[14.37249,45.87759],[14.39094,45.86482],[14.39249,45.85981],[14.39967,45.85711],[14.4043,45.86447],[14.40942,45.87221],[14.41896,45.87156],[14.43243,45.85929],[14.44138,45.86113],[14.4571,45.87187],[14.46275,45.87179],[14.46692,45.86883],[14.49072,45.88226],[14.4908,45.88228],[14.49967,45.87541],[14.50307,45.8679],[14.50195,45.86093],[14.49629,45.85906],[14.49781,45.85166],[14.50607,45.84536],[14.50566,45.84227],[14.50534,45.83973],[14.52291,45.82795],[14.52524,45.82319],[14.52806,45.82181],[14.53079,45.81462],[14.54204,45.81422],[14.54388,45.81415],[14.54559,45.81377],[14.54692,45.8134],[14.54907,45.8113],[14.54958,45.81061],[14.55003,45.80217],[14.55031,45.80171],[14.55371,45.7984],[14.56109,45.79622],[14.56481,45.79146],[14.56719,45.79472],[14.57268,45.79476],[14.58538,45.79394],[14.59431,45.79463],[14.5949,45.80128],[14.6031,45.80026],[14.60648,45.80006],[14.61365,45.80349],[14.62346,45.80187],[14.63163,45.80092],[14.63236,45.7998],[14.63626,45.80349],[14.63883,45.80229],[14.64147,45.80205],[14.64854,45.80139],[14.65627,45.80561],[14.65972,45.8057],[14.66122,45.80923],[14.66584,45.80865],[14.66864,45.81194],[14.67336,45.81576],[14.67821,45.82059],[14.68818,45.81904],[14.69299,45.81823],[14.70017,45.81152],[14.70776,45.80416],[14.71065,45.80235],[14.7327,45.78849],[14.73712,45.78682],[14.74282,45.78409],[14.74769,45.77565],[14.75081,45.77311],[14.75163,45.7725],[14.75797,45.76764],[14.76465,45.76293],[14.76623,45.76183],[14.76729,45.7594],[14.78782,45.74659],[14.79178,45.74426],[14.80073,45.73957],[14.81922,45.7295],[14.82023,45.72887],[14.82384,45.72658],[14.83716,45.73884],[14.83876,45.74031],[14.84211,45.7424],[14.83716,45.74559],[14.83219,45.7488],[14.83174,45.7509],[14.83124,45.75328],[14.82648,45.75622],[14.82023,45.75803],[14.8094,45.76118],[14.79977,45.77683],[14.79961,45.78719],[14.80456,45.79319],[14.80483,45.7984],[14.81221,45.79982],[14.82023,45.80041],[14.83675,45.79582],[14.85032,45.79624],[14.85896,45.8029],[14.8581,45.80452],[14.85722,45.81269],[14.85784,45.83108],[14.8578,45.83402],[14.85252,45.83495],[14.84857,45.83974],[14.85221,45.84426],[14.84585,45.84641],[14.84346,45.85604],[14.84585,45.85697],[14.8598,45.8562],[14.86604,45.85659],[14.87076,45.85584],[14.87935,45.85537],[14.88012,45.85504],[14.8797,45.8584],[14.8813,45.85907],[14.87903,45.85981],[14.88216,45.86152],[14.88211,45.86493],[14.87609,45.87012],[14.87569,45.87187],[14.872,45.87319],[14.87112,45.87468],[14.87271,45.87737],[14.86091,45.88561],[14.86044,45.88595],[14.86727,45.89014],[14.87492,45.89742],[14.87627,45.90259],[14.88201,45.90467],[14.87999,45.91377],[14.87804,45.91823],[14.87928,45.92409],[14.87904,45.92424],[14.8784,45.92804],[14.88436,45.93191],[14.88603,45.93667],[14.88357,45.93846],[14.8825,45.94313],[14.88357,45.94606],[14.88668,45.94596],[14.89146,45.94528],[14.90239,45.94771],[14.90267,45.94511],[14.90828,45.94565],[14.9108,45.95326],[14.91664,45.95529],[14.92487,45.96315],[14.92621,45.96388],[14.93319,45.96421],[14.93855,45.96372],[14.93855,45.97099],[14.93887,45.97431],[14.94857,45.97861],[14.94769,45.98432],[14.94778,45.98451],[14.94231,45.98555],[14.94224,45.98554],[14.93126,45.98462],[14.9255,45.98518],[14.92401,45.9926],[14.92898,45.99698],[14.92822,46.00392],[14.92661,46.00602],[14.92165,46.00612],[14.92313,46.01063],[14.92397,46.01237],[14.92701,46.01976],[14.92217,46.03319],[14.91894,46.03418],[14.92347,46.04008],[14.92516,46.04236],[14.92466,46.04378],[14.91961,46.04565],[14.91469,46.0463],[14.90833,46.05196],[14.90492,46.0543],[14.90205,46.05616],[14.89664,46.05511],[14.89345,46.06299],[14.88595,46.06278],[14.86497,46.07106],[14.87122,46.06149],[14.86923,46.0562],[14.8637,46.05617],[14.85567,46.05281],[14.85266,46.05322],[14.84753,46.05306],[14.84707,46.05356],[14.83716,46.05024],[14.8314,46.0483],[14.82562,46.04862],[14.81911,46.05337],[14.80947,46.05434],[14.80514,46.05164],[14.80732,46.04826],[14.79283,46.04454],[14.784,46.05073],[14.77114,46.05248],[14.76592,46.05501],[14.76402,46.05667],[14.76592,46.05684],[14.76799,46.05735],[14.76592,46.05857],[14.7533,46.06627],[14.74605,46.06798],[14.74595,46.06812],[14.72758,46.06566],[14.72042,46.06784],[14.72228,46.07245],[14.71176,46.07793],[14.71527,46.08265],[14.7161,46.08418],[14.74786,46.08875],[14.75314,46.09428],[14.75253,46.09544],[14.75179,46.09778],[14.75897,46.09955],[14.7623,46.10524],[14.76592,46.10566],[14.76832,46.10705],[14.77202,46.10519],[14.78011,46.10919],[14.78329,46.10789],[14.79315,46.10719],[14.79197,46.11248],[14.79405,46.11381],[14.7963,46.11507],[14.80398,46.11329],[14.80308,46.11578],[14.79736,46.12282],[14.81091,46.12815],[14.81908,46.12759],[14.82353,46.13074],[14.82655,46.13358],[14.83389,46.13588],[14.83667,46.13923],[14.82935,46.14141],[14.83716,46.14133],[14.83907,46.14132],[14.84237,46.14473],[14.84155,46.14757],[14.83716,46.149],[14.83513,46.14966],[14.83105,46.15679],[14.8267,46.15886],[14.82646,46.16415],[14.81569,46.16687],[14.81387,46.1705],[14.82756,46.16929],[14.83716,46.16944],[14.84309,46.16953],[14.85653,46.17139],[14.86044,46.17384],[14.86885,46.17701],[14.87914,46.17687],[14.88744,46.17413],[14.89091,46.17598],[14.88948,46.1804],[14.89581,46.18271],[14.90035,46.18608],[14.90124,46.18718],[14.90061,46.19326],[14.9026,46.19586],[14.89824,46.2054],[14.90876,46.20757],[14.9087,46.20767],[14.91013,46.21303],[14.91982,46.21364],[14.92822,46.21691],[14.91308,46.21948],[14.90721,46.22939],[14.89955,46.22939],[14.89397,46.23326],[14.88581,46.23357],[14.88513,46.23637],[14.88394,46.23761],[14.87256,46.24122],[14.86992,46.24174],[14.86782,46.24235],[14.86457,46.2439],[14.86042,46.24546],[14.85959,46.24665],[14.85412,46.25039],[14.83716,46.25232],[14.82466,46.25374],[14.81944,46.2537],[14.81444,46.25337],[14.80447,46.25545],[14.79125,46.25229],[14.7742,46.25021],[14.76592,46.25301],[14.75449,46.25098],[14.75139,46.25224],[14.74773,46.25426],[14.7451,46.25532],[14.73896,46.25523],[14.73331,46.25658],[14.71422,46.25743],[14.71065,46.25772],[14.70403,46.25827],[14.70228,46.26052],[14.69561,46.26637],[14.70499,46.27815],[14.70488,46.28455],[14.70464,46.28483],[14.68266,46.28163],[14.67431,46.28447],[14.67692,46.30212],[14.67299,46.31147],[14.66573,46.31384],[14.66524,46.31427],[14.6577,46.31471],[14.64147,46.32797],[14.63826,46.33059],[14.63787,46.36423],[14.61513,46.35798],[14.59462,46.35967],[14.58753,46.35585],[14.56719,46.36665]]]]},"properties":{"code":"SI041","nom":"Osrednjeslovenska","country":"SI"}},{"type":"Feature","geometry":{"type":"MultiPolygon","coordinates":[[[[13.75549,46.51772],[13.73349,46.51867],[13.72214,46.52316],[13.71419,46.5227],[13.71688,46.51326],[13.71539,46.50696],[13.70491,46.50189],[13.70281,46.49873],[13.7038,46.48527],[13.70842,46.48044],[13.69416,46.4676],[13.69813,46.45599],[13.69277,46.4432],[13.68403,46.43747],[13.67836,46.42419],[13.68022,46.42123],[13.68297,46.42027],[13.70623,46.42649],[13.72214,46.43325],[13.72693,46.43596],[13.73875,46.4384],[13.75612,46.42519],[13.77852,46.42233],[13.80143,46.41065],[13.80753,46.41065],[13.81303,46.40797],[13.81191,46.40229],[13.81607,46.38734],[13.82475,46.38147],[13.83423,46.38172],[13.83644,46.37835],[13.82607,46.36422],[13.81511,46.35962],[13.80751,46.35945],[13.80217,46.35619],[13.7909,46.35615],[13.76749,46.34405],[13.75475,46.34157],[13.7461,46.33749],[13.74158,46.33181],[13.74561,46.31205],[13.72482,46.29679],[13.73119,46.29263],[13.73038,46.28576],[13.73504,46.28161],[13.73721,46.27719],[13.74682,46.27305],[13.7569,46.26069],[13.77183,46.25978],[13.78309,46.25205],[13.81251,46.23841],[13.83434,46.23828],[13.85311,46.23254],[13.85782,46.2288],[13.86497,46.22779],[13.86523,46.2277],[13.87589,46.22593],[13.88435,46.22863],[13.89713,46.22647],[13.90301,46.23027],[13.93151,46.23114],[13.93324,46.23065],[13.94708,46.23151],[13.9547,46.23646],[13.96758,46.2337],[13.9784,46.23869],[13.98015,46.23779],[13.99344,46.23693],[14.00602,46.22937],[14.007,46.21738],[14.00463,46.20995],[13.99534,46.20741],[13.99238,46.20449],[13.98874,46.19444],[13.98822,46.19295],[13.98946,46.19122],[13.9864,46.18394],[13.9871,46.17712],[13.99899,46.1698],[14.01086,46.17079],[14.01693,46.17186],[14.02691,46.16967],[14.03955,46.17141],[14.07164,46.16561],[14.07383,46.15649],[14.06563,46.14717],[14.05733,46.13956],[14.05835,46.13244],[14.05202,46.12949],[14.04788,46.12387],[14.04285,46.11293],[14.03083,46.10728],[14.02247,46.09875],[14.02236,46.09862],[14.0184,46.0884],[14.01867,46.08767],[14.01922,46.08409],[14.02367,46.08014],[14.02348,46.07717],[14.02725,46.07302],[14.02934,46.07235],[14.03045,46.07195],[14.05465,46.0617],[14.07154,46.05152],[14.07383,46.05114],[14.07689,46.05028],[14.07634,46.04721],[14.08092,46.04115],[14.08112,46.0392],[14.07861,46.03954],[14.08537,46.03666],[14.07928,46.02908],[14.07876,46.02678],[14.08595,46.03193],[14.08856,46.03165],[14.09551,46.03543],[14.10228,46.03358],[14.09941,46.03202],[14.10162,46.02994],[14.10432,46.02739],[14.10299,46.0221],[14.10789,46.01714],[14.10473,46.01271],[14.10471,46.01132],[14.11225,46.01193],[14.12138,46.00603],[14.12112,46.00522],[14.12522,46.00514],[14.1374,46.00491],[14.14011,46.00466],[14.14776,46.00903],[14.14834,46.01408],[14.15134,46.01629],[14.1571,46.01621],[14.15755,46.02123],[14.16934,46.01943],[14.17537,46.02439],[14.17441,46.02737],[14.17997,46.03043],[14.18546,46.03269],[14.18602,46.037],[14.18996,46.03774],[14.19878,46.04338],[14.20149,46.04964],[14.20107,46.0532],[14.20121,46.05327],[14.21009,46.0597],[14.20759,46.07085],[14.2091,46.07287],[14.20795,46.07758],[14.21302,46.08601],[14.21383,46.08642],[14.22302,46.0921],[14.22543,46.09656],[14.24711,46.09761],[14.25021,46.09961],[14.25622,46.1065],[14.26248,46.10759],[14.27651,46.10592],[14.29817,46.10141],[14.31146,46.10216],[14.31746,46.09794],[14.32643,46.09631],[14.33148,46.09744],[14.3358,46.10528],[14.33519,46.11211],[14.33164,46.11423],[14.32749,46.11851],[14.32879,46.12915],[14.33779,46.13431],[14.34523,46.13532],[14.34549,46.13559],[14.35455,46.14564],[14.36352,46.14526],[14.36462,46.14745],[14.36303,46.14838],[14.36376,46.14994],[14.36315,46.15132],[14.36394,46.15256],[14.3688,46.15106],[14.37118,46.15168],[14.37414,46.15093],[14.37409,46.14774],[14.37846,46.14495],[14.37947,46.14715],[14.38095,46.14911],[14.3827,46.15792],[14.39494,46.15782],[14.39537,46.15781],[14.42248,46.16753],[14.41693,46.17132],[14.41089,46.1791],[14.41056,46.17955],[14.40538,46.19003],[14.41592,46.18942],[14.42488,46.19152],[14.43156,46.19039],[14.4326,46.18826],[14.44136,46.18893],[14.45835,46.19171],[14.45914,46.19307],[14.46918,46.19648],[14.46044,46.20177],[14.46508,46.20468],[14.46989,46.20581],[14.47458,46.20315],[14.49721,46.2024],[14.50056,46.20047],[14.50811,46.21116],[14.51684,46.21713],[14.52356,46.21791],[14.52855,46.2181],[14.54065,46.22813],[14.54152,46.23124],[14.55401,46.24248],[14.56002,46.24476],[14.56497,46.24473],[14.56605,46.2484],[14.56675,46.2547],[14.57175,46.25694],[14.56969,46.26091],[14.56719,46.26243],[14.56373,46.26454],[14.56321,46.27267],[14.54873,46.27541],[14.55327,46.28266],[14.54697,46.29049],[14.53718,46.30064],[14.54276,46.30934],[14.553,46.31496],[14.55445,46.31868],[14.55225,46.32178],[14.54231,46.32516],[14.5386,46.32869],[14.53813,46.3317],[14.54671,46.34083],[14.54918,46.34705],[14.54592,46.3521],[14.53546,46.3574],[14.54059,46.3624],[14.56046,46.36388],[14.56521,46.3677],[14.56518,46.37245],[14.55701,46.37714],[14.5532,46.3921],[14.54263,46.40347],[14.53934,46.41168],[14.53074,46.41591],[14.52109,46.42642],[14.50578,46.42394],[14.49132,46.41351],[14.47957,46.41414],[14.47698,46.41858],[14.46859,46.42137],[14.4472,46.42197],[14.44209,46.42374],[14.44116,46.428],[14.43099,46.43538],[14.43174,46.43862],[14.43805,46.44128],[14.4345,46.44294],[14.4291,46.44651],[14.4111,46.44548],[14.39697,46.4438],[14.38241,46.43939],[14.3497,46.43717],[14.32755,46.43124],[14.30885,46.43085],[14.30079,46.43821],[14.2832,46.4435],[14.26507,46.43872],[14.25719,46.43867],[14.23719,46.43224],[14.22861,46.43512],[14.21938,46.4428],[14.20592,46.43965],[14.1911,46.44393],[14.17648,46.43396],[14.17399,46.434],[14.16351,46.4337],[14.1534,46.43678],[14.15094,46.44244],[14.13639,46.44988],[14.13508,46.45803],[14.12777,46.46824],[14.12522,46.47106],[14.12014,46.47667],[14.11143,46.4788],[14.10162,46.47922],[14.09927,46.48006],[14.09434,46.48467],[14.08595,46.48571],[14.07383,46.48721],[14.05227,46.49225],[14.03894,46.49242],[14.02139,46.48228],[14.00652,46.48136],[13.99812,46.48658],[13.99057,46.48844],[13.98791,46.49269],[13.97564,46.49827],[13.97532,46.49813],[13.96823,46.49765],[13.95224,46.50707],[13.94194,46.51157],[13.92778,46.51438],[13.92204,46.51865],[13.91256,46.52072],[13.90792,46.51984],[13.90113,46.51897],[13.88261,46.52222],[13.878,46.51941],[13.85406,46.51397],[13.83163,46.51829],[13.81254,46.50642],[13.79894,46.50654],[13.79472,46.50614],[13.78409,46.51109],[13.77714,46.51708],[13.76587,46.51496],[13.75549,46.51772]]]]},"properties":{"code":"SI042","nom":"Gorenjska","country":"SI"}},{"type":"Feature","geometry":{"type":"MultiPolygon","coordinates":[[[[15.09941,46.01896],[15.08255,46.02207],[15.08053,46.02003],[15.08247,46.01254],[15.06851,46.01612],[15.05734,46.01282],[15.05712,46.01063],[15.0548,46.0044],[15.0528,46.0044],[15.0523,46.0044],[15.02691,46.00494],[15.02181,45.99876],[15.02384,45.99858],[15.02586,45.99801],[15.02704,45.99561],[15.02858,45.99375],[15.03267,45.98743],[15.03135,45.97889],[15.02482,45.97932],[15.01441,45.97308],[15.01422,45.97265],[15.0185,45.96774],[15.01317,45.96406],[15.008,45.96464],[14.99831,45.96303],[14.99626,45.9645],[14.99314,45.96574],[14.98898,45.96762],[14.98545,45.96959],[14.96927,45.96955],[14.96884,45.97087],[14.96437,45.97527],[14.95733,45.97738],[14.95477,45.97802],[14.94857,45.97861],[14.93887,45.97431],[14.93855,45.97099],[14.93855,45.96372],[14.93319,45.96421],[14.92621,45.96388],[14.92487,45.96315],[14.91664,45.95529],[14.9108,45.95326],[14.90828,45.94565],[14.90267,45.94511],[14.90239,45.94771],[14.89146,45.94528],[14.88668,45.94596],[14.88357,45.94606],[14.8825,45.94313],[14.88357,45.93846],[14.88603,45.93667],[14.88436,45.93191],[14.8784,45.92804],[14.87904,45.92424],[14.87928,45.92409],[14.87804,45.91823],[14.87999,45.91377],[14.88201,45.90467],[14.87627,45.90259],[14.87492,45.89742],[14.86727,45.89014],[14.86044,45.88595],[14.86091,45.88561],[14.87271,45.87737],[14.87112,45.87468],[14.872,45.87319],[14.87569,45.87187],[14.87609,45.87012],[14.88211,45.86493],[14.88216,45.86152],[14.87903,45.85981],[14.8813,45.85907],[14.8797,45.8584],[14.88012,45.85504],[14.87935,45.85537],[14.87076,45.85584],[14.86604,45.85659],[14.8598,45.8562],[14.84585,45.85697],[14.84346,45.85604],[14.84585,45.84641],[14.85221,45.84426],[14.84857,45.83974],[14.85252,45.83495],[14.8578,45.83402],[14.85784,45.83108],[14.85722,45.81269],[14.8581,45.80452],[14.85896,45.8029],[14.85032,45.79624],[14.83675,45.79582],[14.82023,45.80041],[14.81221,45.79982],[14.80483,45.7984],[14.80456,45.79319],[14.79961,45.78719],[14.79977,45.77683],[14.8094,45.76118],[14.82023,45.75803],[14.82648,45.75622],[14.83124,45.75328],[14.83174,45.7509],[14.83219,45.7488],[14.83716,45.74559],[14.84211,45.7424],[14.83876,45.74031],[14.83716,45.73884],[14.82384,45.72658],[14.82023,45.72887],[14.81922,45.7295],[14.80073,45.73957],[14.79178,45.74426],[14.78782,45.74659],[14.76729,45.7594],[14.76623,45.76183],[14.76465,45.76293],[14.75797,45.76764],[14.75163,45.7725],[14.75081,45.77311],[14.74769,45.77565],[14.74282,45.78409],[14.73712,45.78682],[14.7327,45.78849],[14.71065,45.80235],[14.70776,45.80416],[14.70017,45.81152],[14.69299,45.81823],[14.68818,45.81904],[14.67821,45.82059],[14.67336,45.81576],[14.66864,45.81194],[14.66584,45.80865],[14.66122,45.80923],[14.65972,45.8057],[14.65627,45.80561],[14.64854,45.80139],[14.64147,45.80205],[14.63883,45.80229],[14.63626,45.80349],[14.63236,45.7998],[14.63163,45.80092],[14.62346,45.80187],[14.61365,45.80349],[14.60648,45.80006],[14.6031,45.80026],[14.5949,45.80128],[14.59431,45.79463],[14.58538,45.79394],[14.57268,45.79476],[14.56719,45.79472],[14.56481,45.79146],[14.56251,45.78876],[14.55781,45.78839],[14.5481,45.78788],[14.54599,45.78553],[14.55367,45.77995],[14.55426,45.77866],[14.55758,45.77903],[14.5684,45.77863],[14.57069,45.76668],[14.56698,45.76076],[14.56666,45.76057],[14.5657,45.7542],[14.56719,45.7523],[14.56829,45.7509],[14.57868,45.73762],[14.56719,45.73532],[14.5599,45.73387],[14.54689,45.7431],[14.5375,45.73932],[14.54232,45.72499],[14.54804,45.71645],[14.55166,45.71147],[14.55294,45.70889],[14.55363,45.70678],[14.55474,45.70315],[14.5554,45.69982],[14.55653,45.69826],[14.55768,45.69715],[14.5612,45.67486],[14.56719,45.67356],[14.57001,45.67294],[14.57524,45.67156],[14.58221,45.66518],[14.59834,45.6679],[14.6056,45.66438],[14.60972,45.65868],[14.60181,45.64326],[14.60162,45.63425],[14.59671,45.62756],[14.61198,45.61754],[14.61981,45.61554],[14.62698,45.61341],[14.63119,45.60545],[14.64147,45.60106],[14.64387,45.60004],[14.65151,45.59232],[14.65754,45.59116],[14.6772,45.58911],[14.68901,45.5812],[14.69676,45.56968],[14.70024,45.5627],[14.69477,45.55565],[14.6897,45.55356],[14.68698,45.53696],[14.68699,45.53044],[14.69042,45.52733],[14.69397,45.52749],[14.70035,45.52545],[14.70347,45.53325],[14.71218,45.5338],[14.71932,45.53405],[14.73648,45.52824],[14.74444,45.52101],[14.75475,45.51539],[14.75881,45.51166],[14.76592,45.51192],[14.76927,45.51158],[14.76858,45.50684],[14.77939,45.50664],[14.78552,45.50652],[14.7884,45.50389],[14.78723,45.50091],[14.79594,45.50252],[14.80359,45.49585],[14.79988,45.49085],[14.80259,45.48848],[14.8047,45.48663],[14.80622,45.47842],[14.81547,45.472],[14.8173,45.46156],[14.82023,45.46115],[14.82337,45.46071],[14.83716,45.46189],[14.84735,45.46276],[14.85645,45.46461],[14.86403,45.4663],[14.87026,45.46732],[14.87644,45.47233],[14.87841,45.47242],[14.88053,45.47251],[14.88955,45.47573],[14.89754,45.47604],[14.90512,45.47657],[14.91175,45.48158],[14.91148,45.48429],[14.91049,45.48616],[14.91033,45.48802],[14.91422,45.49358],[14.91249,45.49779],[14.91193,45.49848],[14.91177,45.50125],[14.91587,45.50439],[14.91427,45.50847],[14.91318,45.51251],[14.91351,45.51447],[14.91404,45.51881],[14.92093,45.52741],[14.9335,45.52824],[14.96256,45.51113],[14.96879,45.50895],[14.97409,45.50342],[14.9771,45.50091],[14.97944,45.49933],[14.98692,45.49667],[14.99105,45.49612],[14.99508,45.49657],[14.99893,45.49621],[15.01219,45.49715],[15.02246,45.491],[15.0243,45.48848],[15.02559,45.48671],[15.031,45.48612],[15.0376,45.48667],[15.04329,45.48848],[15.04978,45.49309],[15.05733,45.49231],[15.05814,45.49055],[15.0599,45.48848],[15.06652,45.48797],[15.07212,45.48695],[15.078,45.48274],[15.08533,45.48234],[15.08565,45.48003],[15.08455,45.47397],[15.08482,45.47145],[15.08516,45.46834],[15.09187,45.46445],[15.09232,45.46429],[15.102,45.4628],[15.10713,45.45907],[15.11314,45.45469],[15.1209,45.44914],[15.1236,45.44706],[15.13276,45.44542],[15.1397,45.44281],[15.14117,45.44063],[15.1474,45.43136],[15.15752,45.42489],[15.17758,45.42193],[15.18661,45.42668],[15.1906,45.43486],[15.19366,45.43606],[15.19657,45.43425],[15.20107,45.42793],[15.20658,45.42574],[15.22644,45.42709],[15.22853,45.43191],[15.23051,45.43863],[15.23832,45.4477],[15.23991,45.44914],[15.25054,45.45645],[15.25675,45.45836],[15.25906,45.45907],[15.27276,45.46532],[15.286,45.46282],[15.28973,45.46184],[15.2926,45.46109],[15.29744,45.4592],[15.30223,45.45859],[15.30619,45.45809],[15.31837,45.45615],[15.32222,45.45482],[15.32893,45.45295],[15.33853,45.45682],[15.34649,45.45838],[15.3558,45.4721],[15.36086,45.47753],[15.3819,45.48551],[15.38454,45.48848],[15.38188,45.49004],[15.37043,45.49687],[15.36232,45.49547],[15.3467,45.50437],[15.33173,45.51079],[15.32789,45.51391],[15.32393,45.52083],[15.31612,45.52247],[15.31328,45.52717],[15.31407,45.53022],[15.31395,45.53176],[15.31259,45.53237],[15.30852,45.53192],[15.3058,45.53258],[15.30431,45.5341],[15.30108,45.53944],[15.30143,45.54249],[15.29998,45.54528],[15.29907,45.54701],[15.29951,45.5534],[15.29902,45.5604],[15.29991,45.57747],[15.29742,45.58569],[15.28093,45.59924],[15.27746,45.60317],[15.27705,45.60446],[15.28149,45.60789],[15.28577,45.60965],[15.29432,45.61253],[15.30619,45.61293],[15.30773,45.61502],[15.30619,45.61877],[15.30228,45.62226],[15.30164,45.62348],[15.3026,45.62676],[15.30147,45.62848],[15.30619,45.63221],[15.30843,45.63259],[15.31589,45.63387],[15.32124,45.63424],[15.34013,45.6331],[15.34886,45.63546],[15.35134,45.64004],[15.34221,45.64474],[15.34498,45.64607],[15.35102,45.64672],[15.35543,45.64601],[15.36255,45.64452],[15.37041,45.64588],[15.37408,45.64172],[15.3881,45.63793],[15.39878,45.64165],[15.4064,45.64786],[15.40498,45.65011],[15.39949,45.65081],[15.38718,45.66973],[15.37931,45.67538],[15.37029,45.68471],[15.3689,45.69036],[15.36476,45.68796],[15.36341,45.68365],[15.36269,45.68133],[15.3629,45.67806],[15.35988,45.67567],[15.35512,45.67644],[15.35127,45.6711],[15.34864,45.67207],[15.35114,45.68157],[15.35613,45.68548],[15.36009,45.68585],[15.36444,45.69437],[15.36344,45.69808],[15.35804,45.6991],[15.35938,45.7098],[15.35515,45.71401],[15.34032,45.71418],[15.33185,45.70145],[15.31895,45.69437],[15.32661,45.67566],[15.32278,45.67386],[15.31962,45.67426],[15.30619,45.68849],[15.30619,45.68932],[15.30854,45.69079],[15.31034,45.69706],[15.30872,45.69817],[15.30619,45.69714],[15.30248,45.69866],[15.29891,45.6956],[15.30026,45.69356],[15.30569,45.6934],[15.29603,45.68934],[15.2903,45.69171],[15.2881,45.69246],[15.28848,45.70262],[15.28243,45.71017],[15.27413,45.70685],[15.26954,45.70722],[15.26663,45.71666],[15.25746,45.71965],[15.25965,45.72609],[15.26505,45.72907],[15.27555,45.73943],[15.28841,45.74513],[15.29573,45.7509],[15.29901,45.75348],[15.30619,45.75506],[15.3169,45.75973],[15.32383,45.76024],[15.32758,45.76187],[15.33129,45.76285],[15.34882,45.77092],[15.36682,45.7764],[15.37488,45.78022],[15.38326,45.78014],[15.39753,45.79112],[15.39945,45.79207],[15.40442,45.79272],[15.40053,45.80513],[15.38959,45.81315],[15.38071,45.81386],[15.37589,45.82333],[15.37584,45.82632],[15.3763,45.8267],[15.37658,45.83149],[15.37971,45.8319],[15.38311,45.83338],[15.38048,45.84098],[15.3763,45.84794],[15.36862,45.85074],[15.36755,45.85266],[15.37158,45.85528],[15.37661,45.85362],[15.3822,45.85819],[15.39523,45.86102],[15.39781,45.86468],[15.38324,45.86522],[15.38084,45.87356],[15.37806,45.87404],[15.37911,45.88439],[15.36958,45.88717],[15.3689,45.88953],[15.35643,45.8894],[15.34882,45.88704],[15.33848,45.88897],[15.33492,45.89152],[15.33473,45.89311],[15.33862,45.89418],[15.3441,45.90054],[15.34405,45.9091],[15.34385,45.91009],[15.34305,45.91823],[15.34201,45.92887],[15.3474,45.93316],[15.35123,45.9376],[15.33998,45.94327],[15.3331,45.94673],[15.33246,45.95504],[15.33209,45.9597],[15.32689,45.95712],[15.30447,45.96079],[15.30219,45.95964],[15.30558,45.954],[15.30415,45.95039],[15.28876,45.95666],[15.2886,45.95716],[15.27911,45.96005],[15.27811,45.9586],[15.27578,45.95713],[15.27215,45.95066],[15.27981,45.94327],[15.28124,45.93842],[15.27343,45.93535],[15.26883,45.9362],[15.26437,45.94327],[15.2623,45.94654],[15.25402,45.95153],[15.25253,45.95082],[15.25122,45.94971],[15.24909,45.94874],[15.24673,45.94863],[15.24719,45.94327],[15.24642,45.94186],[15.23946,45.93903],[15.23523,45.93273],[15.23139,45.93738],[15.22255,45.93491],[15.22525,45.92856],[15.21702,45.92904],[15.20892,45.93301],[15.2018,45.9332],[15.19466,45.93611],[15.1939,45.93761],[15.192,45.94015],[15.18679,45.9404],[15.1845,45.94327],[15.18219,45.94615],[15.17157,45.95147],[15.17195,45.95241],[15.16671,45.95556],[15.16283,45.95756],[15.16099,45.96443],[15.16176,45.96575],[15.1575,45.96594],[15.15418,45.96928],[15.14826,45.97813],[15.15158,45.98402],[15.15996,45.98521],[15.16346,45.99464],[15.16267,45.99752],[15.16606,45.99847],[15.15991,45.99872],[15.15402,45.99628],[15.14963,45.99728],[15.14784,45.99237],[15.14117,45.99123],[15.13587,45.99032],[15.13171,45.98295],[15.13066,45.98298],[15.12798,45.99641],[15.12763,46.00006],[15.12282,46.00214],[15.1146,46.00389],[15.10973,46.00574],[15.10713,46.00909],[15.10594,46.01063],[15.09941,46.01896]]]]},"properties":{"code":"SI037","nom":"Jugovzhodna Slovenija","country":"SI"}},{"type":"Feature","geometry":{"type":"MultiPolygon","coordinates":[[[[15.31414,46.47963],[15.31052,46.47855],[15.31226,46.46893],[15.3275,46.4559],[15.32063,46.44935],[15.295,46.44867],[15.2817,46.44469],[15.26995,46.44444],[15.26612,46.44242],[15.26434,46.43674],[15.25622,46.42754],[15.25467,46.41955],[15.25284,46.41806],[15.25362,46.4135],[15.2403,46.40058],[15.23171,46.39614],[15.2342,46.39042],[15.2277,46.39003],[15.22009,46.38911],[15.1877,46.38658],[15.17153,46.39204],[15.1714,46.39559],[15.17936,46.40298],[15.17835,46.41071],[15.17069,46.40882],[15.16547,46.41007],[15.15781,46.40714],[15.15682,46.40207],[15.14893,46.40339],[15.14511,46.40735],[15.14117,46.40706],[15.13079,46.41027],[15.12474,46.41413],[15.12272,46.41887],[15.1182,46.42175],[15.11754,46.42688],[15.10713,46.42877],[15.10364,46.42941],[15.09257,46.43428],[15.0881,46.43138],[15.08906,46.42312],[15.08793,46.42345],[15.07904,46.42874],[15.06316,46.43378],[15.04376,46.43562],[15.01651,46.4402],[15.00597,46.4386],[14.97811,46.45108],[14.95428,46.45561],[14.96142,46.44459],[14.94644,46.44033],[14.94364,46.43374],[14.91345,46.43295],[14.90623,46.42637],[14.89566,46.4205],[14.88161,46.41997],[14.85138,46.41889],[14.84574,46.4179],[14.83716,46.42226],[14.83441,46.42366],[14.81802,46.42341],[14.80035,46.42297],[14.79169,46.42534],[14.78654,46.42927],[14.77944,46.42763],[14.77267,46.43139],[14.76592,46.43065],[14.76259,46.42282],[14.7529,46.41941],[14.73936,46.44014],[14.73241,46.44442],[14.72426,46.44544],[14.72076,46.44928],[14.71065,46.44896],[14.68918,46.44827],[14.67458,46.45069],[14.66761,46.45004],[14.65978,46.44485],[14.64392,46.44282],[14.64147,46.44223],[14.62954,46.43935],[14.61371,46.43965],[14.5975,46.43666],[14.5873,46.42955],[14.58357,46.41753],[14.58908,46.41179],[14.58694,46.39505],[14.57973,46.3846],[14.57887,46.37821],[14.56719,46.37506],[14.56518,46.37245],[14.56521,46.3677],[14.56719,46.36665],[14.58753,46.35585],[14.59462,46.35967],[14.61513,46.35798],[14.63787,46.36423],[14.63826,46.33059],[14.64147,46.32797],[14.6577,46.31471],[14.66524,46.31427],[14.66573,46.31384],[14.67299,46.31147],[14.67692,46.30212],[14.67431,46.28447],[14.68266,46.28163],[14.70464,46.28483],[14.70488,46.28455],[14.70499,46.27815],[14.69561,46.26637],[14.70228,46.26052],[14.70403,46.25827],[14.71065,46.25772],[14.71422,46.25743],[14.73331,46.25658],[14.73896,46.25523],[14.7451,46.25532],[14.74773,46.25426],[14.75139,46.25224],[14.75449,46.25098],[14.76592,46.25301],[14.7742,46.25021],[14.79125,46.25229],[14.80447,46.25545],[14.81444,46.25337],[14.81944,46.2537],[14.82466,46.25374],[14.83716,46.25232],[14.85412,46.25039],[14.85959,46.24665],[14.86042,46.24546],[14.86457,46.2439],[14.86782,46.24235],[14.86992,46.24174],[14.87256,46.24122],[14.88394,46.23761],[14.88513,46.23637],[14.88581,46.23357],[14.89397,46.23326],[14.89955,46.22939],[14.90721,46.22939],[14.91308,46.21948],[14.92822,46.21691],[14.91982,46.21364],[14.91013,46.21303],[14.9087,46.20767],[14.90876,46.20757],[14.90907,46.20211],[14.90949,46.19832],[14.92012,46.19549],[14.92516,46.18959],[14.92504,46.18896],[14.92839,46.1868],[14.93015,46.18613],[14.94319,46.18635],[14.94511,46.1864],[14.95086,46.18829],[14.95442,46.18926],[14.96393,46.19258],[14.96875,46.19399],[14.9701,46.1937],[14.97462,46.19453],[14.98098,46.197],[14.9885,46.19476],[15.00483,46.19572],[15.0099,46.19676],[15.01213,46.19534],[15.01126,46.19162],[15.01464,46.1899],[15.02382,46.19242],[15.02889,46.19119],[15.03815,46.19289],[15.04382,46.19756],[15.04864,46.18962],[15.07511,46.18349],[15.09876,46.19087],[15.10713,46.18766],[15.10713,46.18356],[15.11176,46.18177],[15.12224,46.17386],[15.12282,46.17138],[15.12413,46.16711],[15.12984,46.16567],[15.12665,46.15922],[15.13059,46.15628],[15.13634,46.15643],[15.14117,46.15794],[15.14583,46.1594],[15.15068,46.15235],[15.15766,46.15048],[15.15659,46.14686],[15.15616,46.14345],[15.15737,46.14152],[15.15801,46.14079],[15.1663,46.13873],[15.17538,46.1319],[15.17471,46.12736],[15.18006,46.12446],[15.18203,46.11551],[15.18797,46.11188],[15.18735,46.11],[15.1737,46.10702],[15.17011,46.1],[15.15258,46.1057],[15.13988,46.11247],[15.13864,46.10728],[15.13371,46.10471],[15.14117,46.1012],[15.1498,46.09713],[15.15136,46.09644],[15.15391,46.09449],[15.1549,46.09341],[15.15649,46.09123],[15.17178,46.08348],[15.1712,46.08014],[15.17475,46.07763],[15.18066,46.07881],[15.18277,46.07836],[15.18565,46.08335],[15.19623,46.08535],[15.19874,46.08228],[15.20888,46.08225],[15.21768,46.08709],[15.21946,46.086],[15.22132,46.08447],[15.22369,46.0836],[15.23437,46.07727],[15.24736,46.07735],[15.25613,46.08026],[15.26193,46.08478],[15.26182,46.08871],[15.26314,46.08907],[15.26751,46.08388],[15.26637,46.0751],[15.27378,46.07443],[15.27484,46.07184],[15.27297,46.06009],[15.28261,46.05496],[15.28177,46.06834],[15.29756,46.06829],[15.30519,46.07292],[15.30903,46.07376],[15.31787,46.07498],[15.33388,46.07345],[15.34288,46.07243],[15.35861,46.07419],[15.37067,46.06922],[15.37332,46.07112],[15.37947,46.07336],[15.38562,46.07285],[15.38965,46.06885],[15.39455,46.06774],[15.40824,46.06597],[15.43079,46.06746],[15.44289,46.06993],[15.45326,46.06731],[15.47077,46.07096],[15.47271,46.07172],[15.4792,46.07027],[15.48294,46.06901],[15.49648,46.06153],[15.49845,46.05783],[15.50542,46.05998],[15.51026,46.06431],[15.51632,46.06416],[15.52269,46.06148],[15.53056,46.0487],[15.53224,46.04868],[15.53877,46.0486],[15.54316,46.04145],[15.54164,46.0347],[15.5465,46.02537],[15.54604,46.02007],[15.55741,46.02309],[15.56389,46.02199],[15.56618,46.02287],[15.57395,46.02583],[15.58059,46.02487],[15.5953,46.02639],[15.58889,46.01749],[15.59004,46.01392],[15.58174,46.00516],[15.57679,46.00431],[15.57232,46.00019],[15.57059,45.99819],[15.5783,45.99616],[15.57968,45.99797],[15.58672,46.00019],[15.59156,46.00113],[15.60477,46.00496],[15.6118,46.01144],[15.62398,46.01542],[15.6417,46.02731],[15.6518,46.03063],[15.64947,46.03313],[15.65461,46.03672],[15.64435,46.04051],[15.63423,46.03578],[15.62349,46.03511],[15.61505,46.03876],[15.60698,46.03907],[15.60168,46.05014],[15.59777,46.06873],[15.59931,46.07208],[15.60597,46.07515],[15.61406,46.0714],[15.62726,46.08595],[15.61885,46.09173],[15.62015,46.09216],[15.62462,46.09906],[15.61575,46.09983],[15.61353,46.10405],[15.61343,46.10689],[15.60455,46.11225],[15.6095,46.11972],[15.6071,46.12325],[15.61049,46.12434],[15.61279,46.1331],[15.60954,46.1385],[15.60384,46.14019],[15.59612,46.14636],[15.61333,46.15326],[15.60483,46.16162],[15.60831,46.16763],[15.61747,46.17146],[15.63248,46.17673],[15.6377,46.1826],[15.63597,46.18579],[15.6454,46.18771],[15.64839,46.19241],[15.64631,46.19885],[15.64783,46.20399],[15.64217,46.20768],[15.64197,46.21115],[15.64576,46.21396],[15.64789,46.21673],[15.66301,46.22007],[15.67236,46.2261],[15.67485,46.22712],[15.68331,46.22647],[15.70081,46.22262],[15.72697,46.22241],[15.72799,46.22026],[15.72747,46.21828],[15.73073,46.21677],[15.74017,46.22138],[15.75058,46.22041],[15.75419,46.21738],[15.7522,46.20881],[15.75795,46.20741],[15.76823,46.20956],[15.77511,46.21142],[15.78434,46.21635],[15.78642,46.2174],[15.79394,46.22845],[15.79353,46.23539],[15.80083,46.24296],[15.79148,46.25933],[15.77489,46.25514],[15.76258,46.2544],[15.75849,46.25816],[15.75295,46.26619],[15.74084,46.2624],[15.73195,46.26789],[15.72179,46.27112],[15.71161,46.26797],[15.70131,46.26835],[15.69312,46.26605],[15.69055,46.26925],[15.69386,46.27417],[15.67533,46.27435],[15.67361,46.27493],[15.67348,46.2762],[15.67083,46.27512],[15.66805,46.27453],[15.66601,46.27454],[15.65715,46.27415],[15.65144,46.2761],[15.63579,46.27454],[15.63671,46.2812],[15.63183,46.28451],[15.62512,46.28752],[15.61018,46.28412],[15.59759,46.28958],[15.58739,46.28636],[15.58241,46.28428],[15.56859,46.2872],[15.56618,46.28355],[15.5593,46.27314],[15.55551,46.27725],[15.54737,46.27673],[15.54473,46.27876],[15.55183,46.28248],[15.55321,46.28657],[15.54608,46.28997],[15.55024,46.29689],[15.54894,46.30048],[15.55169,46.30216],[15.54504,46.31021],[15.54528,46.31082],[15.5458,46.31723],[15.54006,46.33351],[15.53917,46.3351],[15.53822,46.34064],[15.5388,46.34636],[15.53535,46.35065],[15.53224,46.34997],[15.5075,46.34453],[15.5017,46.35151],[15.50121,46.35728],[15.49629,46.35972],[15.48702,46.35359],[15.48416,46.35468],[15.48366,46.35641],[15.47774,46.35803],[15.46643,46.35503],[15.46099,46.35624],[15.45322,46.35474],[15.45291,46.357],[15.44555,46.35809],[15.44773,46.36317],[15.44251,46.3659],[15.4321,46.36544],[15.4213,46.37011],[15.42152,46.37492],[15.41121,46.37527],[15.3967,46.38221],[15.41077,46.38372],[15.4137,46.38982],[15.41879,46.39121],[15.40104,46.4021],[15.3992,46.40335],[15.40212,46.40511],[15.41036,46.40479],[15.41186,46.41921],[15.41926,46.42435],[15.41071,46.42745],[15.40804,46.43056],[15.40395,46.43171],[15.39956,46.43739],[15.38872,46.43275],[15.37677,46.43823],[15.3732,46.43801],[15.37216,46.44368],[15.3665,46.44769],[15.35307,46.44661],[15.3419,46.44904],[15.34297,46.45792],[15.33506,46.46516],[15.33381,46.47546],[15.32201,46.47515],[15.31414,46.47963]]]]},"properties":{"code":"SI034","nom":"Savinjska","country":"SI"}},{"type":"Feature","geometry":{"type":"MultiPolygon","coordinates":[[[[14.92839,46.1868],[14.92504,46.18896],[14.92516,46.18959],[14.92012,46.19549],[14.90949,46.19832],[14.90907,46.20211],[14.90876,46.20757],[14.89824,46.2054],[14.9026,46.19586],[14.90061,46.19326],[14.90124,46.18718],[14.90035,46.18608],[14.89581,46.18271],[14.88948,46.1804],[14.89091,46.17598],[14.88744,46.17413],[14.87914,46.17687],[14.86885,46.17701],[14.86044,46.17384],[14.85653,46.17139],[14.84309,46.16953],[14.83716,46.16944],[14.82756,46.16929],[14.81387,46.1705],[14.81569,46.16687],[14.82646,46.16415],[14.8267,46.15886],[14.83105,46.15679],[14.83513,46.14966],[14.83716,46.149],[14.84155,46.14757],[14.84237,46.14473],[14.83907,46.14132],[14.83716,46.14133],[14.82935,46.14141],[14.83667,46.13923],[14.83389,46.13588],[14.82655,46.13358],[14.82353,46.13074],[14.81908,46.12759],[14.81091,46.12815],[14.79736,46.12282],[14.80308,46.11578],[14.80398,46.11329],[14.7963,46.11507],[14.79405,46.11381],[14.79197,46.11248],[14.79315,46.10719],[14.78329,46.10789],[14.78011,46.10919],[14.77202,46.10519],[14.76832,46.10705],[14.76592,46.10566],[14.7623,46.10524],[14.75897,46.09955],[14.75179,46.09778],[14.75253,46.09544],[14.75314,46.09428],[14.74786,46.08875],[14.7161,46.08418],[14.71527,46.08265],[14.71176,46.07793],[14.72228,46.07245],[14.72042,46.06784],[14.72758,46.06566],[14.74595,46.06812],[14.74605,46.06798],[14.7533,46.06627],[14.76592,46.05857],[14.76799,46.05735],[14.76592,46.05684],[14.76402,46.05667],[14.76592,46.05501],[14.77114,46.05248],[14.784,46.05073],[14.79283,46.04454],[14.80732,46.04826],[14.80514,46.05164],[14.80947,46.05434],[14.81911,46.05337],[14.82562,46.04862],[14.8314,46.0483],[14.83716,46.05024],[14.84707,46.05356],[14.84753,46.05306],[14.85266,46.05322],[14.85567,46.05281],[14.8637,46.05617],[14.86923,46.0562],[14.87122,46.06149],[14.86497,46.07106],[14.88595,46.06278],[14.89345,46.06299],[14.89664,46.05511],[14.90205,46.05616],[14.90492,46.0543],[14.90833,46.05196],[14.91469,46.0463],[14.91961,46.04565],[14.92466,46.04378],[14.92516,46.04236],[14.92347,46.04008],[14.91894,46.03418],[14.92217,46.03319],[14.92701,46.01976],[14.92397,46.01237],[14.92313,46.01063],[14.92165,46.00612],[14.92661,46.00602],[14.92822,46.00392],[14.92898,45.99698],[14.92401,45.9926],[14.9255,45.98518],[14.93126,45.98462],[14.94224,45.98554],[14.94231,45.98555],[14.94778,45.98451],[14.94769,45.98432],[14.94857,45.97861],[14.95477,45.97802],[14.95733,45.97738],[14.96437,45.97527],[14.96884,45.97087],[14.96927,45.96955],[14.98545,45.96959],[14.98898,45.96762],[14.99314,45.96574],[14.99626,45.9645],[14.99831,45.96303],[15.008,45.96464],[15.01317,45.96406],[15.0185,45.96774],[15.01422,45.97265],[15.01441,45.97308],[15.02482,45.97932],[15.03135,45.97889],[15.03267,45.98743],[15.02858,45.99375],[15.02704,45.99561],[15.02586,45.99801],[15.02384,45.99858],[15.02181,45.99876],[15.02691,46.00494],[15.0523,46.0044],[15.0528,46.0044],[15.0548,46.0044],[15.05712,46.01063],[15.05734,46.01282],[15.06851,46.01612],[15.08247,46.01254],[15.08053,46.02003],[15.08255,46.02207],[15.09941,46.01896],[15.09098,46.02854],[15.09216,46.02914],[15.08999,46.03143],[15.0885,46.04075],[15.07661,46.04267],[15.07642,46.04286],[15.07236,46.04632],[15.06711,46.05964],[15.0682,46.05988],[15.06731,46.06552],[15.07569,46.07068],[15.08361,46.06794],[15.08512,46.0745],[15.08284,46.07716],[15.08589,46.07866],[15.0965,46.07798],[15.10241,46.08222],[15.09857,46.0838],[15.10205,46.09369],[15.10713,46.09165],[15.11024,46.09041],[15.11971,46.08975],[15.12282,46.0863],[15.13895,46.08616],[15.14117,46.08717],[15.1549,46.09341],[15.15391,46.09449],[15.15136,46.09644],[15.1498,46.09713],[15.14117,46.1012],[15.13371,46.10471],[15.13864,46.10728],[15.13988,46.11247],[15.15258,46.1057],[15.17011,46.1],[15.1737,46.10702],[15.18735,46.11],[15.18797,46.11188],[15.18203,46.11551],[15.18006,46.12446],[15.17471,46.12736],[15.17538,46.1319],[15.1663,46.13873],[15.15801,46.14079],[15.15737,46.14152],[15.15616,46.14345],[15.15659,46.14686],[15.15766,46.15048],[15.15068,46.15235],[15.14583,46.1594],[15.14117,46.15794],[15.13634,46.15643],[15.13059,46.15628],[15.12665,46.15922],[15.12984,46.16567],[15.12413,46.16711],[15.12282,46.17138],[15.12224,46.17386],[15.11176,46.18177],[15.10713,46.18356],[15.10713,46.18766],[15.09876,46.19087],[15.07511,46.18349],[15.04864,46.18962],[15.04382,46.19756],[15.03815,46.19289],[15.02889,46.19119],[15.02382,46.19242],[15.01464,46.1899],[15.01126,46.19162],[15.01213,46.19534],[15.0099,46.19676],[15.00483,46.19572],[14.9885,46.19476],[14.98098,46.197],[14.97462,46.19453],[14.9701,46.1937],[14.96875,46.19399],[14.96393,46.19258],[14.95442,46.18926],[14.95086,46.18829],[14.94511,46.1864],[14.94319,46.18635],[14.93015,46.18613],[14.92839,46.1868]]]]},"properties":{"code":"SI035","nom":"Zasavska","country":"SI"}},{"type":"Feature","geometry":{"type":"MultiPolygon","coordinates":[[[[16.24176,46.87629],[16.23738,46.8763],[16.23145,46.87551],[16.22669,46.87105],[16.20015,46.86809],[16.18577,46.86579],[16.17527,46.8571],[16.16449,46.85967],[16.15609,46.85371],[16.13473,46.85612],[16.12687,46.85754],[16.12394,46.86243],[16.11773,46.86408],[16.11385,46.86907],[16.10459,46.86425],[16.09835,46.86156],[16.09193,46.86458],[16.0789,46.85262],[16.07252,46.85279],[16.06572,46.84989],[16.06438,46.84462],[16.05839,46.83867],[16.0547,46.83985],[16.05051,46.83799],[16.04241,46.84007],[16.03346,46.8334],[16.02876,46.83995],[16.01945,46.83693],[16.01233,46.83508],[16.00766,46.83064],[15.99624,46.8354],[15.98594,46.82648],[15.98879,46.81913],[15.99709,46.81184],[15.99304,46.80434],[15.99379,46.7918],[15.98903,46.77494],[15.98921,46.75812],[15.98565,46.75248],[15.98824,46.74506],[15.99387,46.73061],[16.0024,46.72365],[16.00547,46.71652],[16.01371,46.7169],[16.02178,46.71149],[16.02972,46.71101],[16.02963,46.70088],[16.0395,46.6909],[16.04251,46.6858],[16.04203,46.6843],[16.04143,46.68242],[16.04071,46.67905],[16.04072,46.66832],[16.0398,46.6655],[16.04014,46.66293],[16.04011,46.66148],[16.03809,46.65615],[16.03345,46.65789],[16.01087,46.66521],[16.00348,46.67661],[16.00252,46.67771],[16.00039,46.67946],[15.99836,46.68058],[15.9962,46.68139],[15.99141,46.68268],[15.98923,46.68327],[15.98682,46.68385],[15.98362,46.68461],[15.96,46.68701],[15.955,46.68744],[15.95119,46.68799],[15.94707,46.68907],[15.94429,46.6901],[15.94195,46.6912],[15.93667,46.69475],[15.93515,46.69577],[15.92183,46.70506],[15.92024,46.70603],[15.9183,46.70721],[15.91391,46.70923],[15.90868,46.71101],[15.90419,46.7121],[15.89833,46.71298],[15.8955,46.71338],[15.89281,46.71398],[15.88445,46.71741],[15.87784,46.71951],[15.87716,46.71967],[15.87046,46.72105],[15.8623,46.72207],[15.85861,46.72222],[15.85614,46.72233],[15.84088,46.72238],[15.836,46.72228],[15.83264,46.72197],[15.82161,46.72007],[15.81885,46.71948],[15.81697,46.71909],[15.80269,46.71562],[15.79115,46.71042],[15.78642,46.70747],[15.80085,46.69608],[15.80597,46.69775],[15.80878,46.69819],[15.81114,46.70016],[15.81575,46.70028],[15.82568,46.68934],[15.82588,46.68863],[15.82041,46.6855],[15.82329,46.68237],[15.82644,46.67924],[15.83525,46.67849],[15.84006,46.67205],[15.84759,46.67106],[15.85296,46.66868],[15.86265,46.6687],[15.86852,46.66281],[15.87596,46.66655],[15.89096,46.66438],[15.89201,46.65629],[15.88743,46.64893],[15.88568,46.64512],[15.88638,46.64515],[15.88941,46.64476],[15.89285,46.64201],[15.89892,46.64084],[15.91344,46.63791],[15.91899,46.64064],[15.93284,46.63949],[15.93477,46.6357],[15.92293,46.62988],[15.92244,46.62722],[15.91624,46.62449],[15.9087,46.62487],[15.90579,46.62163],[15.9081,46.62022],[15.90859,46.61853],[15.91193,46.61515],[15.91079,46.61177],[15.91255,46.60625],[15.92316,46.59611],[15.93001,46.59575],[15.94439,46.58886],[15.94889,46.58773],[15.95094,46.58721],[15.95173,46.58773],[15.9562,46.58773],[15.95937,46.58834],[15.96486,46.58773],[15.97054,46.58683],[15.97404,46.58551],[15.97439,46.58412],[15.97334,46.58237],[15.97312,46.58077],[15.97328,46.57549],[15.96919,46.56938],[15.96484,46.5667],[15.96525,46.56309],[15.96558,46.56271],[15.96626,46.55685],[15.96935,46.55485],[15.97526,46.55181],[15.97747,46.55144],[15.97707,46.55126],[15.97713,46.54977],[15.98118,46.54639],[15.98283,46.54402],[15.98798,46.54011],[15.98934,46.53452],[15.99834,46.52976],[16.002,46.52376],[16.00432,46.51731],[16.0076,46.51565],[16.01117,46.51321],[16.01432,46.5129],[16.01161,46.5102],[16.02247,46.50781],[16.03184,46.50889],[16.04493,46.50704],[16.06317,46.49914],[16.07019,46.50155],[16.07122,46.50163],[16.07754,46.49974],[16.09252,46.49968],[16.09904,46.49901],[16.1019,46.5002],[16.10482,46.50057],[16.10896,46.50102],[16.11632,46.49248],[16.11781,46.49029],[16.13606,46.48499],[16.1416,46.48611],[16.14417,46.4907],[16.14626,46.49594],[16.15281,46.49561],[16.15928,46.50061],[16.16708,46.48757],[16.16748,46.48752],[16.17608,46.48999],[16.18172,46.48724],[16.17502,46.47925],[16.18131,46.4734],[16.18314,46.47222],[16.18577,46.474],[16.18803,46.47339],[16.18884,46.46885],[16.19792,46.46624],[16.19232,46.47248],[16.19078,46.48025],[16.20135,46.47931],[16.20848,46.47234],[16.21605,46.4738],[16.21512,46.48231],[16.22477,46.4882],[16.23209,46.48772],[16.23521,46.48862],[16.23647,46.48962],[16.24215,46.49008],[16.24163,46.49835],[16.25227,46.50045],[16.25986,46.50131],[16.26341,46.50486],[16.26726,46.50687],[16.266,46.51535],[16.27196,46.5178],[16.27642,46.51535],[16.28216,46.51533],[16.29333,46.51437],[16.29952,46.51231],[16.30668,46.51398],[16.30932,46.5188],[16.31438,46.52109],[16.31305,46.52445],[16.31784,46.52591],[16.33303,46.53002],[16.33594,46.52779],[16.33976,46.5286],[16.34429,46.53797],[16.34313,46.54103],[16.33733,46.54265],[16.35008,46.54335],[16.35317,46.54827],[16.35814,46.54547],[16.36545,46.5471],[16.36752,46.55484],[16.3798,46.55225],[16.38145,46.5503],[16.37871,46.54783],[16.37071,46.54695],[16.37005,46.54414],[16.37641,46.54123],[16.38383,46.54152],[16.38813,46.53635],[16.39634,46.53604],[16.39703,46.53752],[16.39995,46.53916],[16.40291,46.5382],[16.4025,46.53231],[16.40736,46.52745],[16.41117,46.52807],[16.41068,46.53237],[16.41298,46.53295],[16.42363,46.52817],[16.42729,46.53288],[16.43124,46.53068],[16.43242,46.52753],[16.43707,46.52787],[16.43976,46.52595],[16.43795,46.5189],[16.44062,46.51501],[16.45159,46.5176],[16.45905,46.51701],[16.46292,46.52064],[16.46484,46.5191],[16.4633,46.51402],[16.46565,46.51332],[16.46667,46.51677],[16.47028,46.51678],[16.47124,46.51153],[16.47803,46.51198],[16.48721,46.50799],[16.48685,46.50163],[16.49448,46.49732],[16.49873,46.49663],[16.50742,46.49521],[16.50754,46.49213],[16.51474,46.49232],[16.51773,46.48914],[16.51161,46.47962],[16.51714,46.47789],[16.52874,46.47923],[16.5319,46.47796],[16.52449,46.4706],[16.52634,46.46805],[16.53427,46.47021],[16.54023,46.47654],[16.56129,46.4776],[16.56414,46.47388],[16.56886,46.4724],[16.59044,46.47245],[16.58964,46.4644],[16.5921,46.46263],[16.59501,46.46462],[16.5968,46.4759],[16.58492,46.47725],[16.57073,46.48457],[16.5675,46.48838],[16.56129,46.48939],[16.55642,46.49154],[16.52522,46.50455],[16.52486,46.50747],[16.52985,46.50842],[16.53251,46.51347],[16.5258,46.51556],[16.52499,46.51948],[16.53034,46.52511],[16.5315,46.53133],[16.52709,46.53464],[16.51901,46.53592],[16.51616,46.54121],[16.51886,46.54698],[16.51648,46.55543],[16.50998,46.56338],[16.50842,46.56527],[16.49873,46.56369],[16.49447,46.56299],[16.483,46.56604],[16.4828,46.5662],[16.48289,46.57879],[16.47443,46.58655],[16.46915,46.58564],[16.4677,46.58773],[16.46197,46.59598],[16.4521,46.60098],[16.44542,46.61098],[16.43366,46.61315],[16.43165,46.61306],[16.42486,46.61316],[16.42141,46.61686],[16.41285,46.62679],[16.40442,46.63235],[16.4011,46.63296],[16.39213,46.6344],[16.39033,46.63821],[16.38546,46.65228],[16.39073,46.65576],[16.39341,46.6618],[16.3929,46.66376],[16.39683,46.66428],[16.40427,46.65927],[16.4198,46.65848],[16.41939,46.66476],[16.42413,46.66809],[16.42452,46.67148],[16.42088,46.67494],[16.42434,46.67864],[16.42215,46.68174],[16.42662,46.69188],[16.42655,46.69494],[16.42025,46.69589],[16.38358,46.69826],[16.36855,46.70423],[16.37931,46.71247],[16.37079,46.72224],[16.36444,46.71777],[16.35716,46.71608],[16.35271,46.72423],[16.34721,46.72453],[16.34991,46.72972],[16.34535,46.73623],[16.34292,46.73701],[16.33165,46.74845],[16.31873,46.75561],[16.32997,46.7779],[16.31216,46.778],[16.31297,46.79764],[16.33989,46.80398],[16.34136,46.81284],[16.34047,46.82071],[16.34357,46.82288],[16.34493,46.82896],[16.35001,46.83103],[16.3472,46.84044],[16.34322,46.84323],[16.33784,46.84642],[16.32968,46.84539],[16.31813,46.85598],[16.30992,46.85665],[16.30766,46.85908],[16.30055,46.86054],[16.29745,46.86644],[16.29139,46.87283],[16.25998,46.87247],[16.24176,46.87629]]],[[[16.35888,46.53841],[16.35902,46.5421],[16.35502,46.54344],[16.35519,46.53841],[16.35888,46.53841]]]]},"properties":{"code":"SI031","nom":"Pomurska","country":"SI"}},{"type":"Feature","geometry":{"type":"MultiPolygon","coordinates":[[[[15.14435,46.65939],[15.14117,46.65843],[15.1348,46.65651],[15.1294,46.6508],[15.12333,46.65383],[15.11868,46.65378],[15.1137,46.65815],[15.10869,46.65891],[15.10713,46.65814],[15.09773,46.65349],[15.08916,46.65193],[15.0824,46.64514],[15.06512,46.65211],[15.03957,46.65039],[15.01599,46.64021],[14.99546,46.62174],[14.99478,46.61381],[14.97931,46.6014],[14.97421,46.61307],[14.96941,46.62564],[14.95568,46.63273],[14.94781,46.62575],[14.94196,46.62094],[14.93179,46.61598],[14.92268,46.62002],[14.92207,46.60793],[14.92247,46.60371],[14.91931,46.60255],[14.91474,46.60564],[14.9061,46.60557],[14.90004,46.61132],[14.8843,46.61174],[14.87967,46.61125],[14.87833,46.60892],[14.86817,46.6052],[14.86477,46.5933],[14.85847,46.5927],[14.85552,46.58773],[14.85177,46.5814],[14.84167,46.57381],[14.83932,46.56745],[14.83716,46.56566],[14.83532,46.56413],[14.83716,46.55915],[14.83716,46.5574],[14.83216,46.54977],[14.82768,46.54783],[14.82337,46.54412],[14.83186,46.53932],[14.82275,46.53454],[14.82439,46.52978],[14.81842,46.52177],[14.81861,46.50938],[14.80579,46.50725],[14.78662,46.50017],[14.78158,46.50102],[14.77638,46.50406],[14.76592,46.50439],[14.75909,46.50444],[14.74834,46.4976],[14.74147,46.50459],[14.7296,46.49246],[14.72086,46.49832],[14.715,46.49916],[14.71065,46.48606],[14.70923,46.48179],[14.7026,46.47994],[14.69851,46.47495],[14.70183,46.46941],[14.70088,46.46562],[14.69291,46.46407],[14.68277,46.46696],[14.67676,46.46174],[14.67862,46.45742],[14.67458,46.45069],[14.68918,46.44827],[14.71065,46.44896],[14.72076,46.44928],[14.72426,46.44544],[14.73241,46.44442],[14.73936,46.44014],[14.7529,46.41941],[14.76259,46.42282],[14.76592,46.43065],[14.77267,46.43139],[14.77944,46.42763],[14.78654,46.42927],[14.79169,46.42534],[14.80035,46.42297],[14.81802,46.42341],[14.83441,46.42366],[14.83716,46.42226],[14.84574,46.4179],[14.85138,46.41889],[14.88161,46.41997],[14.89566,46.4205],[14.90623,46.42637],[14.91345,46.43295],[14.94364,46.43374],[14.94644,46.44033],[14.96142,46.44459],[14.95428,46.45561],[14.97811,46.45108],[15.00597,46.4386],[15.01651,46.4402],[15.04376,46.43562],[15.06316,46.43378],[15.07904,46.42874],[15.08793,46.42345],[15.08906,46.42312],[15.0881,46.43138],[15.09257,46.43428],[15.10364,46.42941],[15.10713,46.42877],[15.11754,46.42688],[15.1182,46.42175],[15.12272,46.41887],[15.12474,46.41413],[15.13079,46.41027],[15.14117,46.40706],[15.14511,46.40735],[15.14893,46.40339],[15.15682,46.40207],[15.15781,46.40714],[15.16547,46.41007],[15.17069,46.40882],[15.17835,46.41071],[15.17936,46.40298],[15.1714,46.39559],[15.17153,46.39204],[15.1877,46.38658],[15.22009,46.38911],[15.2277,46.39003],[15.2342,46.39042],[15.23171,46.39614],[15.2403,46.40058],[15.25362,46.4135],[15.25284,46.41806],[15.25467,46.41955],[15.25622,46.42754],[15.26434,46.43674],[15.26612,46.44242],[15.26995,46.44444],[15.2817,46.44469],[15.295,46.44867],[15.32063,46.44935],[15.3275,46.4559],[15.31226,46.46893],[15.31052,46.47855],[15.31414,46.47963],[15.31518,46.48397],[15.31116,46.49055],[15.313,46.49829],[15.32503,46.51156],[15.3243,46.5184],[15.33513,46.52204],[15.34049,46.52906],[15.33913,46.53224],[15.34548,46.54805],[15.34416,46.54977],[15.34628,46.55382],[15.35355,46.55128],[15.35801,46.56199],[15.36354,46.56055],[15.36945,46.56359],[15.36996,46.57134],[15.36363,46.58015],[15.36559,46.58093],[15.37019,46.584],[15.38751,46.58295],[15.39732,46.58263],[15.42643,46.56327],[15.43866,46.56732],[15.43906,46.5789],[15.4433,46.58224],[15.4463,46.5853],[15.44338,46.587],[15.43473,46.5849],[15.43148,46.58773],[15.43063,46.58924],[15.43321,46.59726],[15.44232,46.60881],[15.44183,46.61198],[15.44778,46.6176],[15.43373,46.61885],[15.43369,46.62833],[15.4302,46.63523],[15.41889,46.64072],[15.41221,46.64159],[15.41035,46.64651],[15.40198,46.65355],[15.3829,46.65162],[15.37433,46.65047],[15.35719,46.65159],[15.35264,46.65448],[15.34294,46.65109],[15.33548,46.65318],[15.32781,46.65259],[15.3202,46.64844],[15.30822,46.65242],[15.308,46.65244],[15.29454,46.65234],[15.27806,46.644],[15.26272,46.64451],[15.25182,46.64211],[15.23619,46.63968],[15.22487,46.64301],[15.20526,46.6452],[15.1956,46.64671],[15.18274,46.65568],[15.16902,46.65425],[15.1602,46.65711],[15.15607,46.65624],[15.14435,46.65939]]]]},"properties":{"code":"SI033","nom":"Koro\u0161ka","country":"SI"}},{"type":"Feature","geometry":{"type":"MultiPolygon","coordinates":[[[[15.78642,46.70747],[15.77583,46.70243],[15.76895,46.6994],[15.75244,46.69797],[15.74712,46.69897],[15.73898,46.6996],[15.72997,46.69757],[15.7257,46.69617],[15.72307,46.69581],[15.7208,46.6959],[15.71886,46.69628],[15.71502,46.69702],[15.71277,46.69715],[15.69688,46.69884],[15.67889,46.70597],[15.67008,46.70691],[15.66523,46.70639],[15.65684,46.70645],[15.64999,46.70576],[15.65396,46.69831],[15.65266,46.69117],[15.63923,46.69118],[15.63328,46.68633],[15.63355,46.6813],[15.62296,46.67957],[15.61455,46.68217],[15.60532,46.68204],[15.60737,46.6874],[15.60088,46.68949],[15.59528,46.68954],[15.59107,46.68635],[15.58896,46.68394],[15.57325,46.68002],[15.57015,46.68091],[15.56739,46.67533],[15.55918,46.67116],[15.55172,46.67223],[15.54628,46.67015],[15.54677,46.66677],[15.55291,46.65189],[15.55137,46.6477],[15.54706,46.6482],[15.54467,46.64641],[15.5502,46.63981],[15.54244,46.62995],[15.54033,46.63322],[15.53639,46.6331],[15.53224,46.63016],[15.52007,46.62154],[15.51455,46.62261],[15.51059,46.6168],[15.50044,46.61468],[15.49933,46.61784],[15.49257,46.62019],[15.48316,46.61785],[15.47624,46.6126],[15.46729,46.61365],[15.46268,46.61643],[15.46213,46.62595],[15.45588,46.62971],[15.45635,46.63837],[15.45298,46.64078],[15.43683,46.64103],[15.42988,46.64625],[15.42265,46.6476],[15.42267,46.65261],[15.41919,46.65489],[15.40198,46.65355],[15.41035,46.64651],[15.41221,46.64159],[15.41889,46.64072],[15.4302,46.63523],[15.43369,46.62833],[15.43373,46.61885],[15.44778,46.6176],[15.44183,46.61198],[15.44232,46.60881],[15.43321,46.59726],[15.43063,46.58924],[15.43148,46.58773],[15.43473,46.5849],[15.44338,46.587],[15.4463,46.5853],[15.4433,46.58224],[15.43906,46.5789],[15.43866,46.56732],[15.42643,46.56327],[15.39732,46.58263],[15.38751,46.58295],[15.37019,46.584],[15.36559,46.58093],[15.36363,46.58015],[15.36996,46.57134],[15.36945,46.56359],[15.36354,46.56055],[15.35801,46.56199],[15.35355,46.55128],[15.34628,46.55382],[15.34416,46.54977],[15.34548,46.54805],[15.33913,46.53224],[15.34049,46.52906],[15.33513,46.52204],[15.3243,46.5184],[15.32503,46.51156],[15.313,46.49829],[15.31116,46.49055],[15.31518,46.48397],[15.31414,46.47963],[15.32201,46.47515],[15.33381,46.47546],[15.33506,46.46516],[15.34297,46.45792],[15.3419,46.44904],[15.35307,46.44661],[15.3665,46.44769],[15.37216,46.44368],[15.3732,46.43801],[15.37677,46.43823],[15.38872,46.43275],[15.39956,46.43739],[15.40395,46.43171],[15.40804,46.43056],[15.41071,46.42745],[15.41926,46.42435],[15.41186,46.41921],[15.41036,46.40479],[15.40212,46.40511],[15.3992,46.40335],[15.40104,46.4021],[15.41879,46.39121],[15.4137,46.38982],[15.41077,46.38372],[15.3967,46.38221],[15.41121,46.37527],[15.42152,46.37492],[15.4213,46.37011],[15.4321,46.36544],[15.44251,46.3659],[15.44773,46.36317],[15.44555,46.35809],[15.45291,46.357],[15.45322,46.35474],[15.46099,46.35624],[15.46643,46.35503],[15.47774,46.35803],[15.48366,46.35641],[15.48416,46.35468],[15.48702,46.35359],[15.49629,46.35972],[15.50121,46.35728],[15.5017,46.35151],[15.5075,46.34453],[15.53224,46.34997],[15.53535,46.35065],[15.5388,46.34636],[15.53822,46.34064],[15.53917,46.3351],[15.54006,46.33351],[15.5458,46.31723],[15.54528,46.31082],[15.54504,46.31021],[15.55169,46.30216],[15.54894,46.30048],[15.55024,46.29689],[15.54608,46.28997],[15.55321,46.28657],[15.55183,46.28248],[15.54473,46.27876],[15.54737,46.27673],[15.55551,46.27725],[15.5593,46.27314],[15.56618,46.28355],[15.56859,46.2872],[15.58241,46.28428],[15.58739,46.28636],[15.59759,46.28958],[15.61018,46.28412],[15.62512,46.28752],[15.63183,46.28451],[15.63671,46.2812],[15.63579,46.27454],[15.65144,46.2761],[15.65715,46.27415],[15.66601,46.27454],[15.66805,46.27453],[15.67083,46.27512],[15.67348,46.2762],[15.67361,46.27493],[15.67533,46.27435],[15.69386,46.27417],[15.69055,46.26925],[15.69312,46.26605],[15.70131,46.26835],[15.71161,46.26797],[15.72179,46.27112],[15.73195,46.26789],[15.74084,46.2624],[15.75295,46.26619],[15.75849,46.25816],[15.76258,46.2544],[15.77489,46.25514],[15.79148,46.25933],[15.82474,46.26177],[15.83699,46.2649],[15.86291,46.26781],[15.86772,46.27166],[15.86656,46.27557],[15.87349,46.27932],[15.87448,46.2797],[15.88608,46.28047],[15.89682,46.28389],[15.90089,46.28835],[15.91287,46.28966],[15.91802,46.286],[15.95489,46.29409],[15.96167,46.29668],[15.96705,46.2997],[15.97189,46.30713],[15.97703,46.31238],[15.98484,46.30958],[15.99024,46.31381],[15.99246,46.31284],[15.99651,46.31106],[16.00315,46.30764],[16.01408,46.3094],[16.02014,46.31343],[16.02229,46.31643],[16.02065,46.3234],[16.02841,46.32626],[16.02756,46.32802],[16.02825,46.33128],[16.0351,46.33613],[16.04159,46.33738],[16.0518,46.33524],[16.05765,46.33898],[16.06128,46.34149],[16.06895,46.33978],[16.07673,46.34581],[16.07448,46.35453],[16.07161,46.36541],[16.05555,46.37954],[16.05036,46.3821],[16.05257,46.38342],[16.05279,46.38549],[16.05553,46.38671],[16.05378,46.38834],[16.0559,46.39002],[16.05812,46.39357],[16.06945,46.39168],[16.08742,46.38885],[16.09677,46.39118],[16.11357,46.39647],[16.13041,46.40177],[16.14148,46.40506],[16.15213,46.40375],[16.17291,46.39091],[16.1738,46.38766],[16.17556,46.38551],[16.17736,46.38499],[16.17986,46.38499],[16.18577,46.38683],[16.18863,46.3871],[16.18963,46.37835],[16.2041,46.38118],[16.20901,46.384],[16.2154,46.38449],[16.22034,46.37943],[16.22581,46.3862],[16.23019,46.38735],[16.235,46.38539],[16.23854,46.37946],[16.24799,46.3801],[16.25999,46.377],[16.26913,46.37737],[16.27219,46.37837],[16.30155,46.37829],[16.30725,46.3964],[16.30041,46.40398],[16.28316,46.41429],[16.2733,46.41473],[16.27501,46.42029],[16.27161,46.43133],[16.27073,46.43244],[16.26443,46.44309],[16.26508,46.45354],[16.25973,46.46039],[16.25671,46.47308],[16.25127,46.48116],[16.24083,46.48482],[16.24215,46.49008],[16.23647,46.48962],[16.23521,46.48862],[16.23209,46.48772],[16.22477,46.4882],[16.21512,46.48231],[16.21605,46.4738],[16.20848,46.47234],[16.20135,46.47931],[16.19078,46.48025],[16.19232,46.47248],[16.19792,46.46624],[16.18884,46.46885],[16.18803,46.47339],[16.18577,46.474],[16.18314,46.47222],[16.18131,46.4734],[16.17502,46.47925],[16.18172,46.48724],[16.17608,46.48999],[16.16748,46.48752],[16.16708,46.48757],[16.15928,46.50061],[16.15281,46.49561],[16.14626,46.49594],[16.14417,46.4907],[16.1416,46.48611],[16.13606,46.48499],[16.11781,46.49029],[16.11632,46.49248],[16.10896,46.50102],[16.10482,46.50057],[16.1019,46.5002],[16.09904,46.49901],[16.09252,46.49968],[16.07754,46.49974],[16.07122,46.50163],[16.07019,46.50155],[16.06317,46.49914],[16.04493,46.50704],[16.03184,46.50889],[16.02247,46.50781],[16.01161,46.5102],[16.01432,46.5129],[16.01117,46.51321],[16.0076,46.51565],[16.00432,46.51731],[16.002,46.52376],[15.99834,46.52976],[15.98934,46.53452],[15.98798,46.54011],[15.98283,46.54402],[15.98118,46.54639],[15.97713,46.54977],[15.97707,46.55126],[15.97747,46.55144],[15.97526,46.55181],[15.96935,46.55485],[15.96626,46.55685],[15.96558,46.56271],[15.96525,46.56309],[15.96484,46.5667],[15.96919,46.56938],[15.97328,46.57549],[15.97312,46.58077],[15.97334,46.58237],[15.97439,46.58412],[15.97404,46.58551],[15.97054,46.58683],[15.96486,46.58773],[15.95937,46.58834],[15.9562,46.58773],[15.95173,46.58773],[15.95094,46.58721],[15.94889,46.58773],[15.94439,46.58886],[15.93001,46.59575],[15.92316,46.59611],[15.91255,46.60625],[15.91079,46.61177],[15.91193,46.61515],[15.90859,46.61853],[15.9081,46.62022],[15.90579,46.62163],[15.9087,46.62487],[15.91624,46.62449],[15.92244,46.62722],[15.92293,46.62988],[15.93477,46.6357],[15.93284,46.63949],[15.91899,46.64064],[15.91344,46.63791],[15.89892,46.64084],[15.89285,46.64201],[15.88941,46.64476],[15.88638,46.64515],[15.88568,46.64512],[15.88743,46.64893],[15.89201,46.65629],[15.89096,46.66438],[15.87596,46.66655],[15.86852,46.66281],[15.86265,46.6687],[15.85296,46.66868],[15.84759,46.67106],[15.84006,46.67205],[15.83525,46.67849],[15.82644,46.67924],[15.82329,46.68237],[15.82041,46.6855],[15.82588,46.68863],[15.82568,46.68934],[15.81575,46.70028],[15.81114,46.70016],[15.80878,46.69819],[15.80597,46.69775],[15.80085,46.69608],[15.78642,46.70747]]]]},"properties":{"code":"SI032","nom":"Podravska","country":"SI"}},{"type":"Feature","geometry":{"type":"MultiPolygon","coordinates":[[[[13.78637,45.83643],[13.78299,45.83801],[13.77654,45.84039],[13.77455,45.8406],[13.77163,45.84095],[13.77152,45.84096],[13.76523,45.848],[13.75556,45.85194],[13.74212,45.8582],[13.7354,45.85951],[13.72214,45.86187],[13.71586,45.86351],[13.71888,45.85645],[13.71597,45.84317],[13.70257,45.83521],[13.68973,45.83494],[13.68953,45.83483],[13.68925,45.83402],[13.68246,45.81612],[13.67385,45.81607],[13.66169,45.816],[13.65687,45.81587],[13.65025,45.81697],[13.64273,45.81978],[13.63472,45.81952],[13.63068,45.81909],[13.62547,45.81922],[13.62285,45.81888],[13.62003,45.81947],[13.61419,45.81934],[13.61191,45.81912],[13.60766,45.81958],[13.59714,45.81952],[13.59624,45.80794],[13.60466,45.80402],[13.62215,45.80023],[13.6248,45.79681],[13.63614,45.8007],[13.63972,45.79853],[13.65722,45.80024],[13.65811,45.80036],[13.66845,45.79895],[13.67385,45.793],[13.68008,45.79317],[13.70083,45.77929],[13.70454,45.77717],[13.70829,45.77502],[13.71,45.77404],[13.71403,45.77231],[13.71956,45.77029],[13.7213,45.76932],[13.73059,45.7661],[13.73597,45.76253],[13.73506,45.76027],[13.74467,45.75597],[13.76228,45.75623],[13.76743,45.75057],[13.78586,45.74774],[13.78856,45.7466],[13.78937,45.74625],[13.79568,45.7432],[13.81076,45.7233],[13.81637,45.72029],[13.82352,45.71628],[13.82632,45.71471],[13.82925,45.71184],[13.83362,45.70694],[13.83526,45.69922],[13.83179,45.6942],[13.83247,45.68988],[13.83261,45.68953],[13.83388,45.68726],[13.84454,45.68106],[13.84881,45.67643],[13.85613,45.66874],[13.86099,45.66365],[13.8759,45.65398],[13.89833,45.64347],[13.8986,45.64341],[13.91808,45.6332],[13.90491,45.62446],[13.89793,45.62109],[13.88536,45.61507],[13.87673,45.61085],[13.86978,45.60906],[13.86589,45.5977],[13.85613,45.59233],[13.85275,45.59047],[13.85066,45.58867],[13.85079,45.58497],[13.83876,45.58228],[13.82274,45.58175],[13.82181,45.58169],[13.7986,45.58212],[13.79369,45.58264],[13.7822,45.58386],[13.76487,45.59017],[13.75676,45.5939],[13.74713,45.59752],[13.7367,45.59633],[13.73541,45.59622],[13.72282,45.59473],[13.72214,45.59178],[13.709,45.59335],[13.70401,45.59046],[13.71321,45.58461],[13.72214,45.58238],[13.74552,45.5695],[13.74591,45.56553],[13.73609,45.56427],[13.73371,45.56143],[13.7339,45.55938],[13.74105,45.55805],[13.7413,45.5577],[13.73247,45.55626],[13.7326,45.55121],[13.71911,45.5436],[13.70816,45.54675],[13.69341,45.54791],[13.67997,45.54551],[13.67385,45.54198],[13.66926,45.53933],[13.65727,45.54159],[13.65667,45.53548],[13.64635,45.53321],[13.63983,45.53306],[13.62915,45.53385],[13.61565,45.53989],[13.60218,45.53637],[13.60143,45.5326],[13.60642,45.53108],[13.60634,45.52852],[13.59955,45.52581],[13.59455,45.52635],[13.58066,45.52575],[13.57526,45.52798],[13.56539,45.52969],[13.56858,45.51742],[13.57304,45.51442],[13.57783,45.51538],[13.59227,45.51265],[13.59479,45.50712],[13.59434,45.50282],[13.58711,45.50013],[13.58553,45.49768],[13.5924,45.4863],[13.58727,45.47736],[13.60136,45.46792],[13.61398,45.46467],[13.64182,45.45959],[13.64775,45.45736],[13.6513,45.45405],[13.66291,45.44914],[13.66566,45.44686],[13.67027,45.44552],[13.67385,45.44389],[13.6761,45.44287],[13.69086,45.44914],[13.70617,45.45659],[13.70961,45.45282],[13.72214,45.4559],[13.72494,45.45618],[13.72433,45.459],[13.7525,45.46085],[13.76393,45.46611],[13.77619,45.4645],[13.78616,45.46643],[13.80468,45.45856],[13.80636,45.45347],[13.80482,45.44914],[13.80286,45.44406],[13.81416,45.44099],[13.81517,45.43761],[13.81457,45.43604],[13.81494,45.43433],[13.83963,45.43426],[13.85087,45.43257],[13.85613,45.42616],[13.86274,45.4274],[13.8871,45.42587],[13.8915,45.43608],[13.90176,45.44422],[13.90666,45.4463],[13.90973,45.44914],[13.90917,45.45119],[13.92583,45.45389],[13.94405,45.45418],[13.9467,45.45648],[13.95698,45.45558],[13.96807,45.44914],[13.97072,45.44759],[13.97189,45.44914],[13.98581,45.45735],[13.98614,45.46904],[13.9958,45.47253],[13.98698,45.48097],[13.99099,45.48338],[13.98434,45.48848],[13.97874,45.49277],[13.96581,45.49691],[13.96218,45.50601],[13.97569,45.51473],[13.98852,45.50955],[14.00072,45.50847],[13.99787,45.51541],[14.00195,45.52006],[14.01101,45.51988],[14.04208,45.49921],[14.0505,45.49771],[14.06678,45.48848],[14.07383,45.48448],[14.08595,45.48281],[14.09164,45.48202],[14.10162,45.48218],[14.11128,45.48234],[14.1182,45.48124],[14.12522,45.48393],[14.12741,45.48848],[14.12944,45.49269],[14.12522,45.50251],[14.12361,45.50608],[14.12468,45.51392],[14.11429,45.50746],[14.1036,45.51674],[14.10162,45.51699],[14.09443,45.51791],[14.09054,45.51647],[14.09223,45.523],[14.10158,45.53203],[14.10162,45.54252],[14.10114,45.54246],[14.10162,45.54387],[14.103,45.54791],[14.11193,45.55339],[14.11348,45.56431],[14.11823,45.56986],[14.10649,45.57263],[14.10162,45.56881],[14.10014,45.56765],[14.09336,45.57078],[14.09505,45.57508],[14.0926,45.58015],[14.09442,45.58683],[14.09204,45.58843],[14.10162,45.59455],[14.10638,45.59759],[14.11556,45.60677],[14.11242,45.60854],[14.10162,45.6118],[14.09973,45.6127],[14.09707,45.61598],[14.09723,45.62513],[14.08595,45.63019],[14.08316,45.63143],[14.08595,45.63297],[14.09195,45.63629],[14.08733,45.64108],[14.08633,45.64811],[14.08595,45.64841],[14.07864,45.654],[14.07383,45.65475],[14.07925,45.66502],[14.07852,45.67117],[14.07987,45.67696],[14.07787,45.68154],[14.07383,45.68243],[14.06851,45.68355],[14.0671,45.68623],[14.07383,45.70768],[14.08062,45.71082],[14.08595,45.71042],[14.09511,45.70973],[14.09943,45.71583],[14.09933,45.71627],[14.09538,45.72501],[14.09085,45.72841],[14.09314,45.73157],[14.08595,45.73374],[14.08347,45.73846],[14.08595,45.741],[14.08595,45.74132],[14.07834,45.74702],[14.07383,45.74936],[14.05402,45.7515],[14.04768,45.75352],[14.04237,45.76136],[14.02584,45.76918],[14.01908,45.77237],[14.01112,45.77178],[14.00864,45.76918],[14.00648,45.7669],[13.99594,45.76618],[13.99852,45.76918],[13.9924,45.77396],[13.97849,45.77998],[13.96785,45.78387],[13.95799,45.7867],[13.95744,45.78928],[13.94979,45.78871],[13.93419,45.79302],[13.92656,45.79993],[13.92024,45.80418],[13.90914,45.80943],[13.9079,45.81142],[13.90578,45.81409],[13.90132,45.81437],[13.90282,45.81787],[13.89753,45.81773],[13.89662,45.82327],[13.89131,45.82399],[13.8921,45.82882],[13.87525,45.82644],[13.87345,45.82448],[13.86742,45.82573],[13.85599,45.82606],[13.84682,45.829],[13.84118,45.83399],[13.84036,45.83532],[13.83571,45.83831],[13.82392,45.8432],[13.81821,45.84271],[13.81105,45.84149],[13.81146,45.83548],[13.78987,45.83387],[13.78637,45.83643]]]]},"properties":{"code":"SI044","nom":"Obalno-kra\u0161ka","country":"SI"}}]}