{"type":"FeatureCollection","features":[{"type":"Feature","geometry":{"type":"MultiPolygon","coordinates":[[[[-3.28853,53.32716],[-3.27465,53.32116],[-3.26573,53.32217],[-3.25707,53.31449],[-3.22022,53.30071],[-3.20334,53.29454],[-3.19333,53.28901],[-3.19024,53.28647],[-3.18157,53.28115],[-3.1767,53.27903],[-3.17586,53.27774],[-3.17219,53.27772],[-3.16173,53.27135],[-3.15567,53.26821],[-3.14921,53.26391],[-3.14139,53.2601],[-3.1342,53.25787],[-3.13184,53.25843],[-3.13204,53.25682],[-3.13036,53.25597],[-3.12999,53.25432],[-3.12871,53.25299],[-3.12508,53.25054],[-3.12121,53.24882],[-3.08597,53.23736],[-3.0818,53.23655],[-3.08335,53.23902],[-3.08666,53.24262],[-3.08207,53.24283],[-3.07898,53.24166],[-3.07485,53.23971],[-3.07233,53.24336],[-3.07426,53.24462],[-3.09802,53.25024],[-3.09606,53.25508],[-3.08419,53.25612],[-3.08051,53.25497],[-3.07225,53.25338],[-3.0611,53.25275],[-3.04866,53.25224],[-3.03605,53.25183],[-3.02585,53.24847],[-3.01641,53.24415],[-3.01117,53.24171],[-2.99255,53.23304],[-2.9849,53.2285],[-2.97782,53.22542],[-2.96615,53.21872],[-2.9495,53.2113],[-2.94371,53.20411],[-2.93727,53.19765],[-2.93518,53.19626],[-2.93258,53.19544],[-2.92905,53.19421],[-2.92228,53.18932],[-2.92038,53.1826],[-2.9203,53.17946],[-2.92094,53.17711],[-2.92283,53.17532],[-2.92657,53.17338],[-2.92778,53.17149],[-2.94029,53.16677],[-2.94403,53.16527],[-2.94654,53.16714],[-2.94889,53.16603],[-2.95346,53.16537],[-2.95605,53.16407],[-2.96236,53.16235],[-2.96625,53.15989],[-2.96836,53.16061],[-2.97087,53.16081],[-2.97773,53.15702],[-2.98523,53.15801],[-2.99182,53.15643],[-2.99292,53.15331],[-2.98438,53.14845],[-2.97815,53.14884],[-2.9638,53.13278],[-2.94774,53.12713],[-2.94369,53.1221],[-2.92724,53.11939],[-2.91092,53.11306],[-2.90251,53.1125],[-2.88651,53.12143],[-2.88159,53.11988],[-2.88452,53.11176],[-2.89196,53.10792],[-2.89252,53.10482],[-2.88843,53.10512],[-2.88822,53.10327],[-2.89397,53.09634],[-2.89652,53.09605],[-2.89564,53.09846],[-2.89882,53.09753],[-2.90093,53.09085],[-2.89185,53.08936],[-2.87912,53.08197],[-2.87743,53.07253],[-2.86889,53.06726],[-2.86545,53.06238],[-2.86649,53.05871],[-2.86205,53.05626],[-2.8663,53.04598],[-2.86178,53.0386],[-2.85593,53.03617],[-2.85994,53.02858],[-2.8595,53.02106],[-2.85247,53.01757],[-2.84405,53.01765],[-2.83946,53.01165],[-2.83562,52.99862],[-2.82753,52.99476],[-2.79925,52.99039],[-2.78896,52.99494],[-2.7689,52.99416],[-2.75882,52.98698],[-2.74358,52.98683],[-2.72682,52.9833],[-2.73453,52.96999],[-2.72716,52.9648],[-2.72499,52.95675],[-2.72811,52.94707],[-2.72581,52.94235],[-2.72853,52.9252],[-2.74358,52.9245],[-2.75565,52.92417],[-2.7721,52.91429],[-2.79118,52.90254],[-2.79479,52.89752],[-2.80052,52.89548],[-2.80423,52.90306],[-2.81219,52.90951],[-2.81361,52.9149],[-2.83881,52.93322],[-2.84117,52.94166],[-2.84915,52.9445],[-2.87161,52.94526],[-2.88364,52.94703],[-2.88793,52.95179],[-2.8985,52.94985],[-2.90729,52.94267],[-2.92085,52.94319],[-2.93022,52.93951],[-2.95966,52.95133],[-2.96273,52.95541],[-2.97148,52.95993],[-2.96847,52.9642],[-2.97466,52.96894],[-2.97716,52.96747],[-2.98248,52.9595],[-3.00723,52.95691],[-3.01117,52.95211],[-3.01343,52.94937],[-3.01678,52.9487],[-3.02,52.94596],[-3.02492,52.93696],[-3.02831,52.93614],[-3.03387,52.93012],[-3.0402,52.92834],[-3.05758,52.92825],[-3.07709,52.92579],[-3.09597,52.93035],[-3.1095,52.91818],[-3.11629,52.90048],[-3.11473,52.89539],[-3.1376,52.89477],[-3.14748,52.89016],[-3.1393,52.88605],[-3.14599,52.88397],[-3.15041,52.87833],[-3.12933,52.86716],[-3.13392,52.86284],[-3.15939,52.84965],[-3.1517,52.84178],[-3.1558,52.8377],[-3.15513,52.83079],[-3.15594,52.83004],[-3.16734,52.81941],[-3.16763,52.80778],[-3.1614,52.80363],[-3.15774,52.80718],[-3.15439,52.80679],[-3.15456,52.80259],[-3.16136,52.79848],[-3.15827,52.7939],[-3.14944,52.7923],[-3.1448,52.78929],[-3.12038,52.787],[-3.11906,52.7848],[-3.11116,52.78728],[-3.10551,52.79161],[-3.08893,52.79442],[-3.08892,52.78091],[-3.0764,52.77159],[-3.06816,52.77269],[-3.06112,52.77083],[-3.05412,52.77239],[-3.04805,52.7687],[-3.03891,52.76901],[-3.02719,52.7657],[-3.01572,52.76519],[-3.01211,52.75854],[-3.01862,52.75199],[-3.01656,52.74855],[-3.01117,52.74961],[-2.99336,52.74355],[-2.99565,52.73704],[-2.99212,52.73461],[-2.98171,52.73391],[-2.97357,52.7357],[-2.96586,52.73171],[-2.96636,52.72657],[-2.96181,52.72458],[-2.96154,52.71677],[-2.96487,52.71484],[-2.97738,52.71576],[-2.97599,52.72233],[-2.97845,52.72605],[-2.98673,52.72264],[-3.00192,52.72041],[-3.01117,52.72086],[-3.01615,52.72111],[-3.02152,52.72422],[-3.025,52.71542],[-3.02221,52.71014],[-3.0237,52.70599],[-3.03082,52.70111],[-3.0356,52.69329],[-3.04593,52.69106],[-3.04302,52.68615],[-3.04471,52.67598],[-3.03966,52.67497],[-3.04464,52.66557],[-3.0486,52.66208],[-3.04612,52.65607],[-3.05103,52.65253],[-3.05195,52.64775],[-3.07457,52.64393],[-3.08137,52.64017],[-3.06817,52.63663],[-3.06093,52.6309],[-3.07304,52.62863],[-3.07349,52.62577],[-3.08126,52.62105],[-3.08382,52.61508],[-3.09247,52.60977],[-3.09019,52.59961],[-3.09914,52.59761],[-3.11331,52.58992],[-3.11915,52.5865],[-3.12435,52.58748],[-3.13424,52.58531],[-3.13927,52.58601],[-3.13734,52.57405],[-3.12662,52.56478],[-3.11218,52.54214],[-3.11697,52.53866],[-3.13072,52.53643],[-3.13709,52.53339],[-3.13641,52.53161],[-3.13516,52.53053],[-3.13496,52.52849],[-3.13306,52.52748],[-3.10977,52.52931],[-3.08487,52.53529],[-3.08167,52.53886],[-3.09249,52.54412],[-3.09204,52.54737],[-3.08557,52.55132],[-3.06577,52.55625],[-3.05999,52.55612],[-3.05094,52.56049],[-3.04332,52.56806],[-3.03393,52.57218],[-3.01493,52.57519],[-3.01117,52.57444],[-3.00674,52.57356],[-2.99863,52.56485],[-2.99894,52.55506],[-2.99417,52.55296],[-3.00316,52.5346],[-3.00347,52.52083],[-3.01117,52.5217],[-3.0278,52.52359],[-3.03118,52.52239],[-3.03612,52.51273],[-3.03052,52.50142],[-3.0476,52.49932],[-3.10757,52.49928],[-3.1258,52.49273],[-3.1392,52.49158],[-3.14489,52.48885],[-3.14539,52.4885],[-3.14841,52.48737],[-3.15775,52.4851],[-3.17124,52.47868],[-3.17827,52.47462],[-3.18056,52.47388],[-3.19456,52.47645],[-3.1973,52.47603],[-3.1969,52.4746],[-3.20184,52.47281],[-3.20594,52.47041],[-3.20817,52.46995],[-3.21202,52.46815],[-3.21335,52.46666],[-3.21607,52.46534],[-3.21696,52.46269],[-3.2197,52.45955],[-3.22318,52.4571],[-3.23091,52.45326],[-3.23492,52.44214],[-3.22907,52.43885],[-3.23014,52.43097],[-3.22339,52.42746],[-3.21854,52.42127],[-3.19985,52.417],[-3.17841,52.40906],[-3.16038,52.39917],[-3.16137,52.39284],[-3.15477,52.38844],[-3.13123,52.38472],[-3.12114,52.37804],[-3.11048,52.37671],[-3.10361,52.37295],[-3.10003,52.36785],[-3.08409,52.36003],[-3.07147,52.35606],[-3.06284,52.34937],[-3.04103,52.34469],[-3.01961,52.347],[-3.01117,52.34894],[-2.99977,52.35155],[-2.98677,52.35131],[-2.97529,52.35431],[-2.95472,52.34926],[-2.96771,52.32982],[-2.98598,52.32403],[-2.99699,52.32418],[-3.00152,52.3202],[-3.00344,52.31067],[-3.0015,52.30093],[-3.00545,52.29215],[-3.01072,52.28746],[-3.0112,52.27887],[-2.99363,52.27376],[-2.96801,52.27383],[-2.95697,52.27118],[-2.96684,52.26287],[-2.97749,52.25978],[-2.98021,52.26224],[-2.99121,52.26083],[-3.00404,52.26416],[-3.01117,52.26225],[-3.0268,52.25806],[-3.04581,52.25233],[-3.04748,52.24962],[-3.04354,52.24381],[-3.04603,52.23924],[-3.05524,52.23763],[-3.0722,52.23489],[-3.0714,52.22804],[-3.07688,52.21769],[-3.07383,52.2135],[-3.09863,52.20205],[-3.09622,52.19273],[-3.09581,52.18203],[-3.10061,52.17797],[-3.1107,52.17445],[-3.11341,52.17018],[-3.12207,52.16551],[-3.11601,52.16031],[-3.09845,52.15514],[-3.08339,52.1626],[-3.07337,52.15928],[-3.07263,52.15565],[-3.09301,52.14468],[-3.11574,52.1393],[-3.13466,52.13765],[-3.13507,52.13314],[-3.14122,52.12993],[-3.13618,52.12358],[-3.12816,52.1241],[-3.11558,52.1214],[-3.10498,52.11674],[-3.10732,52.11389],[-3.10593,52.10569],[-3.12212,52.10283],[-3.11935,52.08853],[-3.12597,52.07834],[-3.1184,52.07014],[-3.11664,52.06645],[-3.09197,52.05133],[-3.09191,52.04682],[-3.09034,52.04518],[-3.08648,52.04115],[-3.08692,52.03917],[-3.09234,52.0332],[-3.09275,52.02899],[-3.09919,52.0227],[-3.09434,52.01873],[-3.08689,52.01392],[-3.08408,52.00412],[-3.08221,52.00241],[-3.07889,51.99764],[-3.07562,51.99587],[-3.06941,51.9895],[-3.06853,51.98446],[-3.06736,51.98315],[-3.04044,51.96677],[-3.03494,51.96006],[-3.02528,51.95635],[-3.01117,51.94138],[-3.00976,51.93989],[-3.00987,51.93206],[-3.00654,51.92636],[-2.99915,51.92373],[-2.97605,51.9265],[-2.97188,51.9136],[-2.97435,51.90977],[-2.97033,51.90527],[-2.95352,51.90654],[-2.93342,51.91455],[-2.927,51.91444],[-2.91639,51.91795],[-2.90368,51.92486],[-2.89171,51.92592],[-2.88782,51.9283],[-2.88799,51.93317],[-2.88286,51.93418],[-2.87517,51.93265],[-2.86851,51.92699],[-2.85916,51.92724],[-2.84625,51.92257],[-2.84807,51.91978],[-2.86195,51.91715],[-2.86159,51.91468],[-2.84202,51.91699],[-2.83734,51.91321],[-2.83511,51.90604],[-2.82376,51.90523],[-2.8191,51.90429],[-2.81528,51.89915],[-2.81147,51.89746],[-2.80872,51.89624],[-2.79669,51.88879],[-2.77092,51.88055],[-2.77276,51.87682],[-2.77825,51.86599],[-2.76758,51.8605],[-2.76205,51.85362],[-2.75626,51.8464],[-2.74619,51.84419],[-2.74358,51.84151],[-2.73886,51.83667],[-2.73302,51.84057],[-2.72759,51.8409],[-2.72007,51.84807],[-2.71639,51.84154],[-2.71117,51.83949],[-2.70745,51.84004],[-2.70508,51.84495],[-2.69731,51.84478],[-2.69341,51.83771],[-2.69335,51.83388],[-2.68699,51.83306],[-2.68472,51.83719],[-2.68202,51.83794],[-2.66461,51.83504],[-2.6589,51.83263],[-2.6563,51.82744],[-2.65021,51.82615],[-2.65134,51.82419],[-2.65991,51.8224],[-2.6598,51.81129],[-2.67205,51.80867],[-2.67766,51.80322],[-2.67648,51.7988],[-2.66954,51.79437],[-2.67583,51.78807],[-2.67437,51.78346],[-2.67936,51.76836],[-2.66382,51.75291],[-2.67277,51.73693],[-2.68614,51.73082],[-2.68112,51.7245],[-2.68087,51.71906],[-2.67937,51.71399],[-2.67033,51.70815],[-2.66928,51.70287],[-2.67293,51.70061],[-2.6805,51.70274],[-2.68331,51.70113],[-2.67411,51.69751],[-2.66967,51.69169],[-2.67147,51.68168],[-2.65871,51.67381],[-2.66288,51.67078],[-2.68397,51.66702],[-2.68466,51.66359],[-2.68164,51.66128],[-2.67013,51.66339],[-2.66785,51.6624],[-2.67918,51.64935],[-2.68032,51.64755],[-2.67914,51.64552],[-2.66918,51.64539],[-2.66609,51.6394],[-2.66964,51.63455],[-2.66546,51.62875],[-2.65857,51.62263],[-2.66541,51.61308],[-2.66717,51.61096],[-2.66956,51.60887],[-2.67134,51.60831],[-2.67685,51.60722],[-2.68472,51.60407],[-2.69284,51.60065],[-2.71244,51.58289],[-2.72498,51.582],[-2.74358,51.58031],[-2.74823,51.57989],[-2.7549,51.57901],[-2.75848,51.57801],[-2.76478,51.57502],[-2.77282,51.5732],[-2.79072,51.56677],[-2.82162,51.55408],[-2.82347,51.55396],[-2.83394,51.54954],[-2.83611,51.54931],[-2.84284,51.54685],[-2.84467,51.54575],[-2.84933,51.54463],[-2.86268,51.54253],[-2.86945,51.54249],[-2.88024,51.53896],[-2.88439,51.53894],[-2.89065,51.53598],[-2.89389,51.53624],[-2.89932,51.5356],[-2.90276,51.5346],[-2.90407,51.53383],[-2.90577,51.53255],[-2.91123,51.53383],[-2.92406,51.53625],[-2.94804,51.53508],[-2.95962,51.53648],[-2.98075,51.54487],[-2.97954,51.54806],[-2.96722,51.55308],[-2.96538,51.55627],[-2.96918,51.56145],[-2.9832,51.56852],[-2.98292,51.57102],[-2.97351,51.5763],[-2.97498,51.5793],[-2.98077,51.5817],[-2.98396,51.58473],[-2.98959,51.58731],[-2.99313,51.59067],[-2.98866,51.59815],[-2.99243,51.6076],[-2.99164,51.60445],[-2.99051,51.5973],[-2.99498,51.59129],[-2.9939,51.58882],[-2.99153,51.58693],[-2.98527,51.58374],[-2.97711,51.57671],[-2.98495,51.57312],[-2.98608,51.56799],[-2.97009,51.55703],[-2.97346,51.55451],[-2.99058,51.54989],[-2.99072,51.54554],[-2.99939,51.53383],[-3.01117,51.52843],[-3.02983,51.51988],[-3.04262,51.51857],[-3.04726,51.5138],[-3.0696,51.50435],[-3.07654,51.50465],[-3.08269,51.50191],[-3.09621,51.49569],[-3.10928,51.49208],[-3.11394,51.49281],[-3.12267,51.49044],[-3.13208,51.47445],[-3.14022,51.47293],[-3.13676,51.46652],[-3.15682,51.45196],[-3.16205,51.45435],[-3.16245,51.46243],[-3.16498,51.46262],[-3.17082,51.45829],[-3.17683,51.45996],[-3.17583,51.46308],[-3.17955,51.45937],[-3.17575,51.44809],[-3.18699,51.44806],[-3.1675,51.44528],[-3.16484,51.44095],[-3.16731,51.43525],[-3.17082,51.42716],[-3.17112,51.41991],[-3.17152,51.40601],[-3.19111,51.40022],[-3.20663,51.40057],[-3.22429,51.40342],[-3.23894,51.39725],[-3.26114,51.39364],[-3.26644,51.38786],[-3.27344,51.38995],[-3.28151,51.38819],[-3.28029,51.39216],[-3.28341,51.39326],[-3.28821,51.39111],[-3.29018,51.38668],[-3.3076,51.39234],[-3.31744,51.38853],[-3.34207,51.38141],[-3.34599,51.38195],[-3.35995,51.38386],[-3.39618,51.38272],[-3.40457,51.38181],[-3.40874,51.3859],[-3.41033,51.38683],[-3.41495,51.38778],[-3.42285,51.38842],[-3.42724,51.38748],[-3.43555,51.38863],[-3.44968,51.38817],[-3.47086,51.39302],[-3.47866,51.39248],[-3.52111,51.39997],[-3.54004,51.3978],[-3.55752,51.40124],[-3.56758,51.41261],[-3.57727,51.41908],[-3.58124,51.42584],[-3.59806,51.44126],[-3.60366,51.44205],[-3.60788,51.4469],[-3.6348,51.45827],[-3.64165,51.46431],[-3.63786,51.46984],[-3.61376,51.48008],[-3.5964,51.48457],[-3.59315,51.48223],[-3.58404,51.48341],[-3.58045,51.48515],[-3.57491,51.48624],[-3.57174,51.48814],[-3.56626,51.49017],[-3.55475,51.49278],[-3.53305,51.4824],[-3.53292,51.48727],[-3.53814,51.49102],[-3.52861,51.49387],[-3.52703,51.5001],[-3.51463,51.50336],[-3.50826,51.50806],[-3.50724,51.50924],[-3.50451,51.50975],[-3.50032,51.51187],[-3.49751,51.51265],[-3.49431,51.51245],[-3.48873,51.51298],[-3.47643,51.51521],[-3.46787,51.51503],[-3.46263,51.51425],[-3.45499,51.51204],[-3.4374,51.50721],[-3.40967,51.50624],[-3.4089,51.50253],[-3.40193,51.50065],[-3.395,51.50749],[-3.37887,51.51196],[-3.37127,51.51005],[-3.35877,51.51174],[-3.34599,51.50994],[-3.33582,51.5085],[-3.33895,51.51274],[-3.33607,51.5197],[-3.34299,51.5296],[-3.34238,51.53383],[-3.34159,51.53514],[-3.33767,51.53582],[-3.3355,51.5372],[-3.33055,51.53557],[-3.32417,51.53669],[-3.32066,51.54247],[-3.31168,51.54413],[-3.3099,51.54835],[-3.29218,51.54936],[-3.27785,51.55165],[-3.27316,51.54846],[-3.27283,51.54543],[-3.26157,51.53779],[-3.25103,51.54198],[-3.24467,51.54892],[-3.23752,51.55263],[-3.22773,51.54969],[-3.21707,51.55262],[-3.21587,51.55135],[-3.20277,51.55531],[-3.16394,51.55996],[-3.15738,51.55724],[-3.15257,51.55165],[-3.14025,51.55384],[-3.11887,51.54571],[-3.1116,51.5501],[-3.10787,51.55774],[-3.10128,51.5597],[-3.10284,51.56422],[-3.09469,51.56355],[-3.09016,51.56855],[-3.09074,51.56996],[-3.09326,51.57024],[-3.09744,51.57214],[-3.1001,51.57603],[-3.10294,51.57489],[-3.10477,51.57477],[-3.10872,51.57631],[-3.10957,51.57745],[-3.11497,51.58047],[-3.11773,51.5807],[-3.12175,51.5797],[-3.12169,51.58104],[-3.12383,51.58447],[-3.12354,51.58722],[-3.11868,51.59251],[-3.10508,51.59724],[-3.09436,51.59211],[-3.09113,51.59679],[-3.08242,51.59677],[-3.07821,51.59953],[-3.07354,51.59974],[-3.07301,51.59998],[-3.06453,51.60497],[-3.08028,51.61308],[-3.08178,51.61942],[-3.0694,51.61757],[-3.06327,51.61308],[-3.05999,51.61068],[-3.04503,51.60668],[-3.04535,51.61308],[-3.0485,51.61699],[-3.04743,51.62082],[-3.04404,51.62243],[-3.0367,51.62223],[-3.03114,51.62041],[-3.02673,51.61708],[-3.01954,51.61654],[-3.01117,51.62049],[-3.00071,51.6214],[-2.99055,51.62801],[-2.97675,51.62736],[-2.96393,51.6257],[-2.95894,51.62875],[-2.96021,51.63165],[-2.96822,51.63248],[-2.97344,51.63516],[-2.97867,51.64323],[-2.97649,51.64841],[-2.97961,51.65386],[-2.98929,51.65783],[-2.99032,51.66141],[-2.99339,51.66496],[-3.00025,51.66696],[-3.00329,51.67067],[-3.00092,51.6776],[-2.99098,51.67962],[-2.98869,51.67573],[-2.9813,51.67518],[-2.97587,51.68386],[-2.96996,51.69141],[-2.97128,51.69357],[-3.0013,51.69168],[-2.99796,51.6989],[-2.98335,51.7133],[-2.98769,51.71802],[-2.99154,51.71855],[-2.99462,51.71783],[-2.99766,51.71772],[-2.99974,51.71871],[-3.00111,51.72065],[-3.00282,51.72132],[-3.00483,51.72147],[-3.01117,51.72051],[-3.02544,51.71811],[-3.02569,51.71826],[-3.03303,51.72525],[-3.03152,51.73136],[-3.02831,51.73921],[-3.02764,51.74535],[-3.03539,51.75261],[-3.03451,51.75372],[-3.0443,51.75613],[-3.04955,51.76175],[-3.04796,51.76888],[-3.04349,51.77046],[-3.05882,51.78363],[-3.07685,51.78889],[-3.08225,51.78852],[-3.09635,51.79155],[-3.10598,51.79549],[-3.10836,51.79627],[-3.11619,51.79489],[-3.12239,51.79528],[-3.12928,51.794],[-3.13139,51.79233],[-3.13413,51.79278],[-3.13819,51.79311],[-3.14156,51.79472],[-3.14552,51.79486],[-3.15011,51.79591],[-3.15287,51.79569],[-3.15685,51.7961],[-3.1508,51.79898],[-3.15216,51.80322],[-3.14702,51.80488],[-3.15111,51.8126],[-3.15734,51.81606],[-3.19207,51.81326],[-3.20254,51.81279],[-3.20653,51.81377],[-3.20831,51.81348],[-3.21907,51.81308],[-3.23785,51.8125],[-3.24824,51.81516],[-3.28343,51.8255],[-3.30858,51.80614],[-3.31009,51.79431],[-3.31704,51.79426],[-3.33446,51.79041],[-3.34599,51.79006],[-3.35144,51.78989],[-3.35768,51.79075],[-3.35475,51.79982],[-3.35645,51.80655],[-3.36581,51.80514],[-3.37276,51.81141],[-3.37968,51.81141],[-3.38759,51.81514],[-3.40128,51.81437],[-3.40573,51.82001],[-3.40274,51.82585],[-3.40874,51.8301],[-3.41713,51.83511],[-3.42236,51.82894],[-3.42841,51.82495],[-3.4312,51.8237],[-3.43246,51.82173],[-3.44153,51.81667],[-3.4442,51.81649],[-3.44691,51.82203],[-3.45922,51.82927],[-3.47007,51.82851],[-3.46902,51.82347],[-3.47664,51.80955],[-3.50173,51.80119],[-3.53055,51.7865],[-3.53975,51.78479],[-3.53558,51.7791],[-3.53728,51.77659],[-3.54281,51.77588],[-3.55267,51.77819],[-3.56007,51.77682],[-3.56671,51.7645],[-3.5876,51.75767],[-3.59129,51.75462],[-3.59514,51.7587],[-3.59759,51.76899],[-3.60136,51.77177],[-3.60368,51.77323],[-3.61132,51.77204],[-3.62567,51.77438],[-3.65403,51.78517],[-3.67068,51.78655],[-3.68447,51.78076],[-3.69404,51.78133],[-3.71203,51.7784],[-3.71487,51.77823],[-3.71908,51.77818],[-3.72782,51.77597],[-3.7352,51.77078],[-3.7327,51.7669],[-3.73752,51.75811],[-3.74613,51.75393],[-3.7538,51.75339],[-3.77032,51.75453],[-3.77762,51.75669],[-3.78055,51.75964],[-3.77759,51.76329],[-3.78014,51.76829],[-3.7831,51.77369],[-3.79566,51.78137],[-3.80188,51.78278],[-3.80665,51.78793],[-3.80659,51.7964],[-3.79529,51.80918],[-3.78825,51.81275],[-3.78265,51.82181],[-3.7835,51.82894],[-3.77643,51.8394],[-3.77242,51.84595],[-3.76474,51.85185],[-3.76059,51.85362],[-3.75313,51.8568],[-3.74687,51.86212],[-3.73785,51.86469],[-3.71442,51.88672],[-3.71687,51.89746],[-3.71756,51.90045],[-3.71438,51.90544],[-3.72447,51.90887],[-3.72713,51.91169],[-3.71871,51.92928],[-3.72029,51.94168],[-3.71145,51.94632],[-3.70081,51.9466],[-3.70427,51.94904],[-3.70319,51.95442],[-3.71028,51.96236],[-3.69503,51.97696],[-3.6964,51.98027],[-3.69684,51.98323],[-3.68609,51.99147],[-3.68434,51.9953],[-3.6706,52.00412],[-3.66615,52.01251],[-3.66707,52.01544],[-3.67277,52.0171],[-3.67082,52.02143],[-3.66091,52.03195],[-3.64713,52.0388],[-3.65692,52.04518],[-3.65904,52.04656],[-3.66319,52.05266],[-3.67864,52.0602],[-3.66892,52.07001],[-3.6682,52.07409],[-3.68166,52.07428],[-3.70202,52.08243],[-3.72204,52.08564],[-3.72329,52.09221],[-3.7276,52.0944],[-3.71485,52.10455],[-3.719,52.11618],[-3.72289,52.11596],[-3.72833,52.11934],[-3.74218,52.12226],[-3.75007,52.12739],[-3.7581,52.12824],[-3.75771,52.13008],[-3.75602,52.1305],[-3.7526,52.13262],[-3.74562,52.13584],[-3.743,52.14099],[-3.75002,52.1637],[-3.75094,52.18036],[-3.74694,52.19273],[-3.75185,52.19844],[-3.74675,52.21049],[-3.7502,52.21772],[-3.74312,52.22869],[-3.74493,52.23199],[-3.74994,52.23364],[-3.74494,52.24649],[-3.75276,52.25229],[-3.74629,52.2575],[-3.74348,52.26457],[-3.73723,52.2664],[-3.73175,52.2708],[-3.7244,52.27038],[-3.71781,52.27342],[-3.70564,52.27394],[-3.72414,52.2874],[-3.73223,52.28998],[-3.73248,52.29298],[-3.72677,52.29982],[-3.72955,52.30779],[-3.74019,52.31205],[-3.74387,52.31783],[-3.70611,52.34068],[-3.68653,52.34004],[-3.6598,52.34739],[-3.6692,52.35935],[-3.68543,52.36824],[-3.69202,52.36657],[-3.6972,52.36694],[-3.69592,52.37012],[-3.70085,52.37701],[-3.70399,52.38833],[-3.71009,52.39372],[-3.7081,52.39981],[-3.71283,52.40266],[-3.71276,52.41335],[-3.72895,52.41835],[-3.73315,52.42162],[-3.73186,52.42559],[-3.73903,52.43042],[-3.77136,52.44318],[-3.76435,52.45918],[-3.76583,52.46856],[-3.74507,52.47494],[-3.73932,52.48519],[-3.74052,52.4951],[-3.73091,52.49923],[-3.73326,52.5066],[-3.747,52.50681],[-3.75819,52.50091],[-3.76688,52.4989],[-3.77357,52.4887],[-3.7894,52.48664],[-3.79747,52.48731],[-3.81008,52.47928],[-3.81606,52.48272],[-3.82248,52.48384],[-3.82577,52.48441],[-3.82648,52.48854],[-3.83752,52.49838],[-3.84394,52.5138],[-3.83676,52.52629],[-3.84191,52.55147],[-3.86073,52.56072],[-3.9001,52.56021],[-3.91379,52.56197],[-3.91576,52.56179],[-3.92661,52.56078],[-3.92865,52.57057],[-3.91576,52.57406],[-3.91326,52.57782],[-3.8897,52.57751],[-3.87772,52.5824],[-3.87279,52.58992],[-3.87443,52.59219],[-3.86591,52.59226],[-3.86137,52.59834],[-3.85675,52.60042],[-3.85115,52.60071],[-3.84882,52.60123],[-3.84219,52.59959],[-3.84268,52.60374],[-3.84773,52.60726],[-3.84546,52.61229],[-3.84944,52.62024],[-3.84446,52.62302],[-3.84538,52.6289],[-3.83633,52.63197],[-3.83444,52.63502],[-3.84241,52.63921],[-3.84323,52.64403],[-3.83714,52.65546],[-3.82248,52.66587],[-3.81617,52.67295],[-3.80458,52.67769],[-3.78868,52.6715],[-3.77146,52.67095],[-3.76536,52.67238],[-3.75889,52.67081],[-3.74288,52.68014],[-3.73476,52.67832],[-3.71707,52.67794],[-3.71037,52.67186],[-3.70337,52.6772],[-3.69932,52.68574],[-3.68515,52.69269],[-3.67544,52.6935],[-3.66339,52.69144],[-3.65401,52.69206],[-3.64708,52.69606],[-3.62151,52.69722],[-3.6125,52.70263],[-3.60198,52.7051],[-3.60438,52.70963],[-3.60012,52.72363],[-3.59148,52.73445],[-3.58426,52.7381],[-3.5909,52.74208],[-3.58926,52.74726],[-3.59417,52.7549],[-3.5906,52.76527],[-3.59864,52.77898],[-3.59773,52.78323],[-3.60635,52.78785],[-3.607,52.79753],[-3.60474,52.79894],[-3.60335,52.80055],[-3.60116,52.8016],[-3.59957,52.80354],[-3.59693,52.80503],[-3.59764,52.80856],[-3.59649,52.81102],[-3.59776,52.8119],[-3.59648,52.81286],[-3.59705,52.81408],[-3.5923,52.81789],[-3.59103,52.82143],[-3.5865,52.82777],[-3.57918,52.82587],[-3.57329,52.82354],[-3.56817,52.82293],[-3.56438,52.82639],[-3.56654,52.83004],[-3.53491,52.83774],[-3.51786,52.83762],[-3.50703,52.84138],[-3.48307,52.86554],[-3.47994,52.86441],[-3.47298,52.8633],[-3.4693,52.86199],[-3.46729,52.86213],[-3.44682,52.86476],[-3.40836,52.87158],[-3.38893,52.87613],[-3.3803,52.88379],[-3.37501,52.89247],[-3.37541,52.89477],[-3.37308,52.90111],[-3.36936,52.9025],[-3.36342,52.9037],[-3.35941,52.90542],[-3.35862,52.90708],[-3.3559,52.90958],[-3.3543,52.91375],[-3.35154,52.91541],[-3.34881,52.91633],[-3.35207,52.91845],[-3.35372,52.92079],[-3.35342,52.922],[-3.34862,52.92265],[-3.33992,52.92515],[-3.33809,52.92697],[-3.3327,52.92804],[-3.32663,52.93238],[-3.32433,52.93187],[-3.32037,52.93879],[-3.31426,52.94688],[-3.30739,52.94638],[-3.2974,52.94313],[-3.29062,52.9445],[-3.27591,52.94433],[-3.25059,52.94583],[-3.24707,52.94649],[-3.2432,52.94722],[-3.23738,52.94941],[-3.23743,52.95103],[-3.19685,52.94441],[-3.17277,52.94852],[-3.16052,52.94827],[-3.13656,52.95399],[-3.12348,52.95455],[-3.11018,52.9558],[-3.10048,52.95875],[-3.10545,52.9619],[-3.09392,52.96469],[-3.09196,52.97066],[-3.09718,52.97232],[-3.10947,52.97027],[-3.1101,52.97328],[-3.11973,52.9767],[-3.12312,52.9869],[-3.12721,52.98732],[-3.13124,52.98828],[-3.13873,52.99268],[-3.14309,52.99369],[-3.14876,52.9986],[-3.14585,53.00073],[-3.14506,53.00481],[-3.14698,53.00861],[-3.1335,53.01862],[-3.13225,53.02109],[-3.13259,53.03042],[-3.14083,53.04102],[-3.14673,53.0442],[-3.12994,53.0608],[-3.1279,53.06861],[-3.12961,53.07239],[-3.13336,53.07343],[-3.1368,53.07346],[-3.13993,53.07539],[-3.14128,53.07649],[-3.13983,53.07949],[-3.14073,53.08057],[-3.15105,53.09342],[-3.14671,53.10359],[-3.16437,53.1063],[-3.17259,53.11101],[-3.17944,53.12713],[-3.18522,53.14074],[-3.18191,53.14551],[-3.18306,53.15359],[-3.20316,53.15932],[-3.20817,53.15985],[-3.21293,53.15589],[-3.22292,53.15364],[-3.23238,53.15457],[-3.24609,53.1526],[-3.255,53.15427],[-3.27001,53.15741],[-3.27234,53.16285],[-3.27938,53.1675],[-3.27874,53.17555],[-3.27577,53.1788],[-3.27817,53.18206],[-3.2898,53.19114],[-3.30043,53.19402],[-3.31017,53.20042],[-3.30506,53.20773],[-3.31085,53.20706],[-3.31528,53.20908],[-3.32143,53.21981],[-3.30531,53.23245],[-3.31427,53.23554],[-3.3338,53.23669],[-3.33402,53.23961],[-3.34303,53.24663],[-3.35102,53.25188],[-3.35865,53.25365],[-3.32979,53.27324],[-3.35616,53.28361],[-3.35795,53.2876],[-3.35574,53.29701],[-3.36102,53.29771],[-3.36389,53.29407],[-3.37447,53.29224],[-3.38278,53.3005],[-3.39424,53.30172],[-3.3834,53.31393],[-3.38984,53.31391],[-3.39634,53.31089],[-3.40059,53.31385],[-3.39934,53.31588],[-3.40022,53.31766],[-3.39709,53.31924],[-3.39696,53.32208],[-3.39596,53.32336],[-3.39189,53.32722],[-3.38796,53.32402],[-3.37615,53.32771],[-3.37583,53.33215],[-3.36785,53.33677],[-3.36829,53.34522],[-3.36066,53.3466],[-3.36339,53.35203],[-3.32267,53.35735],[-3.31063,53.35555],[-3.31233,53.35217],[-3.30773,53.33734],[-3.28853,53.32716]],[[-3.02363,53.21271],[-3.019,53.21185],[-3.04082,53.22048],[-3.04336,53.2214],[-3.04817,53.22221],[-3.05468,53.22269],[-3.06058,53.22547],[-3.06299,53.22503],[-3.06212,53.22306],[-3.05742,53.22138],[-3.04884,53.22081],[-3.04445,53.22001],[-3.03415,53.21646],[-3.02363,53.21271]],[[-3.03792,52.7639],[-3.03233,52.76357],[-3.03307,52.76632],[-3.0388,52.76537],[-3.03792,52.7639]]],[[[-3.11738,51.37875],[-3.11768,51.37505],[-3.1214,51.37517],[-3.12525,51.37696],[-3.12524,51.37837],[-3.12129,51.38036],[-3.11738,51.37875]]],[[[-3.095,53.26181],[-3.08805,53.25776],[-3.09069,53.25816],[-3.09311,53.25984],[-3.09661,53.25996],[-3.1004,53.26169],[-3.10135,53.26694],[-3.09912,53.26505],[-3.09734,53.2636],[-3.095,53.26181]]],[[[-3.19758,51.3949],[-3.20203,51.39459],[-3.20393,51.39564],[-3.20089,51.39721],[-3.19662,51.39657],[-3.19758,51.3949]]]]},"properties":{"code":"UKL2","nom":"East Wales","country":"WAL"}},{"type":"Feature","geometry":{"type":"MultiPolygon","coordinates":[[[[-3.37583,53.33215],[-3.37615,53.32771],[-3.38796,53.32402],[-3.39189,53.32722],[-3.39596,53.32336],[-3.39696,53.32208],[-3.39709,53.31924],[-3.40022,53.31766],[-3.39934,53.31588],[-3.40059,53.31385],[-3.39634,53.31089],[-3.38984,53.31391],[-3.3834,53.31393],[-3.39424,53.30172],[-3.38278,53.3005],[-3.37447,53.29224],[-3.36389,53.29407],[-3.36102,53.29771],[-3.35574,53.29701],[-3.35795,53.2876],[-3.35616,53.28361],[-3.32979,53.27324],[-3.35865,53.25365],[-3.35102,53.25188],[-3.34303,53.24663],[-3.33402,53.23961],[-3.3338,53.23669],[-3.31427,53.23554],[-3.30531,53.23245],[-3.32143,53.21981],[-3.31528,53.20908],[-3.31085,53.20706],[-3.30506,53.20773],[-3.31017,53.20042],[-3.30043,53.19402],[-3.2898,53.19114],[-3.27817,53.18206],[-3.27577,53.1788],[-3.27874,53.17555],[-3.27938,53.1675],[-3.27234,53.16285],[-3.27001,53.15741],[-3.255,53.15427],[-3.24609,53.1526],[-3.23238,53.15457],[-3.22292,53.15364],[-3.21293,53.15589],[-3.20817,53.15985],[-3.20316,53.15932],[-3.18306,53.15359],[-3.18191,53.14551],[-3.18522,53.14074],[-3.17944,53.12713],[-3.17259,53.11101],[-3.16437,53.1063],[-3.14671,53.10359],[-3.15105,53.09342],[-3.14073,53.08057],[-3.13983,53.07949],[-3.14128,53.07649],[-3.13993,53.07539],[-3.1368,53.07346],[-3.13336,53.07343],[-3.12961,53.07239],[-3.1279,53.06861],[-3.12994,53.0608],[-3.14673,53.0442],[-3.14083,53.04102],[-3.13259,53.03042],[-3.13225,53.02109],[-3.1335,53.01862],[-3.14698,53.00861],[-3.14506,53.00481],[-3.14585,53.00073],[-3.14876,52.9986],[-3.14309,52.99369],[-3.13873,52.99268],[-3.13124,52.98828],[-3.12721,52.98732],[-3.12312,52.9869],[-3.11973,52.9767],[-3.1101,52.97328],[-3.10947,52.97027],[-3.09718,52.97232],[-3.09196,52.97066],[-3.09392,52.96469],[-3.10545,52.9619],[-3.10048,52.95875],[-3.11018,52.9558],[-3.12348,52.95455],[-3.13656,52.95399],[-3.16052,52.94827],[-3.17277,52.94852],[-3.19685,52.94441],[-3.23743,52.95103],[-3.23738,52.94941],[-3.2432,52.94722],[-3.24707,52.94649],[-3.25059,52.94583],[-3.27591,52.94433],[-3.29062,52.9445],[-3.2974,52.94313],[-3.30739,52.94638],[-3.31426,52.94688],[-3.32037,52.93879],[-3.32433,52.93187],[-3.32663,52.93238],[-3.3327,52.92804],[-3.33809,52.92697],[-3.33992,52.92515],[-3.34862,52.92265],[-3.35342,52.922],[-3.35372,52.92079],[-3.35207,52.91845],[-3.34881,52.91633],[-3.35154,52.91541],[-3.3543,52.91375],[-3.3559,52.90958],[-3.35862,52.90708],[-3.35941,52.90542],[-3.36342,52.9037],[-3.36936,52.9025],[-3.37308,52.90111],[-3.37541,52.89477],[-3.37501,52.89247],[-3.3803,52.88379],[-3.38893,52.87613],[-3.40836,52.87158],[-3.44682,52.86476],[-3.46729,52.86213],[-3.4693,52.86199],[-3.47298,52.8633],[-3.47994,52.86441],[-3.48307,52.86554],[-3.50703,52.84138],[-3.51786,52.83762],[-3.53491,52.83774],[-3.56654,52.83004],[-3.56438,52.82639],[-3.56817,52.82293],[-3.57329,52.82354],[-3.57918,52.82587],[-3.5865,52.82777],[-3.59103,52.82143],[-3.5923,52.81789],[-3.59705,52.81408],[-3.59648,52.81286],[-3.59776,52.8119],[-3.59649,52.81102],[-3.59764,52.80856],[-3.59693,52.80503],[-3.59957,52.80354],[-3.60116,52.8016],[-3.60335,52.80055],[-3.60474,52.79894],[-3.607,52.79753],[-3.60635,52.78785],[-3.59773,52.78323],[-3.59864,52.77898],[-3.5906,52.76527],[-3.59417,52.7549],[-3.58926,52.74726],[-3.5909,52.74208],[-3.58426,52.7381],[-3.59148,52.73445],[-3.60012,52.72363],[-3.60438,52.70963],[-3.60198,52.7051],[-3.6125,52.70263],[-3.62151,52.69722],[-3.64708,52.69606],[-3.65401,52.69206],[-3.66339,52.69144],[-3.67544,52.6935],[-3.68515,52.69269],[-3.69932,52.68574],[-3.70337,52.6772],[-3.71037,52.67186],[-3.71707,52.67794],[-3.73476,52.67832],[-3.74288,52.68014],[-3.75889,52.67081],[-3.76536,52.67238],[-3.77146,52.67095],[-3.78868,52.6715],[-3.80458,52.67769],[-3.81617,52.67295],[-3.82248,52.66587],[-3.83714,52.65546],[-3.84323,52.64403],[-3.84241,52.63921],[-3.83444,52.63502],[-3.83633,52.63197],[-3.84538,52.6289],[-3.84446,52.62302],[-3.84944,52.62024],[-3.84546,52.61229],[-3.84773,52.60726],[-3.84268,52.60374],[-3.84219,52.59959],[-3.84882,52.60123],[-3.85115,52.60071],[-3.85675,52.60042],[-3.86137,52.59834],[-3.86591,52.59226],[-3.87443,52.59219],[-3.87279,52.58992],[-3.87772,52.5824],[-3.8897,52.57751],[-3.91326,52.57782],[-3.91576,52.57406],[-3.92865,52.57057],[-3.92661,52.56078],[-3.91576,52.56179],[-3.91379,52.56197],[-3.9001,52.56021],[-3.86073,52.56072],[-3.84191,52.55147],[-3.83676,52.52629],[-3.84394,52.5138],[-3.83752,52.49838],[-3.82648,52.48854],[-3.82577,52.48441],[-3.82248,52.48384],[-3.81606,52.48272],[-3.81008,52.47928],[-3.79747,52.48731],[-3.7894,52.48664],[-3.77357,52.4887],[-3.76688,52.4989],[-3.75819,52.50091],[-3.747,52.50681],[-3.73326,52.5066],[-3.73091,52.49923],[-3.74052,52.4951],[-3.73932,52.48519],[-3.74507,52.47494],[-3.76583,52.46856],[-3.76435,52.45918],[-3.77136,52.44318],[-3.73903,52.43042],[-3.73186,52.42559],[-3.73315,52.42162],[-3.72895,52.41835],[-3.71276,52.41335],[-3.71283,52.40266],[-3.7081,52.39981],[-3.71009,52.39372],[-3.70399,52.38833],[-3.70085,52.37701],[-3.69592,52.37012],[-3.6972,52.36694],[-3.69202,52.36657],[-3.68543,52.36824],[-3.6692,52.35935],[-3.6598,52.34739],[-3.68653,52.34004],[-3.70611,52.34068],[-3.74387,52.31783],[-3.74019,52.31205],[-3.72955,52.30779],[-3.72677,52.29982],[-3.73248,52.29298],[-3.73223,52.28998],[-3.72414,52.2874],[-3.70564,52.27394],[-3.71781,52.27342],[-3.7244,52.27038],[-3.73175,52.2708],[-3.73723,52.2664],[-3.74348,52.26457],[-3.74629,52.2575],[-3.75276,52.25229],[-3.74494,52.24649],[-3.74994,52.23364],[-3.74493,52.23199],[-3.74312,52.22869],[-3.7502,52.21772],[-3.74675,52.21049],[-3.75185,52.19844],[-3.74694,52.19273],[-3.75094,52.18036],[-3.75002,52.1637],[-3.743,52.14099],[-3.74562,52.13584],[-3.7526,52.13262],[-3.75602,52.1305],[-3.75771,52.13008],[-3.7581,52.12824],[-3.75007,52.12739],[-3.74218,52.12226],[-3.72833,52.11934],[-3.72289,52.11596],[-3.719,52.11618],[-3.71485,52.10455],[-3.7276,52.0944],[-3.72329,52.09221],[-3.72204,52.08564],[-3.70202,52.08243],[-3.68166,52.07428],[-3.6682,52.07409],[-3.66892,52.07001],[-3.67864,52.0602],[-3.66319,52.05266],[-3.65904,52.04656],[-3.65692,52.04518],[-3.64713,52.0388],[-3.66091,52.03195],[-3.67082,52.02143],[-3.67277,52.0171],[-3.66707,52.01544],[-3.66615,52.01251],[-3.6706,52.00412],[-3.68434,51.9953],[-3.68609,51.99147],[-3.69684,51.98323],[-3.6964,51.98027],[-3.69503,51.97696],[-3.71028,51.96236],[-3.70319,51.95442],[-3.70427,51.94904],[-3.70081,51.9466],[-3.71145,51.94632],[-3.72029,51.94168],[-3.71871,51.92928],[-3.72713,51.91169],[-3.72447,51.90887],[-3.71438,51.90544],[-3.71756,51.90045],[-3.71687,51.89746],[-3.71442,51.88672],[-3.73785,51.86469],[-3.74687,51.86212],[-3.75313,51.8568],[-3.76059,51.85362],[-3.76474,51.85185],[-3.77242,51.84595],[-3.77643,51.8394],[-3.7835,51.82894],[-3.78265,51.82181],[-3.78825,51.81275],[-3.79529,51.80918],[-3.80659,51.7964],[-3.80665,51.78793],[-3.80188,51.78278],[-3.79566,51.78137],[-3.7831,51.77369],[-3.78014,51.76829],[-3.77759,51.76329],[-3.78055,51.75964],[-3.77762,51.75669],[-3.77032,51.75453],[-3.7538,51.75339],[-3.74613,51.75393],[-3.73752,51.75811],[-3.7327,51.7669],[-3.7352,51.77078],[-3.72782,51.77597],[-3.71908,51.77818],[-3.71487,51.77823],[-3.71203,51.7784],[-3.69404,51.78133],[-3.68447,51.78076],[-3.67068,51.78655],[-3.65403,51.78517],[-3.62567,51.77438],[-3.61132,51.77204],[-3.60368,51.77323],[-3.60136,51.77177],[-3.59759,51.76899],[-3.59514,51.7587],[-3.59129,51.75462],[-3.5876,51.75767],[-3.56671,51.7645],[-3.56007,51.77682],[-3.55267,51.77819],[-3.54281,51.77588],[-3.53728,51.77659],[-3.53558,51.7791],[-3.53975,51.78479],[-3.53055,51.7865],[-3.50173,51.80119],[-3.47664,51.80955],[-3.46902,51.82347],[-3.47007,51.82851],[-3.45922,51.82927],[-3.44691,51.82203],[-3.4442,51.81649],[-3.44153,51.81667],[-3.43246,51.82173],[-3.4312,51.8237],[-3.42841,51.82495],[-3.42236,51.82894],[-3.41713,51.83511],[-3.40874,51.8301],[-3.40274,51.82585],[-3.40573,51.82001],[-3.40128,51.81437],[-3.38759,51.81514],[-3.37968,51.81141],[-3.37276,51.81141],[-3.36581,51.80514],[-3.35645,51.80655],[-3.35475,51.79982],[-3.35768,51.79075],[-3.35144,51.78989],[-3.34599,51.79006],[-3.33446,51.79041],[-3.31704,51.79426],[-3.31009,51.79431],[-3.30858,51.80614],[-3.28343,51.8255],[-3.24824,51.81516],[-3.23785,51.8125],[-3.21907,51.81308],[-3.20831,51.81348],[-3.20653,51.81377],[-3.20254,51.81279],[-3.19207,51.81326],[-3.15734,51.81606],[-3.15111,51.8126],[-3.14702,51.80488],[-3.15216,51.80322],[-3.1508,51.79898],[-3.15685,51.7961],[-3.15287,51.79569],[-3.15011,51.79591],[-3.14552,51.79486],[-3.14156,51.79472],[-3.13819,51.79311],[-3.13413,51.79278],[-3.13139,51.79233],[-3.12928,51.794],[-3.12239,51.79528],[-3.11619,51.79489],[-3.10836,51.79627],[-3.10598,51.79549],[-3.09635,51.79155],[-3.08225,51.78852],[-3.07685,51.78889],[-3.05882,51.78363],[-3.04349,51.77046],[-3.04796,51.76888],[-3.04955,51.76175],[-3.0443,51.75613],[-3.03451,51.75372],[-3.03539,51.75261],[-3.02764,51.74535],[-3.02831,51.73921],[-3.03152,51.73136],[-3.03303,51.72525],[-3.02569,51.71826],[-3.02544,51.71811],[-3.01117,51.72051],[-3.00483,51.72147],[-3.00282,51.72132],[-3.00111,51.72065],[-2.99974,51.71871],[-2.99766,51.71772],[-2.99462,51.71783],[-2.99154,51.71855],[-2.98769,51.71802],[-2.98335,51.7133],[-2.99796,51.6989],[-3.0013,51.69168],[-2.97128,51.69357],[-2.96996,51.69141],[-2.97587,51.68386],[-2.9813,51.67518],[-2.98869,51.67573],[-2.99098,51.67962],[-3.00092,51.6776],[-3.00329,51.67067],[-3.00025,51.66696],[-2.99339,51.66496],[-2.99032,51.66141],[-2.98929,51.65783],[-2.97961,51.65386],[-2.97649,51.64841],[-2.97867,51.64323],[-2.97344,51.63516],[-2.96822,51.63248],[-2.96021,51.63165],[-2.95894,51.62875],[-2.96393,51.6257],[-2.97675,51.62736],[-2.99055,51.62801],[-3.00071,51.6214],[-3.01117,51.62049],[-3.01954,51.61654],[-3.02673,51.61708],[-3.03114,51.62041],[-3.0367,51.62223],[-3.04404,51.62243],[-3.04743,51.62082],[-3.0485,51.61699],[-3.04535,51.61308],[-3.04503,51.60668],[-3.05999,51.61068],[-3.06327,51.61308],[-3.0694,51.61757],[-3.08178,51.61942],[-3.08028,51.61308],[-3.06453,51.60497],[-3.07301,51.59998],[-3.07354,51.59974],[-3.07821,51.59953],[-3.08242,51.59677],[-3.09113,51.59679],[-3.09436,51.59211],[-3.10508,51.59724],[-3.11868,51.59251],[-3.12354,51.58722],[-3.12383,51.58447],[-3.12169,51.58104],[-3.12175,51.5797],[-3.11773,51.5807],[-3.11497,51.58047],[-3.10957,51.57745],[-3.10872,51.57631],[-3.10477,51.57477],[-3.10294,51.57489],[-3.1001,51.57603],[-3.09744,51.57214],[-3.09326,51.57024],[-3.09074,51.56996],[-3.09016,51.56855],[-3.09469,51.56355],[-3.10284,51.56422],[-3.10128,51.5597],[-3.10787,51.55774],[-3.1116,51.5501],[-3.11887,51.54571],[-3.14025,51.55384],[-3.15257,51.55165],[-3.15738,51.55724],[-3.16394,51.55996],[-3.20277,51.55531],[-3.21587,51.55135],[-3.21707,51.55262],[-3.22773,51.54969],[-3.23752,51.55263],[-3.24467,51.54892],[-3.25103,51.54198],[-3.26157,51.53779],[-3.27283,51.54543],[-3.27316,51.54846],[-3.27785,51.55165],[-3.29218,51.54936],[-3.3099,51.54835],[-3.31168,51.54413],[-3.32066,51.54247],[-3.32417,51.53669],[-3.33055,51.53557],[-3.3355,51.5372],[-3.33767,51.53582],[-3.34159,51.53514],[-3.34238,51.53383],[-3.34299,51.5296],[-3.33607,51.5197],[-3.33895,51.51274],[-3.33582,51.5085],[-3.34599,51.50994],[-3.35877,51.51174],[-3.37127,51.51005],[-3.37887,51.51196],[-3.395,51.50749],[-3.40193,51.50065],[-3.4089,51.50253],[-3.40967,51.50624],[-3.4374,51.50721],[-3.45499,51.51204],[-3.46263,51.51425],[-3.46787,51.51503],[-3.47643,51.51521],[-3.48873,51.51298],[-3.49431,51.51245],[-3.49751,51.51265],[-3.50032,51.51187],[-3.50451,51.50975],[-3.50724,51.50924],[-3.50826,51.50806],[-3.51463,51.50336],[-3.52703,51.5001],[-3.52861,51.49387],[-3.53814,51.49102],[-3.53292,51.48727],[-3.53305,51.4824],[-3.55475,51.49278],[-3.56626,51.49017],[-3.57174,51.48814],[-3.57491,51.48624],[-3.58045,51.48515],[-3.58404,51.48341],[-3.59315,51.48223],[-3.5964,51.48457],[-3.61376,51.48008],[-3.63786,51.46984],[-3.64103,51.47127],[-3.65039,51.47768],[-3.65287,51.47805],[-3.65883,51.47998],[-3.66665,51.48067],[-3.67438,51.47895],[-3.67943,51.47477],[-3.68743,51.47707],[-3.69737,51.47803],[-3.7017,51.47405],[-3.71628,51.47942],[-3.72026,51.48026],[-3.7255,51.48956],[-3.73625,51.49922],[-3.74322,51.50084],[-3.74684,51.50481],[-3.76153,51.5364],[-3.78145,51.56143],[-3.78911,51.56838],[-3.7905,51.56964],[-3.79682,51.57084],[-3.80154,51.57982],[-3.80992,51.58219],[-3.80982,51.58779],[-3.81755,51.59331],[-3.83692,51.60434],[-3.84833,51.61308],[-3.85008,51.61442],[-3.83781,51.62157],[-3.83217,51.62569],[-3.83131,51.63302],[-3.83641,51.6243],[-3.85006,51.61891],[-3.88623,51.61739],[-3.8941,51.61787],[-3.90377,51.61308],[-3.91576,51.6105],[-3.92046,51.60949],[-3.92581,51.61185],[-3.92617,51.61308],[-3.92691,51.61554],[-3.93362,51.62005],[-3.93419,51.61877],[-3.92974,51.61515],[-3.92941,51.61337],[-3.93987,51.61372],[-3.94661,51.61308],[-3.96142,51.61168],[-3.97203,51.60892],[-3.97411,51.60824],[-3.97699,51.6073],[-3.98242,51.60479],[-3.99236,51.59883],[-3.99735,51.59152],[-3.99948,51.58713],[-4.00057,51.58023],[-3.99954,51.57876],[-3.99788,51.57566],[-3.99602,51.57441],[-3.98515,51.57095],[-3.98325,51.57051],[-3.97794,51.56882],[-3.98106,51.56552],[-3.99203,51.56361],[-4.00608,51.56706],[-4.0115,51.56756],[-4.01482,51.56453],[-4.02358,51.56357],[-4.03143,51.57005],[-4.05693,51.56477],[-4.06034,51.55883],[-4.06456,51.5576],[-4.07442,51.56189],[-4.07783,51.56185],[-4.08412,51.56179],[-4.09026,51.56456],[-4.11281,51.56795],[-4.13231,51.56911],[-4.14809,51.56573],[-4.15666,51.56062],[-4.15933,51.55509],[-4.14773,51.54667],[-4.15199,51.542],[-4.17987,51.5474],[-4.18186,51.54779],[-4.19556,51.54778],[-4.20659,51.54451],[-4.21129,51.53809],[-4.21872,51.54101],[-4.23867,51.54292],[-4.28383,51.56028],[-4.31028,51.55894],[-4.32595,51.56404],[-4.32262,51.56532],[-4.31007,51.56285],[-4.29101,51.57068],[-4.29173,51.5868],[-4.3063,51.61073],[-4.30101,51.61308],[-4.29748,51.61465],[-4.28602,51.61539],[-4.27392,51.62342],[-4.26206,51.62632],[-4.24403,51.64713],[-4.23233,51.64246],[-4.2361,51.631],[-4.21493,51.62947],[-4.21252,51.63446],[-4.1932,51.62984],[-4.18588,51.62635],[-4.17987,51.62572],[-4.17153,51.62484],[-4.16144,51.63214],[-4.15392,51.6354],[-4.14042,51.63491],[-4.13802,51.63946],[-4.13063,51.64065],[-4.11327,51.64364],[-4.1162,51.64601],[-4.1133,51.64934],[-4.09151,51.65609],[-4.07783,51.6575],[-4.07783,51.65964],[-4.08029,51.66214],[-4.07783,51.66345],[-4.07118,51.66699],[-4.06941,51.67288],[-4.07543,51.67826],[-4.07579,51.68323],[-4.07389,51.68428],[-4.07093,51.68195],[-4.06876,51.68258],[-4.05931,51.69772],[-4.05167,51.70046],[-4.05255,51.70328],[-4.06576,51.69599],[-4.06846,51.69051],[-4.07783,51.68886],[-4.07958,51.68827],[-4.08216,51.68486],[-4.08188,51.67679],[-4.08146,51.66472],[-4.0857,51.66254],[-4.0916,51.66315],[-4.10602,51.66068],[-4.13063,51.65861],[-4.1325,51.6603],[-4.13557,51.66009],[-4.14616,51.65566],[-4.15269,51.65637],[-4.17943,51.67739],[-4.18506,51.68104],[-4.19807,51.6837],[-4.21526,51.68503],[-4.22449,51.68367],[-4.22855,51.67947],[-4.25487,51.67851],[-4.25973,51.67679],[-4.26221,51.6759],[-4.2651,51.67557],[-4.26501,51.67238],[-4.28633,51.66799],[-4.30271,51.66991],[-4.3177,51.67527],[-4.31991,51.67679],[-4.36219,51.70583],[-4.37497,51.71748],[-4.38167,51.72804],[-4.37739,51.7313],[-4.35796,51.72948],[-4.34575,51.73053],[-4.32294,51.72434],[-4.3145,51.72714],[-4.32339,51.72777],[-4.323,51.7342],[-4.32572,51.73573],[-4.36316,51.73785],[-4.37401,51.74635],[-4.37565,51.75544],[-4.37173,51.7674],[-4.36408,51.77609],[-4.36455,51.78753],[-4.34392,51.79645],[-4.33415,51.79706],[-4.32758,51.79942],[-4.32358,51.80298],[-4.31903,51.81742],[-4.32769,51.80091],[-4.33259,51.79909],[-4.3437,51.79898],[-4.36729,51.79197],[-4.37181,51.78753],[-4.37319,51.78616],[-4.37622,51.77633],[-4.38909,51.76496],[-4.40488,51.75729],[-4.41425,51.75885],[-4.4234,51.76295],[-4.43351,51.76367],[-4.44712,51.7696],[-4.43996,51.77472],[-4.43853,51.77924],[-4.44472,51.78499],[-4.45045,51.78753],[-4.45507,51.78957],[-4.46103,51.79023],[-4.464,51.78971],[-4.46658,51.78849],[-4.45789,51.78753],[-4.44888,51.78089],[-4.45932,51.76927],[-4.45548,51.76317],[-4.4186,51.74502],[-4.42324,51.74106],[-4.44578,51.73371],[-4.4657,51.73193],[-4.47282,51.73269],[-4.55766,51.74172],[-4.57936,51.73471],[-4.61021,51.73803],[-4.62842,51.73431],[-4.63285,51.73515],[-4.66094,51.73163],[-4.66974,51.72847],[-4.68641,51.72249],[-4.69679,51.71208],[-4.69565,51.70692],[-4.68758,51.69922],[-4.68271,51.69748],[-4.6968,51.68566],[-4.69982,51.67679],[-4.70093,51.67353],[-4.69602,51.67156],[-4.70537,51.66665],[-4.71461,51.65801],[-4.7157,51.65499],[-4.7129,51.65258],[-4.72085,51.65165],[-4.75399,51.65369],[-4.76011,51.65138],[-4.76095,51.6479],[-4.75675,51.64449],[-4.77587,51.64216],[-4.77638,51.63936],[-4.78243,51.63529],[-4.78961,51.63834],[-4.79173,51.63844],[-4.80507,51.63907],[-4.80471,51.64238],[-4.80762,51.64394],[-4.81481,51.64458],[-4.82409,51.64281],[-4.82647,51.64618],[-4.83145,51.64772],[-4.84508,51.6449],[-4.84813,51.64666],[-4.85908,51.64696],[-4.86647,51.6438],[-4.86647,51.64068],[-4.86522,51.63877],[-4.87491,51.63685],[-4.88196,51.63245],[-4.89604,51.62783],[-4.90237,51.61839],[-4.90017,51.61308],[-4.91945,51.60835],[-4.92579,51.59899],[-4.92998,51.59797],[-4.94599,51.59844],[-4.98493,51.61087],[-5.00858,51.60989],[-5.01988,51.61308],[-5.03314,51.6173],[-5.05841,51.62143],[-5.06137,51.62398],[-5.06111,51.62792],[-5.05214,51.63394],[-5.05089,51.6393],[-5.06449,51.66139],[-5.10694,51.66912],[-5.11772,51.67432],[-5.12275,51.68068],[-5.11032,51.68575],[-5.11087,51.69093],[-5.10319,51.69173],[-5.07947,51.6885],[-5.08218,51.68316],[-5.07485,51.67884],[-5.04904,51.67711],[-5.04379,51.68136],[-5.05204,51.68823],[-5.05027,51.69209],[-5.03046,51.6943],[-5.00631,51.68902],[-4.98391,51.68859],[-4.98308,51.68228],[-4.97698,51.67509],[-4.94632,51.67645],[-4.93787,51.67279],[-4.93617,51.67679],[-4.93509,51.67932],[-4.92962,51.68087],[-4.92959,51.68124],[-4.95098,51.68103],[-4.97227,51.68659],[-4.96829,51.6894],[-4.95749,51.6972],[-4.94763,51.6959],[-4.94378,51.69608],[-4.94261,51.69947],[-4.9311,51.70391],[-4.92195,51.70093],[-4.91951,51.69412],[-4.91377,51.6923],[-4.90758,51.69516],[-4.9174,51.69899],[-4.90473,51.70734],[-4.89154,51.70811],[-4.88417,51.71627],[-4.86647,51.71557],[-4.86376,51.71438],[-4.85774,51.70794],[-4.85538,51.70662],[-4.85463,51.70504],[-4.85242,51.7047],[-4.85038,51.70308],[-4.84818,51.70243],[-4.84613,51.70748],[-4.85993,51.71949],[-4.8452,51.72256],[-4.83426,51.72241],[-4.83142,51.72536],[-4.86383,51.72339],[-4.87564,51.71966],[-4.88056,51.71959],[-4.88272,51.7295],[-4.87626,51.73361],[-4.89538,51.74296],[-4.88653,51.76708],[-4.87179,51.77342],[-4.86147,51.78395],[-4.85,51.78753],[-4.84788,51.78899],[-4.854,51.7887],[-4.85728,51.78753],[-4.86602,51.78384],[-4.87641,51.77577],[-4.893,51.76998],[-4.90821,51.77525],[-4.91239,51.77394],[-4.92468,51.77367],[-4.93877,51.76856],[-4.94213,51.77047],[-4.94263,51.77421],[-4.93661,51.78382],[-4.94486,51.78753],[-4.94597,51.78753],[-4.93729,51.78293],[-4.94652,51.77663],[-4.94679,51.76938],[-4.94125,51.76591],[-4.91634,51.77137],[-4.90193,51.76534],[-4.9008,51.76266],[-4.90583,51.76045],[-4.90092,51.75409],[-4.90001,51.74794],[-4.90834,51.74515],[-4.90454,51.74136],[-4.88796,51.73105],[-4.89423,51.71218],[-4.90704,51.71143],[-4.92055,51.70531],[-4.93058,51.7091],[-4.94252,51.70886],[-4.94544,51.70482],[-4.95395,51.70667],[-4.96831,51.70524],[-4.98406,51.6997],[-4.99707,51.7009],[-5.00978,51.7032],[-5.02149,51.70816],[-5.0363,51.71019],[-5.04223,51.70791],[-5.0494,51.70817],[-5.05119,51.70738],[-5.05385,51.70728],[-5.0598,51.70972],[-5.06464,51.7076],[-5.07818,51.70691],[-5.08623,51.70839],[-5.09577,51.72022],[-5.10483,51.72439],[-5.10761,51.71735],[-5.11626,51.71276],[-5.12642,51.71616],[-5.13831,51.71324],[-5.15197,51.71313],[-5.16868,51.71772],[-5.17128,51.71457],[-5.16961,51.71037],[-5.1557,51.70354],[-5.15498,51.69597],[-5.15864,51.68907],[-5.16817,51.68689],[-5.17488,51.68226],[-5.18771,51.691],[-5.18919,51.70781],[-5.20047,51.71184],[-5.20465,51.71865],[-5.21055,51.72157],[-5.23755,51.7263],[-5.2442,51.72998],[-5.25122,51.73387],[-5.25175,51.73646],[-5.24831,51.73768],[-5.2442,51.73747],[-5.21068,51.73572],[-5.20535,51.74122],[-5.20187,51.75373],[-5.18642,51.75674],[-5.17561,51.76452],[-5.16691,51.76771],[-5.16046,51.77165],[-5.14095,51.77084],[-5.13599,51.7727],[-5.12861,51.76951],[-5.11781,51.76894],[-5.10778,51.77508],[-5.10311,51.78071],[-5.10461,51.78753],[-5.10647,51.796],[-5.10335,51.80498],[-5.10696,51.81672],[-5.11045,51.82071],[-5.10875,51.82377],[-5.11296,51.82441],[-5.1159,51.8278],[-5.11369,51.83488],[-5.11664,51.84315],[-5.1247,51.85362],[-5.12847,51.8585],[-5.13873,51.86348],[-5.15707,51.86191],[-5.16701,51.8643],[-5.1807,51.86184],[-5.179,51.86569],[-5.18105,51.86746],[-5.1924,51.86804],[-5.19681,51.87061],[-5.19853,51.86782],[-5.21064,51.8675],[-5.21837,51.87291],[-5.2322,51.87286],[-5.23856,51.8713],[-5.2442,51.8719],[-5.24613,51.8721],[-5.25077,51.86846],[-5.25423,51.87217],[-5.26041,51.86962],[-5.26362,51.87016],[-5.2674,51.8708],[-5.29373,51.86219],[-5.29801,51.86547],[-5.31009,51.8606],[-5.31596,51.86002],[-5.31972,51.86207],[-5.31911,51.86505],[-5.31047,51.87044],[-5.30808,51.87634],[-5.31541,51.88449],[-5.31029,51.88716],[-5.30413,51.88694],[-5.29603,51.89432],[-5.29833,51.89969],[-5.30472,51.90265],[-5.31214,51.90272],[-5.31204,51.90422],[-5.29007,51.91358],[-5.27568,51.91224],[-5.26362,51.9147],[-5.25667,51.91611],[-5.25002,51.92089],[-5.2442,51.92224],[-5.24181,51.9228],[-5.2322,51.92965],[-5.20761,51.93411],[-5.20922,51.93849],[-5.19963,51.94185],[-5.19953,51.94537],[-5.19321,51.94996],[-5.17744,51.95116],[-5.15602,51.94829],[-5.15508,51.95242],[-5.14434,51.95611],[-5.143,51.96126],[-5.13949,51.96277],[-5.12896,51.9611],[-5.1083,51.96148],[-5.10368,51.96426],[-5.10275,51.96885],[-5.08601,51.96877],[-5.08347,51.97312],[-5.08666,51.98064],[-5.08135,51.98562],[-5.08809,51.9881],[-5.09389,51.99385],[-5.07331,52.00453],[-5.07965,52.00769],[-5.0796,52.01147],[-5.08761,52.01389],[-5.08845,52.01662],[-5.08268,52.02254],[-5.07236,52.02632],[-5.07385,52.03036],[-5.06311,52.03151],[-5.05304,52.02615],[-5.0494,52.02803],[-5.02367,52.02432],[-5.02054,52.02096],[-5.01635,52.02356],[-4.99744,52.02472],[-4.99378,52.02249],[-4.98898,52.02368],[-4.98755,52.01714],[-4.98337,52.01497],[-4.99206,52.0048],[-4.988,51.99947],[-4.97773,52.00042],[-4.97056,51.996],[-4.96934,52.00084],[-4.9609,52.00038],[-4.95558,52.00246],[-4.92717,52.01088],[-4.9203,52.01074],[-4.91953,52.01529],[-4.91071,52.0211],[-4.91761,52.02614],[-4.91001,52.03428],[-4.90328,52.03415],[-4.89435,52.03038],[-4.8933,52.0244],[-4.87876,52.01961],[-4.86647,52.02115],[-4.85731,52.02327],[-4.82389,52.01969],[-4.83926,52.02641],[-4.83842,52.03337],[-4.84711,52.03794],[-4.84393,52.04365],[-4.84231,52.04518],[-4.83683,52.05034],[-4.81859,52.05615],[-4.79955,52.058],[-4.79291,52.05864],[-4.78364,52.06552],[-4.77786,52.06723],[-4.77664,52.06813],[-4.76034,52.08028],[-4.75116,52.09289],[-4.74531,52.0958],[-4.74407,52.10071],[-4.747,52.10502],[-4.73725,52.10928],[-4.73154,52.1168],[-4.72669,52.11658],[-4.70919,52.10811],[-4.68981,52.10339],[-4.68988,52.1004],[-4.68182,52.09444],[-4.6817,52.08598],[-4.67487,52.09457],[-4.67533,52.09586],[-4.67487,52.10036],[-4.67561,52.10189],[-4.68773,52.10486],[-4.68559,52.1103],[-4.69129,52.11964],[-4.68782,52.12813],[-4.69336,52.13109],[-4.69025,52.1331],[-4.68748,52.1332],[-4.68366,52.12943],[-4.67559,52.12894],[-4.66974,52.13064],[-4.658,52.13404],[-4.64477,52.13418],[-4.64042,52.13838],[-4.61912,52.1383],[-4.60596,52.14022],[-4.59336,52.13768],[-4.58574,52.13824],[-4.57289,52.14367],[-4.56474,52.14424],[-4.55867,52.14319],[-4.54645,52.13495],[-4.52822,52.13482],[-4.51885,52.13527],[-4.49755,52.14388],[-4.48858,52.15301],[-4.47282,52.16019],[-4.47072,52.16115],[-4.46823,52.16962],[-4.45713,52.1677],[-4.44679,52.16993],[-4.42316,52.18284],[-4.40817,52.19273],[-4.3853,52.20782],[-4.37812,52.21479],[-4.36566,52.21915],[-4.36022,52.21751],[-4.35479,52.211],[-4.34241,52.21115],[-4.33695,52.21374],[-4.32433,52.21401],[-4.3065,52.22189],[-4.27108,52.23936],[-4.25349,52.24857],[-4.24623,52.24859],[-4.23883,52.24972],[-4.23359,52.25168],[-4.22939,52.2545],[-4.22639,52.25542],[-4.21741,52.2595],[-4.21311,52.26214],[-4.21062,52.26261],[-4.2075,52.26382],[-4.2036,52.26665],[-4.1994,52.2733],[-4.19555,52.27582],[-4.19322,52.27649],[-4.19031,52.27915],[-4.18298,52.29129],[-4.17987,52.29241],[-4.16823,52.29697],[-4.16184,52.30602],[-4.14001,52.32342],[-4.12041,52.35251],[-4.11846,52.35824],[-4.11827,52.3613],[-4.11658,52.36444],[-4.11398,52.36765],[-4.11175,52.36934],[-4.1111,52.37399],[-4.10874,52.37753],[-4.10421,52.38197],[-4.10068,52.38564],[-4.09624,52.39276],[-4.09274,52.39627],[-4.09087,52.39695],[-4.08933,52.39912],[-4.08998,52.40392],[-4.09116,52.41349],[-4.08726,52.41561],[-4.08523,52.41737],[-4.08316,52.42839],[-4.08009,52.43229],[-4.081,52.44296],[-4.07783,52.44919],[-4.07291,52.45885],[-4.06118,52.47665],[-4.05208,52.48177],[-4.05843,52.52341],[-4.0547,52.53334],[-4.05147,52.53371],[-4.04728,52.52801],[-4.04078,52.52494],[-4.03483,52.52708],[-4.01413,52.52712],[-3.99503,52.53516],[-3.97411,52.54023],[-3.9662,52.54515],[-3.96493,52.54882],[-3.95124,52.55669],[-3.9428,52.55789],[-3.93434,52.55327],[-3.93101,52.55361],[-3.94107,52.55978],[-3.96149,52.55988],[-3.97084,52.55586],[-3.97411,52.5556],[-3.98556,52.5547],[-4.01422,52.54742],[-4.03268,52.54507],[-4.06166,52.54139],[-4.0712,52.54435],[-4.07783,52.55389],[-4.08143,52.55907],[-4.10574,52.58992],[-4.11626,52.60068],[-4.11988,52.60348],[-4.12651,52.60734],[-4.1253,52.60845],[-4.12712,52.61574],[-4.11643,52.64033],[-4.09557,52.66647],[-4.07783,52.67671],[-4.05905,52.68753],[-4.05654,52.70791],[-4.04806,52.70518],[-4.03926,52.70687],[-4.03573,52.7084],[-4.03268,52.71389],[-4.01726,52.71925],[-4.01173,52.71724],[-3.99869,52.72474],[-3.98884,52.73541],[-3.97411,52.73898],[-3.97191,52.73952],[-3.95901,52.74702],[-3.94942,52.75101],[-3.94511,52.74954],[-3.93892,52.74888],[-3.94952,52.75246],[-3.96352,52.75033],[-3.97411,52.74501],[-3.97739,52.74336],[-3.98956,52.7402],[-3.99705,52.7396],[-4.00263,52.73675],[-4.02342,52.73459],[-4.03268,52.72444],[-4.03479,52.72212],[-4.05388,52.71895],[-4.06131,52.72193],[-4.07783,52.74225],[-4.08504,52.75112],[-4.1123,52.77407],[-4.14422,52.80092],[-4.15018,52.80791],[-4.15176,52.81455],[-4.14675,52.81892],[-4.12903,52.82701],[-4.1191,52.84809],[-4.12495,52.85937],[-4.14657,52.88474],[-4.14901,52.89469],[-4.14301,52.89857],[-4.13433,52.90039],[-4.13263,52.89726],[-4.11643,52.8958],[-4.09268,52.9012],[-4.08278,52.90166],[-4.08531,52.90343],[-4.07783,52.91139],[-4.07556,52.91381],[-4.05864,52.92072],[-4.06622,52.92265],[-4.07549,52.92252],[-4.07783,52.92144],[-4.10383,52.90937],[-4.11119,52.9122],[-4.11033,52.91939],[-4.12071,52.92265],[-4.12844,52.92267],[-4.13619,52.91356],[-4.14972,52.90991],[-4.15302,52.90652],[-4.16819,52.90579],[-4.17987,52.90951],[-4.19419,52.91407],[-4.20041,52.91378],[-4.21726,52.91864],[-4.22667,52.91904],[-4.23285,52.91544],[-4.27183,52.91051],[-4.28085,52.91138],[-4.29034,52.91054],[-4.29973,52.91074],[-4.31302,52.90915],[-4.31623,52.90842],[-4.32449,52.9047],[-4.32686,52.8927],[-4.37509,52.89633],[-4.38934,52.89549],[-4.39787,52.89298],[-4.40195,52.88914],[-4.40158,52.88487],[-4.40506,52.8854],[-4.40779,52.89021],[-4.4165,52.88746],[-4.40573,52.88251],[-4.45236,52.87231],[-4.45706,52.87117],[-4.47282,52.85944],[-4.47776,52.85577],[-4.47807,52.85362],[-4.47282,52.85089],[-4.47118,52.85004],[-4.47093,52.84795],[-4.47282,52.84732],[-4.48194,52.84426],[-4.49385,52.83885],[-4.50173,52.83082],[-4.50272,52.82712],[-4.49842,52.82496],[-4.50003,52.81255],[-4.49544,52.80998],[-4.48809,52.81062],[-4.48458,52.80679],[-4.48672,52.79559],[-4.4919,52.79164],[-4.49963,52.79487],[-4.51451,52.79282],[-4.51955,52.78223],[-4.52761,52.77817],[-4.53098,52.77849],[-4.54185,52.78677],[-4.54169,52.79358],[-4.53695,52.79982],[-4.54278,52.80397],[-4.55281,52.80954],[-4.57187,52.81781],[-4.58092,52.821],[-4.59381,52.82402],[-4.60626,52.82496],[-4.61222,52.82379],[-4.62447,52.80996],[-4.64552,52.79983],[-4.6495,52.79997],[-4.65238,52.80402],[-4.66214,52.80573],[-4.67777,52.80086],[-4.6886,52.79418],[-4.69147,52.79521],[-4.69265,52.79928],[-4.69698,52.80096],[-4.71011,52.80329],[-4.71942,52.80286],[-4.73191,52.78283],[-4.73844,52.78455],[-4.74399,52.78396],[-4.75339,52.78938],[-4.75649,52.78875],[-4.7609,52.7907],[-4.76707,52.79731],[-4.75195,52.80579],[-4.75092,52.81584],[-4.74102,52.82214],[-4.73414,52.83159],[-4.72382,52.83722],[-4.72329,52.84173],[-4.72644,52.84564],[-4.72493,52.85405],[-4.70283,52.85949],[-4.69441,52.86167],[-4.6886,52.87494],[-4.67564,52.87553],[-4.6685,52.87913],[-4.66508,52.88405],[-4.66614,52.88917],[-4.6489,52.90602],[-4.63972,52.90494],[-4.6323,52.90643],[-4.62474,52.91235],[-4.61825,52.92198],[-4.61128,52.92436],[-4.6066,52.92643],[-4.59526,52.92748],[-4.57927,52.93775],[-4.57079,52.93931],[-4.5667,52.94801],[-4.56448,52.94673],[-4.56622,52.94091],[-4.56327,52.93875],[-4.55423,52.93729],[-4.54278,52.93844],[-4.53716,52.94049],[-4.53517,52.93802],[-4.52842,52.93764],[-4.51098,52.94502],[-4.49654,52.95327],[-4.48237,52.96561],[-4.47282,52.96775],[-4.47096,52.96816],[-4.46105,52.98149],[-4.44407,52.99088],[-4.43765,52.99802],[-4.42797,52.99975],[-4.41204,52.99781],[-4.40209,53.00459],[-4.39552,53.00813],[-4.39,53.01341],[-4.38413,53.01544],[-4.38102,53.01797],[-4.3737,53.02178],[-4.36951,53.02627],[-4.36542,53.02719],[-4.36174,53.03081],[-4.35865,53.0311],[-4.35351,53.03352],[-4.3511,53.03658],[-4.34999,53.03934],[-4.34938,53.04471],[-4.34566,53.04651],[-4.34257,53.04685],[-4.3407,53.05202],[-4.33895,53.05388],[-4.3395,53.05993],[-4.33783,53.06504],[-4.33788,53.06699],[-4.33835,53.07438],[-4.33652,53.07828],[-4.33649,53.08427],[-4.33806,53.08848],[-4.34417,53.09895],[-4.34655,53.10458],[-4.34711,53.10695],[-4.34586,53.11463],[-4.33828,53.12186],[-4.3314,53.12323],[-4.3268,53.11942],[-4.33267,53.11361],[-4.32486,53.10695],[-4.32483,53.10405],[-4.32404,53.10195],[-4.3199,53.09889],[-4.31454,53.10163],[-4.31121,53.10695],[-4.31174,53.12613],[-4.30994,53.12713],[-4.29352,53.13625],[-4.27837,53.14076],[-4.26011,53.15812],[-4.24288,53.17059],[-4.21415,53.18218],[-4.2103,53.18929],[-4.20969,53.2014],[-4.2053,53.20674],[-4.1937,53.21337],[-4.17535,53.21834],[-4.16819,53.21863],[-4.16309,53.21889],[-4.16059,53.21968],[-4.15752,53.22181],[-4.15625,53.22269],[-4.15184,53.22547],[-4.14647,53.22902],[-4.14137,53.23058],[-4.13657,53.23097],[-4.13425,53.23215],[-4.12773,53.23569],[-4.12317,53.23686],[-4.11887,53.23526],[-4.1191,53.23417],[-4.11551,53.23157],[-4.11362,53.23153],[-4.11131,53.2322],[-4.11067,53.2347],[-4.1056,53.2333],[-4.09453,53.23519],[-4.08043,53.22947],[-4.07783,53.23015],[-4.06575,53.23332],[-4.04851,53.23411],[-4.03492,53.23683],[-4.03268,53.2381],[-4.02563,53.24209],[-4.01255,53.24433],[-4.00738,53.24693],[-4.00112,53.249],[-4.00039,53.25305],[-3.97411,53.26097],[-3.95974,53.2653],[-3.93131,53.2694],[-3.91576,53.27458],[-3.91153,53.27599],[-3.89563,53.28437],[-3.89047,53.28561],[-3.88367,53.2887],[-3.88043,53.2895],[-3.87838,53.28912],[-3.86493,53.28843],[-3.85212,53.29521],[-3.84611,53.29608],[-3.83739,53.29205],[-3.82248,53.27984],[-3.82248,53.28133],[-3.81893,53.28357],[-3.82248,53.28574],[-3.82463,53.28706],[-3.8227,53.28952],[-3.83739,53.29564],[-3.83993,53.30403],[-3.84085,53.30648],[-3.84321,53.30872],[-3.84382,53.31833],[-3.8502,53.32266],[-3.87647,53.33275],[-3.87814,53.33933],[-3.86768,53.34276],[-3.83344,53.33763],[-3.82845,53.32542],[-3.82332,53.32377],[-3.81355,53.3226],[-3.80553,53.32287],[-3.78799,53.32523],[-3.78178,53.32811],[-3.77573,53.32818],[-3.76584,53.31946],[-3.75679,53.31691],[-3.7498,53.31565],[-3.74393,53.31559],[-3.73988,53.31445],[-3.73781,53.31163],[-3.73879,53.31021],[-3.73904,53.30722],[-3.73876,53.30564],[-3.73743,53.30389],[-3.73209,53.30045],[-3.72641,53.29765],[-3.72335,53.29681],[-3.71535,53.29494],[-3.70755,53.29386],[-3.69666,53.29323],[-3.68637,53.29363],[-3.68032,53.29454],[-3.67702,53.29361],[-3.6719,53.29293],[-3.6546,53.29219],[-3.63442,53.29459],[-3.62261,53.29071],[-3.61955,53.29021],[-3.6132,53.29013],[-3.60963,53.29049],[-3.60114,53.29161],[-3.58936,53.29432],[-3.57757,53.29678],[-3.56396,53.30032],[-3.55361,53.30352],[-3.51361,53.31635],[-3.50707,53.31524],[-3.49027,53.32506],[-3.48061,53.32837],[-3.47227,53.3299],[-3.4687,53.32945],[-3.46219,53.33029],[-3.44927,53.33273],[-3.44695,53.33316],[-3.4351,53.33687],[-3.42682,53.33892],[-3.41279,53.34264],[-3.40836,53.34368],[-3.36339,53.35203],[-3.36066,53.3466],[-3.36829,53.34522],[-3.36785,53.33677],[-3.37583,53.33215]]],[[[-4.40808,53.42659],[-4.40258,53.42257],[-4.39281,53.42516],[-4.3721,53.42407],[-4.36435,53.41817],[-4.35725,53.41585],[-4.33798,53.41888],[-4.296,53.4133],[-4.28896,53.41567],[-4.27612,53.4028],[-4.27081,53.39338],[-4.27141,53.38633],[-4.28069,53.37637],[-4.27352,53.37449],[-4.26687,53.36946],[-4.26337,53.36073],[-4.2463,53.36018],[-4.23036,53.35691],[-4.23485,53.35175],[-4.22818,53.34436],[-4.23255,53.33919],[-4.22484,53.33722],[-4.21907,53.31961],[-4.20458,53.31324],[-4.20756,53.3058],[-4.21342,53.30126],[-4.21308,53.29813],[-4.20263,53.29562],[-4.17326,53.302],[-4.17208,53.30309],[-4.16819,53.30329],[-4.15752,53.30409],[-4.14528,53.30501],[-4.13444,53.31469],[-4.11839,53.31909],[-4.09938,53.31826],[-4.08145,53.31368],[-4.07783,53.31383],[-4.0576,53.31465],[-4.04102,53.31107],[-4.04588,53.30563],[-4.05648,53.30251],[-4.05879,53.29599],[-4.06544,53.29431],[-4.07127,53.28987],[-4.076,53.28148],[-4.07783,53.28022],[-4.08566,53.27487],[-4.08782,53.26357],[-4.09732,53.26112],[-4.1032,53.25503],[-4.12402,53.24735],[-4.14332,53.23731],[-4.15752,53.2328],[-4.15524,53.2289],[-4.16249,53.22253],[-4.17645,53.22343],[-4.18739,53.21761],[-4.20281,53.21423],[-4.21411,53.20536],[-4.21448,53.19267],[-4.21933,53.18619],[-4.24434,53.17927],[-4.27573,53.16327],[-4.28474,53.15527],[-4.30441,53.14718],[-4.31921,53.1446],[-4.32576,53.14793],[-4.33753,53.14769],[-4.34077,53.14188],[-4.35022,53.13526],[-4.34141,53.13067],[-4.34446,53.13007],[-4.3584,53.13186],[-4.3841,53.14229],[-4.40668,53.14512],[-4.41813,53.15987],[-4.41865,53.16248],[-4.4147,53.16619],[-4.38575,53.17162],[-4.38103,53.18186],[-4.38547,53.18997],[-4.39664,53.18734],[-4.41082,53.17769],[-4.41412,53.1721],[-4.42925,53.16087],[-4.44008,53.1569],[-4.44972,53.1639],[-4.46032,53.18032],[-4.46443,53.18204],[-4.47282,53.18166],[-4.4867,53.1779],[-4.4896,53.1803],[-4.48879,53.18618],[-4.50505,53.18727],[-4.506,53.19616],[-4.49824,53.20696],[-4.50466,53.20739],[-4.50209,53.21176],[-4.50625,53.21715],[-4.52353,53.22531],[-4.5226,53.23177],[-4.52486,53.23446],[-4.5353,53.2372],[-4.54278,53.24277],[-4.55354,53.24825],[-4.55666,53.2456],[-4.56333,53.24647],[-4.58138,53.24048],[-4.58585,53.24129],[-4.58898,53.24457],[-4.59333,53.24061],[-4.59679,53.24077],[-4.6104,53.24515],[-4.61338,53.24822],[-4.61048,53.2564],[-4.61998,53.26324],[-4.6202,53.26632],[-4.62472,53.26981],[-4.61761,53.27737],[-4.61871,53.27949],[-4.62522,53.27913],[-4.6371,53.28162],[-4.63949,53.28391],[-4.64894,53.2841],[-4.65432,53.28596],[-4.66653,53.28206],[-4.67544,53.28384],[-4.68188,53.28221],[-4.68495,53.2831],[-4.68628,53.28898],[-4.67924,53.29435],[-4.67958,53.29802],[-4.68215,53.29978],[-4.68988,53.30035],[-4.69558,53.30809],[-4.68233,53.315],[-4.68062,53.32303],[-4.66686,53.3195],[-4.65303,53.32252],[-4.64397,53.31846],[-4.6343,53.31669],[-4.62377,53.31771],[-4.623,53.31567],[-4.62763,53.31146],[-4.6163,53.30948],[-4.60979,53.30336],[-4.59728,53.30513],[-4.58858,53.30233],[-4.58814,53.29391],[-4.58316,53.29032],[-4.57485,53.28867],[-4.56101,53.29648],[-4.56087,53.30004],[-4.56569,53.30126],[-4.56247,53.31643],[-4.56959,53.31888],[-4.57259,53.32396],[-4.58189,53.32585],[-4.58354,53.33105],[-4.58083,53.33314],[-4.57368,53.33404],[-4.57049,53.33679],[-4.56951,53.34665],[-4.56638,53.35096],[-4.56831,53.35383],[-4.56074,53.36029],[-4.55591,53.37403],[-4.56303,53.37837],[-4.56695,53.38377],[-4.56541,53.38956],[-4.57173,53.3922],[-4.57109,53.39701],[-4.57514,53.401],[-4.57262,53.4043],[-4.5641,53.40673],[-4.55443,53.40465],[-4.54278,53.40682],[-4.52953,53.40677],[-4.52732,53.41154],[-4.5163,53.41403],[-4.50667,53.40927],[-4.50059,53.41287],[-4.49288,53.41217],[-4.48752,53.41385],[-4.48501,53.41903],[-4.47663,53.42194],[-4.4673,53.41627],[-4.45286,53.41545],[-4.44715,53.42362],[-4.42665,53.4289],[-4.40808,53.42659]]],[[[-5.28177,51.73829],[-5.27873,51.73746],[-5.27713,51.73904],[-5.273,51.73644],[-5.26859,51.73555],[-5.27435,51.73316],[-5.27913,51.73323],[-5.28024,51.73149],[-5.28206,51.73304],[-5.28068,51.73547],[-5.28256,51.73581],[-5.28864,51.73256],[-5.28773,51.73066],[-5.29311,51.72712],[-5.29535,51.72903],[-5.29935,51.72885],[-5.29812,51.73104],[-5.30108,51.73211],[-5.3064,51.73192],[-5.31114,51.73275],[-5.313,51.73517],[-5.31211,51.73688],[-5.31348,51.7397],[-5.30559,51.74241],[-5.30653,51.74286],[-5.30095,51.74517],[-5.29601,51.74476],[-5.28906,51.74208],[-5.28087,51.74108],[-5.28177,51.73829]]],[[[-5.33897,51.87907],[-5.33452,51.87717],[-5.33116,51.87905],[-5.32997,51.87741],[-5.33307,51.8741],[-5.33307,51.87152],[-5.33462,51.87004],[-5.33442,51.86671],[-5.33156,51.86419],[-5.33444,51.85843],[-5.33193,51.85661],[-5.33283,51.85405],[-5.34171,51.85466],[-5.34226,51.85852],[-5.34714,51.85697],[-5.35017,51.85772],[-5.34911,51.85951],[-5.35323,51.86335],[-5.35334,51.86522],[-5.34939,51.86736],[-5.34668,51.86657],[-5.34272,51.86963],[-5.34595,51.87102],[-5.3471,51.87609],[-5.33955,51.87759],[-5.33897,51.87907]]],[[[-4.70076,51.64151],[-4.6938,51.63969],[-4.68698,51.64196],[-4.68083,51.64133],[-4.67816,51.63919],[-4.67523,51.63898],[-4.67483,51.63757],[-4.67775,51.63753],[-4.6773,51.63562],[-4.68133,51.63362],[-4.67957,51.63242],[-4.68502,51.62984],[-4.68886,51.63132],[-4.69301,51.63145],[-4.69321,51.63397],[-4.69661,51.63403],[-4.70091,51.63207],[-4.70514,51.63272],[-4.70272,51.63423],[-4.70354,51.63606],[-4.7011,51.63677],[-4.70162,51.63876],[-4.70585,51.63917],[-4.70944,51.64216],[-4.70509,51.64219],[-4.70353,51.64333],[-4.70076,51.64151]]],[[[-4.79955,52.74659],[-4.80159,52.74546],[-4.80281,52.74675],[-4.80202,52.75111],[-4.79955,52.7532],[-4.79645,52.75671],[-4.79491,52.76743],[-4.78956,52.76835],[-4.78156,52.76664],[-4.78179,52.75741],[-4.78592,52.75379],[-4.79574,52.7534],[-4.79955,52.74659]]],[[[-5.27287,51.70345],[-5.27019,51.70182],[-5.26528,51.70221],[-5.26629,51.69953],[-5.26876,51.70006],[-5.27051,51.69567],[-5.27764,51.69322],[-5.28871,51.6933],[-5.29077,51.69552],[-5.28518,51.69717],[-5.28163,51.69964],[-5.28134,51.70134],[-5.27287,51.70345]]],[[[-4.41038,53.13767],[-4.4128,53.13406],[-4.41615,53.13481],[-4.40965,53.14267],[-4.40671,53.14255],[-4.40584,53.1402],[-4.41038,53.13767]]],[[[-4.02755,53.31649],[-4.03156,53.31537],[-4.03223,53.3166],[-4.03009,53.31921],[-4.02636,53.32098],[-4.0219,53.32156],[-4.02175,53.32002],[-4.02755,53.31649]]],[[[-4.04624,52.71529],[-4.05275,52.70994],[-4.05602,52.71075],[-4.04978,52.71666],[-4.04624,52.71529]]],[[[-4.60706,53.42185],[-4.60842,53.41915],[-4.61299,53.41988],[-4.61338,53.42128],[-4.60902,53.42224],[-4.60634,53.42496],[-4.60282,53.42373],[-4.60706,53.42185]]],[[[-4.45854,52.80486],[-4.46066,52.80339],[-4.46532,52.80549],[-4.46315,52.80754],[-4.45854,52.80486]]],[[[-5.47638,51.73155],[-5.4786,51.72934],[-5.48318,51.73036],[-5.47854,51.73316],[-5.47638,51.73155]]],[[[-4.33038,51.56373],[-4.33352,51.5629],[-4.33563,51.56584],[-4.33128,51.56605],[-4.32919,51.56494],[-4.33038,51.56373]]],[[[-4.30899,51.60937],[-4.31149,51.60735],[-4.31594,51.60934],[-4.31213,51.61095],[-4.30899,51.60937]]],[[[-4.71565,51.64449],[-4.71671,51.6408],[-4.7213,51.64171],[-4.72046,51.64339],[-4.71565,51.64449]]],[[[-5.26106,51.73559],[-5.26478,51.73327],[-5.26755,51.73473],[-5.26438,51.73717],[-5.26106,51.73559]]],[[[-5.33428,51.84941],[-5.339,51.84836],[-5.34007,51.85171],[-5.33457,51.8509],[-5.33428,51.84941]]],[[[-5.3868,51.87879],[-5.39014,51.87751],[-5.39296,51.87877],[-5.38865,51.88156],[-5.3868,51.87879]]],[[[-5.38417,51.90254],[-5.38899,51.9001],[-5.39076,51.9014],[-5.38717,51.90419],[-5.38417,51.90254]]],[[[-4.32704,53.12785],[-4.32902,53.12658],[-4.33424,53.12864],[-4.33103,53.13022],[-4.32704,53.12785]]],[[[-4.46907,52.79681],[-4.47152,52.79604],[-4.47312,52.79706],[-4.47312,52.80059],[-4.47086,52.80005],[-4.46907,52.79681]]],[[[-4.07872,52.91293],[-4.08168,52.91024],[-4.08439,52.91278],[-4.08262,52.91451],[-4.07872,52.91293]]],[[[-4.25149,53.38555],[-4.25353,53.38404],[-4.25606,53.38513],[-4.25608,53.38715],[-4.25361,53.38821],[-4.25149,53.38555]]]]},"properties":{"code":"UKL1","nom":"West Wales and The Valleys","country":"WAL"}}]}